"Level";"Country";"State";"County";"Place";"Longitude";"Latitude";"ZoomLevel";"Icon"
2;NLD;Limburg;Ambt Montfort;;E6.034;N51.131;11;places/NLD/flags/LI/Ambt_Montfoort.gif
3;NLD;Limburg;Ambt Montfort;Holst;E6.051;N51.131;13;
3;NLD;Limburg;Ambt Montfort;Lerop;E5.983;N51.167;12;
3;NLD;Limburg;Ambt Montfort;Montfort;E5.948;N51.126;12;
3;NLD;Limburg;Ambt Montfort;Paarlo;E6.036;N51.143;13;
3;NLD;Limburg;Ambt Montfort;Posterholt;E6.031;N51.126;12;
3;NLD;Limburg;Ambt Montfort;Putbroek;E5.987;N51.096;13;
3;NLD;Limburg;Ambt Montfort;Reutje;E6.008;N51.128;12;
3;NLD;Limburg;Ambt Montfort;Sint Odiliënberg;E6.002;N51.144;12;
3;NLD;Limburg;Ambt Montfort;Voorst;E6.034;N51.098;13;
3;NLD;Limburg;Ambt Montfort;Voorsterveld;E6.034;N51.099;13;
2;NLD;Limburg;Arcen en Velden;;E6.167;N51.452;11;places/NLD/flags/LI/Arcen_en_Velden.gif
3;NLD;Limburg;Arcen en Velden;Arcen;E6.180;N51.475;12;
3;NLD;Limburg;Arcen en Velden;Lomm;E6.169;N51.447;12;
3;NLD;Limburg;Arcen en Velden;Schandelo;E6.184;N51.424;12;
3;NLD;Limburg;Arcen en Velden;Velden;E6.167;N51.412;12;
2;NLD;Limburg;Beek;;E5.840;N50.940;12;places/NLD/flags/LI/Beek.gif
3;NLD;Limburg;Beek;Beek;E5.797;N50.937;12;
3;NLD;Limburg;Beek;Geverik;E5.783;N50.933;13;
3;NLD;Limburg;Beek;Groot Genhout;E5.823;N50.928;13;
3;NLD;Limburg;Beek;Kelmond;E5.802;N50.924;13;
3;NLD;Limburg;Beek;Klein Genhout;E5.803;N50.927;13;
3;NLD;Limburg;Beek;Neerbeek;E5.817;N50.950;12;
3;NLD;Limburg;Beek;Spaubeek;E5.840;N50.938;12;
2;NLD;Limburg;Beesel;;E6.083;N51.279;12;places/NLD/flags/LI/Beesel.gif
3;NLD;Limburg;Beesel;Beesel;E6.033;N51.267;12;
3;NLD;Limburg;Beesel;Offenbeek;E6.100;N51.283;13;
3;NLD;Limburg;Beesel;Reuver;E6.083;N51.283;12;
2;NLD;Limburg;Bergen;;E6.133;N51.601;10;places/NLD/flags/LI/Bergen.gif
3;NLD;Limburg;Bergen;Afferden;E6.017;N51.633;12;
3;NLD;Limburg;Bergen;Aijen;E6.043;N51.583;12;
3;NLD;Limburg;Bergen;Augustinus;;;12;
3;NLD;Limburg;Bergen;Bergen;E6.033;N51.600;12;
3;NLD;Limburg;Bergen;Hamert;E6.206;N51.513;12;
3;NLD;Limburg;Bergen;Leuken;E6.067;N51.567;13;
3;NLD;Limburg;Bergen;Nieuw Bergen;E6.054;N51.604;13;
3;NLD;Limburg;Bergen;Siebengewald;E6.106;N51.650;13;
3;NLD;Limburg;Bergen;Well;E6.093;N51.555;13;
3;NLD;Limburg;Bergen;Wellerlooi;E6.133;N51.533;12;
2;NLD;Limburg;Brunssum;;E5.938;N50.945;13;places/NLD/flags/LI/Brunssum.gif
3;NLD;Limburg;Brunssum;Bouwberg;E5.993;N50.953;12;
3;NLD;Limburg;Brunssum;Brunssum;E5.969;N50.946;12;
3;NLD;Limburg;Brunssum;Rumpen;E5.968;N50.940;13;
3;NLD;Limburg;Brunssum;Treebeek;E5.938;N50.931;12;
2;NLD;Limburg;Echt-Susteren;;E5.800;N51.087;11;places/NLD/flags/LI/Echt-Susteren.gif
3;NLD;Limburg;Echt-Susteren;Aasterberg;E5.850;N51.100;12;
3;NLD;Limburg;Echt-Susteren;Annendaal;E6.030;N51.109;12;
3;NLD;Limburg;Echt-Susteren;Baakhoven;E5.833;N51.067;12;
3;NLD;Limburg;Echt-Susteren;Berkelaar;E5.869;N51.123;12;
3;NLD;Limburg;Echt-Susteren;Dieteren;E5.842;N51.075;12;
3;NLD;Limburg;Echt-Susteren;Echt;E5.870;N51.104;12;
3;NLD;Limburg;Echt-Susteren;Echterbosch;E5.975;N51.074;13;
3;NLD;Limburg;Echt-Susteren;Gebroek;E5.817;N51.067;12;
3;NLD;Limburg;Echt-Susteren;Heide;E5.867;N51.067;13;
3;NLD;Limburg;Echt-Susteren;Hingen;E5.900;N51.111;13;
3;NLD;Limburg;Echt-Susteren;Illikhoven;E5.815;N51.064;12;
3;NLD;Limburg;Echt-Susteren;Kokkelert;E5.805;N51.084;13;
3;NLD;Limburg;Echt-Susteren;Koningsbosch;E5.960;N51.051;12;
3;NLD;Limburg;Echt-Susteren;Maria Hoop;E5.971;N51.090;12;
3;NLD;Limburg;Echt-Susteren;Nieuwstadt;E5.862;N51.035;12;
3;NLD;Limburg;Echt-Susteren;Oevereind;E5.833;N51.083;12;
3;NLD;Limburg;Echt-Susteren;Ophoven;E5.846;N51.097;13;
3;NLD;Limburg;Echt-Susteren;Oud-Roosteren;E5.831;N51.079;13;
3;NLD;Limburg;Echt-Susteren;Peij;E5.892;N51.094;12;
3;NLD;Limburg;Echt-Susteren;Roosteren;E5.817;N51.083;12;
3;NLD;Limburg;Echt-Susteren;Schilberg;E5.881;N51.099;13;
3;NLD;Limburg;Echt-Susteren;Sint Joost;E5.900;N51.117;12;
3;NLD;Limburg;Echt-Susteren;Slek;E5.883;N51.083;12;
3;NLD;Limburg;Echt-Susteren;Susteren;E5.850;N51.062;12;
3;NLD;Limburg;Echt-Susteren;Visserweert;E5.800;N51.067;13;
2;NLD;Limburg;Eijsden;;E5.720;N50.788;12;places/NLD/flags/LI/Eijsden.gif
3;NLD;Limburg;Eijsden;Breust;E5.720;N50.780;13;
3;NLD;Limburg;Eijsden;Eijsden;E5.710;N50.778;12;
3;NLD;Limburg;Eijsden;Gronsveld;E5.732;N50.810;12;
3;NLD;Limburg;Eijsden;Maarland;E5.714;N50.794;12;
3;NLD;Limburg;Eijsden;Mariadorp;E5.724;N50.774;12;
3;NLD;Limburg;Eijsden;Mesch;E5.731;N50.763;12;
3;NLD;Limburg;Eijsden;Oost-Maarland;;;12;
3;NLD;Limburg;Eijsden;Rijckholt;E5.733;N50.800;12;
3;NLD;Limburg;Eijsden;Withuis;E5.720;N50.767;13;
2;NLD;Limburg;Gennep;;E6.017;N51.707;11;places/NLD/flags/LI/Gennep.gif
3;NLD;Limburg;Gennep;Aaldonk;E6.000;N51.717;13;
3;NLD;Limburg;Gennep;Dam;E6.033;N51.714;12;
3;NLD;Limburg;Gennep;De Looi;E6.017;N51.700;13;
3;NLD;Limburg;Gennep;Diekendaal;;;12;
3;NLD;Limburg;Gennep;Gennep;E5.977;N51.694;13;
3;NLD;Limburg;Gennep;Heijen;E5.979;N51.675;12;
3;NLD;Limburg;Gennep;Hekkens;;;12;
3;NLD;Limburg;Gennep;Milsbeek;E5.950;N51.727;12;
3;NLD;Limburg;Gennep;Ottersum;E5.983;N51.700;12;
3;NLD;Limburg;Gennep;Smele;;;12;
3;NLD;Limburg;Gennep;Ven-Zelderheide;E6.022;N51.712;13;
3;NLD;Limburg;Gennep;Zelder;E6.017;N51.700;13;
2;NLD;Limburg;Gulpen-Wittem;;E5.912;N50.813;11;places/NLD/flags/LI/Gulpen-Wittem.gif
3;NLD;Limburg;Gulpen-Wittem;Beertsenhoven;E5.883;N50.833;13;
3;NLD;Limburg;Gulpen-Wittem;Berghem;E5.900;N50.800;13;
3;NLD;Limburg;Gulpen-Wittem;Berghof;;;12;
3;NLD;Limburg;Gulpen-Wittem;Beutenaken;E5.854;N50.781;12;
3;NLD;Limburg;Gulpen-Wittem;Billinghuizen;E5.867;N50.800;13;
3;NLD;Limburg;Gulpen-Wittem;Bissen;E5.900;N50.783;13;
3;NLD;Limburg;Gulpen-Wittem;Bommerig;;;12;
3;NLD;Limburg;Gulpen-Wittem;Broek;E5.917;N50.783;13;
3;NLD;Limburg;Gulpen-Wittem;Cartils;E5.901;N50.823;12;
3;NLD;Limburg;Gulpen-Wittem;Crapoel;E5.881;N50.794;12;
3;NLD;Limburg;Gulpen-Wittem;Dal;E5.900;N50.783;13;
3;NLD;Limburg;Gulpen-Wittem;De Hut;E5.847;N50.815;12;
3;NLD;Limburg;Gulpen-Wittem;Diependal;E5.917;N50.767;13;
3;NLD;Limburg;Gulpen-Wittem;Dijk;;;12;
3;NLD;Limburg;Gulpen-Wittem;Elkenrade;E5.918;N50.841;12;
3;NLD;Limburg;Gulpen-Wittem;Elzet;E5.939;N50.789;13;
3;NLD;Limburg;Gulpen-Wittem;Epen;E5.911;N50.775;12;
3;NLD;Limburg;Gulpen-Wittem;Eperheide;E5.892;N50.772;12;
3;NLD;Limburg;Gulpen-Wittem;Etenaken;E5.883;N50.850;13;
3;NLD;Limburg;Gulpen-Wittem;Euverem;E5.868;N50.803;13;
3;NLD;Limburg;Gulpen-Wittem;Eys;E5.935;N50.825;12;
3;NLD;Limburg;Gulpen-Wittem;Eyserheide;E5.932;N50.839;13;
3;NLD;Limburg;Gulpen-Wittem;Gracht;;;12;
3;NLD;Limburg;Gulpen-Wittem;Gulpen;E5.888;N50.817;12;
3;NLD;Limburg;Gulpen-Wittem;Höfke;E5.917;N50.783;13;
3;NLD;Limburg;Gulpen-Wittem;Heijenrath;;;12;
3;NLD;Limburg;Gulpen-Wittem;Helle;E5.933;N50.783;13;
3;NLD;Limburg;Gulpen-Wittem;Hilleshagen;E5.943;N50.799;13;
3;NLD;Limburg;Gulpen-Wittem;Hurpesch;;;12;
3;NLD;Limburg;Gulpen-Wittem;Ingber;E5.858;N50.818;13;
3;NLD;Limburg;Gulpen-Wittem;Kapolder;E5.900;N50.833;13;
3;NLD;Limburg;Gulpen-Wittem;Kleeberg;E5.929;N50.791;13;
3;NLD;Limburg;Gulpen-Wittem;Kosberg;E5.900;N50.783;13;
3;NLD;Limburg;Gulpen-Wittem;Kuttingen;E5.917;N50.767;13;
3;NLD;Limburg;Gulpen-Wittem;Landsrade;E5.883;N50.783;12;
3;NLD;Limburg;Gulpen-Wittem;Mechelen;E5.925;N50.795;12;
3;NLD;Limburg;Gulpen-Wittem;Mingersberg;E5.950;N50.850;13;
3;NLD;Limburg;Gulpen-Wittem;Nijswiller;E5.959;N50.808;12;
3;NLD;Limburg;Gulpen-Wittem;Overeys;E5.946;N50.826;13;
3;NLD;Limburg;Gulpen-Wittem;Overgeul;E5.918;N50.796;13;
3;NLD;Limburg;Gulpen-Wittem;Partij;E5.921;N50.809;13;
3;NLD;Limburg;Gulpen-Wittem;Pesaken;E5.867;N50.800;12;
3;NLD;Limburg;Gulpen-Wittem;Piepert;E5.917;N50.833;13;
3;NLD;Limburg;Gulpen-Wittem;Plaat;E5.917;N50.767;13;
3;NLD;Limburg;Gulpen-Wittem;Reijmerstok;E5.833;N50.800;12;
3;NLD;Limburg;Gulpen-Wittem;Schilberg;E5.846;N50.770;13;
3;NLD;Limburg;Gulpen-Wittem;Schweiberg;E5.906;N50.786;13;
3;NLD;Limburg;Gulpen-Wittem;Sinselbeek;E5.919;N50.811;13;
3;NLD;Limburg;Gulpen-Wittem;Slenaken;E5.867;N50.767;12;
3;NLD;Limburg;Gulpen-Wittem;Stokhem;E5.883;N50.833;13;
3;NLD;Limburg;Gulpen-Wittem;Terlinden;E5.832;N50.788;12;
3;NLD;Limburg;Gulpen-Wittem;Terpoorten;E5.917;N50.771;13;
3;NLD;Limburg;Gulpen-Wittem;Terziet;E5.910;N50.765;12;
3;NLD;Limburg;Gulpen-Wittem;Trintelen;E5.948;N50.840;12;
3;NLD;Limburg;Gulpen-Wittem;Wahlwiller;E5.937;N50.810;12;
3;NLD;Limburg;Gulpen-Wittem;Wijlre;E5.895;N50.832;12;
3;NLD;Limburg;Gulpen-Wittem;Wittem;E5.912;N50.812;12;
2;NLD;Limburg;Haelen;;E5.962;N51.229;12;places/NLD/flags/LI/Haelen.gif
3;NLD;Limburg;Haelen;Buggenum;E5.977;N51.232;12;
3;NLD;Limburg;Haelen;Haelen;E5.956;N51.234;12;
3;NLD;Limburg;Haelen;Horn;E5.946;N51.209;12;
3;NLD;Limburg;Haelen;Nunhem;E5.962;N51.243;12;
2;NLD;Limburg;Heel;;E5.881;N51.178;12;places/NLD/flags/LI/Heel.gif
3;NLD;Limburg;Heel;Beegden;E5.921;N51.189;12;
3;NLD;Limburg;Heel;Heel;E5.898;N51.179;12;
3;NLD;Limburg;Heel;Panheel;E5.874;N51.175;12;
3;NLD;Limburg;Heel;Wessem;E5.881;N51.161;12;
2;NLD;Limburg;Heerlen;;E5.963;N50.883;11;places/NLD/flags/LI/Heerlen.gif
3;NLD;Limburg;Heerlen;Beersdal;E5.962;N50.903;13;
3;NLD;Limburg;Heerlen;Beitel;E6.004;N50.846;12;
3;NLD;Limburg;Heerlen;Benzenrade;E5.977;N50.865;12;
3;NLD;Limburg;Heerlen;Heerlen;E5.981;N50.881;12;
3;NLD;Limburg;Heerlen;Heerlerbaan;E5.995;N50.869;13;
3;NLD;Limburg;Heerlen;Heerlerheide;E5.956;N50.915;12;
3;NLD;Limburg;Heerlen;Hoensbroek;E5.927;N50.920;12;
3;NLD;Limburg;Heerlen;Nieuw Einde;;;12;
3;NLD;Limburg;Heerlen;Onderste Locht;;;12;
3;NLD;Limburg;Heerlen;Palemig;E5.971;N50.902;13;
3;NLD;Limburg;Heerlen;Welten;E5.963;N50.874;12;
2;NLD;Limburg;Helden;;E5.982;N51.341;12;places/NLD/flags/LI/Helden.gif
3;NLD;Limburg;Helden;Beringe;E5.946;N51.336;12;
3;NLD;Limburg;Helden;Egchel;E5.970;N51.313;12;
3;NLD;Limburg;Helden;Grashoek;E5.943;N51.361;12;
3;NLD;Limburg;Helden;Helden;E6.000;N51.317;12;
3;NLD;Limburg;Helden;Koningslust;E5.997;N51.356;12;
3;NLD;Limburg;Helden;Panningen;E5.982;N51.327;12;
2;NLD;Limburg;Heythuysen;;E5.828;N51.221;12;places/NLD/flags/LI/Heythuysen.gif
3;NLD;Limburg;Heythuysen;Baexem;E5.884;N51.225;12;
3;NLD;Limburg;Heythuysen;Grathem;E5.856;N51.192;12;
3;NLD;Limburg;Heythuysen;Heythuysen;E5.895;N51.249;12;
3;NLD;Limburg;Heythuysen;Kelpen;E5.823;N51.222;13;
3;NLD;Limburg;Heythuysen;Kelpen-Oler;E5.828;N51.218;13;
3;NLD;Limburg;Heythuysen;Oler;E5.828;N51.214;13;
2;NLD;Limburg;Horst aan de Maas;;E6.148;N51.457;11;places/NLD/flags/LI/Horst_aan_de_Maas.gif
3;NLD;Limburg;Horst aan de Maas;America;E5.983;N51.433;12;
3;NLD;Limburg;Horst aan de Maas;Broekeind;E6.142;N51.422;12;
3;NLD;Limburg;Horst aan de Maas;Broekhuizen;E6.167;N51.483;12;
3;NLD;Limburg;Horst aan de Maas;Broekhuizenvorst;E6.162;N51.494;13;
3;NLD;Limburg;Horst aan de Maas;Californië;E6.117;N51.417;13;
3;NLD;Limburg;Horst aan de Maas;De Steegh;;;12;
3;NLD;Limburg;Horst aan de Maas;Griendtsveen;E5.889;N51.442;12;
3;NLD;Limburg;Horst aan de Maas;Grubbenvorst;E6.147;N51.419;13;
3;NLD;Limburg;Horst aan de Maas;Hegelsom;E6.033;N51.433;12;
3;NLD;Limburg;Horst aan de Maas;Homberg;E6.150;N51.467;13;
3;NLD;Limburg;Horst aan de Maas;Horst;E6.050;N51.450;12;
3;NLD;Limburg;Horst aan de Maas;Houthuizen;E6.150;N51.450;13;
3;NLD;Limburg;Horst aan de Maas;Lottum;E6.163;N51.462;13;
3;NLD;Limburg;Horst aan de Maas;Lovendaal;E6.133;N51.417;13;
3;NLD;Limburg;Horst aan de Maas;Melderslo;E6.085;N51.460;12;
3;NLD;Limburg;Horst aan de Maas;Meterik;E6.025;N51.454;12;
3;NLD;Limburg;Horst aan de Maas;Ooijen;E6.152;N51.508;13;
3;NLD;Limburg;Horst aan de Maas;Raaieind;E6.143;N51.396;12;
3;NLD;Limburg;Horst aan de Maas;Wielder;;;12;
3;NLD;Limburg;Horst aan de Maas;Zwaanenheike;E6.148;N51.460;13;
2;NLD;Limburg;Hunsel;;E5.802;N51.199;11;places/NLD/flags/LI/Hunsel.gif
3;NLD;Limburg;Hunsel;Ell;E5.796;N51.220;12;
3;NLD;Limburg;Hunsel;Haler;E5.779;N51.187;12;
3;NLD;Limburg;Hunsel;Hunsel;E5.810;N51.188;12;
3;NLD;Limburg;Hunsel;Ittervoort;E5.817;N51.167;12;
3;NLD;Limburg;Hunsel;Neeritter;E5.802;N51.165;12;
2;NLD;Limburg;Kerkrade;;E6.025;N50.874;12;places/NLD/flags/LI/Kerkrade.gif
3;NLD;Limburg;Kerkrade;Beerenbos;E6.082;N50.873;13;
3;NLD;Limburg;Kerkrade;Bleijerheide;E6.066;N50.854;13;
3;NLD;Limburg;Kerkrade;Bovenste Locht;;;12;
3;NLD;Limburg;Kerkrade;Chevremont;E6.071;N50.875;13;
3;NLD;Limburg;Kerkrade;Eygelshoven;E6.061;N50.893;12;
3;NLD;Limburg;Kerkrade;Haanrade;E6.076;N50.879;12;
3;NLD;Limburg;Kerkrade;Hopel;E6.039;N50.889;12;
3;NLD;Limburg;Kerkrade;Kaalheide;E6.034;N50.863;12;
3;NLD;Limburg;Kerkrade;Kerkrade;E6.061;N50.864;12;
3;NLD;Limburg;Kerkrade;Spekholzerheide;E6.025;N50.856;13;
3;NLD;Limburg;Kerkrade;Terwinselen;E6.025;N50.867;13;
2;NLD;Limburg;Kessel;;E6.050;N51.306;12;places/NLD/flags/LI/Kessel.gif
3;NLD;Limburg;Kessel;Broek;E6.047;N51.296;13;
3;NLD;Limburg;Kessel;Dijk;E6.033;N51.300;12;
3;NLD;Limburg;Kessel;Donk;E6.067;N51.317;13;
3;NLD;Limburg;Kessel;Heide;E6.017;N51.283;13;
3;NLD;Limburg;Kessel;Hout;E6.079;N51.303;13;
3;NLD;Limburg;Kessel;Kessel;E6.055;N51.291;12;
3;NLD;Limburg;Kessel;Kesseleik;E6.022;N51.280;12;
3;NLD;Limburg;Kessel;Kruisberg;E6.036;N51.285;13;
3;NLD;Limburg;Kessel;Oijen;E6.100;N51.317;13;
3;NLD;Limburg;Kessel;Spurkt;E6.033;N51.283;13;
3;NLD;Limburg;Kessel;Veers;E6.050;N51.283;13;
2;NLD;Limburg;Landgraaf;;E6.050;N50.913;13;places/NLD/flags/LI/Landgraaf.gif
3;NLD;Limburg;Landgraaf;Abdissenbosch;E6.032;N50.922;12;
3;NLD;Limburg;Landgraaf;Kakert;E6.005;N50.903;12;
3;NLD;Limburg;Landgraaf;Landgraaf;E6.030;N50.906;12;
3;NLD;Limburg;Landgraaf;Lauradorp;E6.046;N50.912;13;
3;NLD;Limburg;Landgraaf;Nieuwenhagen;E6.040;N50.905;13;
3;NLD;Limburg;Landgraaf;Rimburg;E6.083;N50.917;13;
3;NLD;Limburg;Landgraaf;Schaesberg;E6.015;N50.894;12;
3;NLD;Limburg;Landgraaf;Ubach over Worms;E6.051;N50.913;12;
3;NLD;Limburg;Landgraaf;Waubach;E6.050;N50.917;13;
2;NLD;Limburg;Maasbracht;;E5.845;N51.143;12;places/NLD/flags/LI/Maasbracht.gif
3;NLD;Limburg;Maasbracht;Bilt;;;12;
3;NLD;Limburg;Maasbracht;Brandt;E5.861;N51.136;12;
3;NLD;Limburg;Maasbracht;De Weerd;E5.918;N51.166;13;
3;NLD;Limburg;Maasbracht;Eiland;E5.855;N51.130;12;
3;NLD;Limburg;Maasbracht;Laak;E5.819;N51.118;13;
3;NLD;Limburg;Maasbracht;Linne;E5.941;N51.155;12;
3;NLD;Limburg;Maasbracht;Maasbracht;E5.889;N51.144;12;
3;NLD;Limburg;Maasbracht;Maasbracht-Beek;;;12;
3;NLD;Limburg;Maasbracht;Ohé;E5.832;N51.112;13;
3;NLD;Limburg;Maasbracht;Ohé en Laak;E5.832;N51.112;12;
3;NLD;Limburg;Maasbracht;Sint Joost;E5.900;N51.117;12;
3;NLD;Limburg;Maasbracht;Stevensweert;E5.845;N51.131;13;
2;NLD;Limburg;Maasbree;;E6.026;N51.353;12;places/NLD/flags/LI/Maasbree.gif
3;NLD;Limburg;Maasbree;Baarlo;E6.094;N51.330;12;
3;NLD;Limburg;Maasbree;Maasbree;E6.049;N51.359;12;
3;NLD;Limburg;Maasbree;Rooth;E6.079;N51.364;12;
3;NLD;Limburg;Maasbree;Tongerlo;E6.026;N51.372;12;
2;NLD;Limburg;Maastricht;;E5.686;N50.867;11;places/NLD/flags/LI/Maastricht.gif
3;NLD;Limburg;Maastricht;Amby;E5.731;N50.863;12;
3;NLD;Limburg;Maastricht;Biesland;E5.677;N50.842;12;
3;NLD;Limburg;Maastricht;Borgharen;E5.687;N50.876;12;
3;NLD;Limburg;Maastricht;Bosscherveld;E5.683;N50.867;13;
3;NLD;Limburg;Maastricht;Caberg;E5.667;N50.867;13;
3;NLD;Limburg;Maastricht;Heer;E5.729;N50.838;12;
3;NLD;Limburg;Maastricht;Heugem;E5.704;N50.833;12;
3;NLD;Limburg;Maastricht;Itteren;E5.704;N50.897;12;
3;NLD;Limburg;Maastricht;Limmel;E5.704;N50.865;12;
3;NLD;Limburg;Maastricht;Maastricht;E5.686;N50.848;12;
2;NLD;Limburg;Margraten;;;N50.811;11;places/NLD/flags/LI/Margraten.gif
3;NLD;Limburg;Margraten;'t Rooth;E5.787;N50.837;12;
3;NLD;Limburg;Margraten;Banholt;E5.807;N50.789;12;
3;NLD;Limburg;Margraten;Bemelen;E5.763;N50.846;12;
3;NLD;Limburg;Margraten;Bergenhuizen;E5.812;N50.774;12;
3;NLD;Limburg;Margraten;Bruisterbosch;E5.802;N50.805;12;
3;NLD;Limburg;Margraten;Cadier en Keer;E5.767;N50.828;12;
3;NLD;Limburg;Margraten;Eckelrade;E5.765;N50.806;12;
3;NLD;Limburg;Margraten;Gasthuis;E5.786;N50.842;12;
3;NLD;Limburg;Margraten;Groot-Welsden;E5.813;N50.830;13;
3;NLD;Limburg;Margraten;Herkenrade;E5.776;N50.796;12;
3;NLD;Limburg;Margraten;Honthem;E5.797;N50.813;12;
3;NLD;Limburg;Margraten;Hoogcruts;E5.843;N50.773;12;
3;NLD;Limburg;Margraten;Klein Welsden;E5.797;N50.831;12;
3;NLD;Limburg;Margraten;Margraten;E5.824;N50.819;12;
3;NLD;Limburg;Margraten;Mheer;E5.794;N50.780;12;
3;NLD;Limburg;Margraten;Moerslag;E5.760;N50.786;12;
3;NLD;Limburg;Margraten;Noorbeek;E5.810;N50.768;12;
3;NLD;Limburg;Margraten;Scheulder;E5.840;N50.829;13;
3;NLD;Limburg;Margraten;Schey;;;12;
3;NLD;Limburg;Margraten;Schilberg;E5.847;N50.770;13;
3;NLD;Limburg;Margraten;Sint Antoniusbank;;;12;
3;NLD;Limburg;Margraten;Sint Geertruid;;;12;
3;NLD;Limburg;Margraten;St Geertruid;;;12;
3;NLD;Limburg;Margraten;Terhorst;;;12;
3;NLD;Limburg;Margraten;Terlinden;;;12;
3;NLD;Limburg;Margraten;Termaar;;;12;
3;NLD;Limburg;Margraten;Wolfshuis;;;12;
2;NLD;Limburg;Meerlo-Wanssum;;E6.077;N51.520;11;places/NLD/flags/LI/Meerlo-Wanssum.gif
3;NLD;Limburg;Meerlo-Wanssum;Blitterswijck;E6.109;N51.531;12;
3;NLD;Limburg;Meerlo-Wanssum;Geijsteren;E6.050;N51.550;12;
3;NLD;Limburg;Meerlo-Wanssum;Meerlo;E6.084;N51.513;12;
3;NLD;Limburg;Meerlo-Wanssum;Swolgen;E6.116;N51.492;12;
3;NLD;Limburg;Meerlo-Wanssum;Tienray;E6.096;N51.494;12;
3;NLD;Limburg;Meerlo-Wanssum;Wanssum;E6.077;N51.537;12;
2;NLD;Limburg;Meerssen;;E5.781;N50.908;12;places/NLD/flags/LI/Meerssen.gif
3;NLD;Limburg;Meerssen;Brommelen;E5.736;N50.912;13;
3;NLD;Limburg;Meerssen;Bunde;E5.730;N50.896;12;
3;NLD;Limburg;Meerssen;Geulle;E5.747;N50.921;12;
3;NLD;Limburg;Meerssen;Hulsen;E5.750;N50.933;13;
3;NLD;Limburg;Meerssen;Kasen;E5.749;N50.905;13;
3;NLD;Limburg;Meerssen;Meerssen;E5.750;N50.883;12;
3;NLD;Limburg;Meerssen;Moorveld;E5.765;N50.920;13;
3;NLD;Limburg;Meerssen;Rothem;E5.738;N50.877;12;
3;NLD;Limburg;Meerssen;Smeermaas;;;12;
3;NLD;Limburg;Meerssen;Ulestraten;E5.781;N50.905;12;
2;NLD;Limburg;Meijel;;E5.885;N51.340;12;places/NLD/flags/LI/Meijel.gif
3;NLD;Limburg;Meijel;Meijel;E5.885;N51.342;12;
2;NLD;Limburg;Mook en Middelaar;;E5.921;N51.746;12;places/NLD/flags/LI/Mook_en_Middelaar.gif
3;NLD;Limburg;Mook en Middelaar;Middelaar;E5.914;N51.725;12;
3;NLD;Limburg;Mook en Middelaar;Molenhoek;E5.875;N51.766;12;
3;NLD;Limburg;Mook en Middelaar;Mook;E5.883;N51.750;12;
3;NLD;Limburg;Mook en Middelaar;Plasmolen;E5.921;N51.736;12;
2;NLD;Limburg;Nederweert;;E5.764;N51.277;12;places/NLD/flags/LI/Nederweert.gif
3;NLD;Limburg;Nederweert;Boeket;E5.727;N51.287;12;
3;NLD;Limburg;Nederweert;Budschap;E5.761;N51.283;13;
3;NLD;Limburg;Nederweert;Hulsen;E5.756;N51.280;12;
3;NLD;Limburg;Nederweert;Leveroy;E5.845;N51.249;12;
3;NLD;Limburg;Nederweert;Nederweert;E5.750;N51.283;12;
3;NLD;Limburg;Nederweert;Nederweert Eind;E5.782;N51.275;12;
3;NLD;Limburg;Nederweert;Ospel;E5.782;N51.298;12;
3;NLD;Limburg;Nederweert;Schoor;E5.764;N51.265;13;
2;NLD;Limburg;Nuth;;E5.881;N50.903;12;places/NLD/flags/LI/Nuth.gif
3;NLD;Limburg;Nuth;Aalbeek;E5.850;N50.900;12;
3;NLD;Limburg;Nuth;Arensgenhout;E5.840;N50.888;13;
3;NLD;Limburg;Nuth;Haasdal;E5.817;N50.883;13;
3;NLD;Limburg;Nuth;Heek;E5.869;N50.878;13;
3;NLD;Limburg;Nuth;Hulsberg;E5.858;N50.888;12;
3;NLD;Limburg;Nuth;Hunnecum;E5.868;N50.908;12;
3;NLD;Limburg;Nuth;Klimmen;E5.885;N50.875;12;
3;NLD;Limburg;Nuth;Nuth;E5.883;N50.917;12;
3;NLD;Limburg;Nuth;Oensel;E5.810;N50.910;12;
3;NLD;Limburg;Nuth;Schimmert;E5.824;N50.908;13;
3;NLD;Limburg;Nuth;Swier;E5.899;N50.904;13;
3;NLD;Limburg;Nuth;Vaesrade;E5.904;N50.929;12;
3;NLD;Limburg;Nuth;Wijnandsrade;E5.881;N50.906;12;
2;NLD;Limburg;Onderbanken;;E5.917;N50.973;12;
3;NLD;Limburg;Onderbanken;Bingelrade;E5.926;N50.976;13;
3;NLD;Limburg;Onderbanken;Douvergenhout;E5.929;N50.955;12;
3;NLD;Limburg;Onderbanken;Etzenrade;E5.964;N50.977;13;
3;NLD;Limburg;Onderbanken;Jabeek;E5.942;N50.978;12;
3;NLD;Limburg;Onderbanken;Merkelbeek;E5.940;N50.954;13;
3;NLD;Limburg;Onderbanken;Op den Hering;;;12;
3;NLD;Limburg;Onderbanken;Quabeek;E5.937;N50.971;13;
3;NLD;Limburg;Onderbanken;Raath;E5.933;N50.967;12;
3;NLD;Limburg;Onderbanken;Schinveld;E5.979;N50.970;12;
3;NLD;Limburg;Onderbanken;Viel;E5.917;N50.967;13;
2;NLD;Limburg;Roerdalen;;E6.076;N51.147;12;places/NLD/flags/LI/Roerdalen.gif
3;NLD;Limburg;Roerdalen;Herkenbosch;E6.067;N51.150;12;
3;NLD;Limburg;Roerdalen;Melick;E6.018;N51.159;12;
3;NLD;Limburg;Roerdalen;Vlodrop;E6.076;N51.131;12;
2;NLD;Limburg;Roermond;;E5.994;N51.190;12;places/NLD/flags/LI/Roermond.gif
3;NLD;Limburg;Roermond;Asenray;E6.049;N51.194;13;
3;NLD;Limburg;Roermond;Azenray;E6.048;N51.191;13;
3;NLD;Limburg;Roermond;Herten;E5.961;N51.182;13;
3;NLD;Limburg;Roermond;Leeuwen;E5.999;N51.208;12;
3;NLD;Limburg;Roermond;Maasniel;E6.014;N51.199;13;
3;NLD;Limburg;Roermond;Merum;E5.959;N51.173;12;
3;NLD;Limburg;Roermond;Ool;E5.947;N51.187;12;
3;NLD;Limburg;Roermond;Roermond;E5.994;N51.192;12;
2;NLD;Limburg;Roggel en Neer;;E5.926;N51.280;10;places/NLD/flags/LI/Roggel_en_Neer.gif
3;NLD;Limburg;Roggel en Neer;Heibloem;E5.895;N51.299;12;
3;NLD;Limburg;Roggel en Neer;Neer;E5.991;N51.261;12;
3;NLD;Limburg;Roggel en Neer;Roggel;E5.926;N51.262;12;
2;NLD;Limburg;Schinnen;;E5.846;N50.954;12;places/NLD/flags/LI/Schinnen.gif
3;NLD;Limburg;Schinnen;Amstenrade;E5.921;N50.939;12;
3;NLD;Limburg;Schinnen;Doenrade;E5.908;N50.968;13;
3;NLD;Limburg;Schinnen;Oirsbeek;E5.910;N50.948;12;
3;NLD;Limburg;Schinnen;Puth;E5.873;N50.953;12;
3;NLD;Limburg;Schinnen;Schinnen;E5.888;N50.942;12;
3;NLD;Limburg;Schinnen;Sweikhuizen;E5.846;N50.952;12;
2;NLD;Limburg;Sevenum;;E6.038;N51.410;12;places/NLD/flags/LI/Sevenum.gif
3;NLD;Limburg;Sevenum;Evertsoord;E5.959;N51.402;12;
3;NLD;Limburg;Sevenum;Kronenberg;E6.001;N51.414;12;
3;NLD;Limburg;Sevenum;Sevenum;E6.038;N51.411;12;
2;NLD;Limburg;Simpelveld;;E5.983;N50.827;12;places/NLD/flags/LI/Simpelveld.gif
3;NLD;Limburg;Simpelveld;Baneheide;E5.977;N50.817;12;
3;NLD;Limburg;Simpelveld;Bocholtz;E6.007;N50.816;12;
3;NLD;Limburg;Simpelveld;Simpelveld;E5.983;N50.833;12;
2;NLD;Limburg;Sittard-Geleen;;E5.888;N51.027;11;places/NLD/flags/LI/Sittard-Geleen.gif
3;NLD;Limburg;Sittard-Geleen;Abshoven;E5.850;N50.970;13;
3;NLD;Limburg;Sittard-Geleen;Born;E5.809;N51.033;12;
3;NLD;Limburg;Sittard-Geleen;Broeksittard;E5.895;N51.000;12;
3;NLD;Limburg;Sittard-Geleen;Buchten;E5.811;N51.039;12;
3;NLD;Limburg;Sittard-Geleen;Daniken;E5.850;N50.967;12;
3;NLD;Limburg;Sittard-Geleen;Einighausen;E5.827;N50.999;12;
3;NLD;Limburg;Sittard-Geleen;Gebroek;E5.817;N51.067;13;
3;NLD;Limburg;Sittard-Geleen;Geleen;E5.826;N50.968;12;
3;NLD;Limburg;Sittard-Geleen;Graetheide;E5.793;N51.023;13;
3;NLD;Limburg;Sittard-Geleen;Grevenbicht;E5.775;N51.038;12;
3;NLD;Limburg;Sittard-Geleen;Guttecoven;E5.818;N51.014;13;
3;NLD;Limburg;Sittard-Geleen;Holtum;E5.822;N51.049;12;
3;NLD;Limburg;Sittard-Geleen;Illikhoven;E5.808;N51.065;13;
3;NLD;Limburg;Sittard-Geleen;Limbricht;E5.836;N51.012;12;
3;NLD;Limburg;Sittard-Geleen;Munstergeleen;E5.865;N50.974;12;
3;NLD;Limburg;Sittard-Geleen;Obbicht;E5.782;N51.027;12;
3;NLD;Limburg;Sittard-Geleen;Papenhoven;E5.777;N51.042;13;
3;NLD;Limburg;Sittard-Geleen;Schipperskerk;E5.792;N51.045;13;
3;NLD;Limburg;Sittard-Geleen;Sittard;E5.863;N50.996;12;
3;NLD;Limburg;Sittard-Geleen;Windraak;E5.888;N50.972;13;
2;NLD;Limburg;Stein;;E5.733;N50.985;11;places/NLD/flags/LI/Stein.gif
3;NLD;Limburg;Stein;Berg;E5.767;N51.000;12;
3;NLD;Limburg;Stein;Berg aan de Maas;E5.771;N51.005;13;
3;NLD;Limburg;Stein;Catsop;E5.767;N50.939;12;
3;NLD;Limburg;Stein;Elsloo;E5.775;N50.947;12;
3;NLD;Limburg;Stein;Maasband;E5.741;N50.975;12;
3;NLD;Limburg;Stein;Meers;;;12;
3;NLD;Limburg;Stein;Nattenhoven;E5.778;N51.012;12;
3;NLD;Limburg;Stein;Stein;E5.763;N50.966;12;
3;NLD;Limburg;Stein;Terhagen;E5.759;N50.948;13;
3;NLD;Limburg;Stein;Urmond;E5.773;N50.990;12;
3;NLD;Limburg;Stein;Veldschuur;E5.733;N50.967;13;
2;NLD;Limburg;Swalmen;;E6.039;N51.226;12;places/NLD/flags/LI/Swalmen.gif
3;NLD;Limburg;Swalmen;Asselt;E6.013;N51.226;12;
3;NLD;Limburg;Swalmen;Boukoul;E6.046;N51.215;12;
3;NLD;Limburg;Swalmen;Swalmen;E6.039;N51.230;12;
2;NLD;Limburg;Thorn;;E5.841;N51.162;12;places/NLD/flags/LI/Thorn.gif
3;NLD;Limburg;Thorn;Thorn;E5.841;N51.164;12;
2;NLD;Limburg;Vaals;;E6.003;N50.779;12;places/NLD/flags/LI/Vaals.gif
3;NLD;Limburg;Vaals;Camerig;E5.933;N50.767;12;
3;NLD;Limburg;Vaals;Cottessen;E5.939;N50.761;12;
3;NLD;Limburg;Vaals;Harles;E5.977;N50.782;12;
3;NLD;Limburg;Vaals;Holset;E5.985;N50.775;12;
3;NLD;Limburg;Vaals;Lemiers;E5.995;N50.787;12;
3;NLD;Limburg;Vaals;Mamelis;E5.969;N50.796;12;
3;NLD;Limburg;Vaals;Melleschet;E5.950;N50.783;13;
3;NLD;Limburg;Vaals;Oud Lemiers;;;12;
3;NLD;Limburg;Vaals;Raren;E5.993;N50.767;12;
3;NLD;Limburg;Vaals;Rott;E5.950;N50.783;13;
3;NLD;Limburg;Vaals;Vaals;E6.018;N50.772;12;
3;NLD;Limburg;Vaals;Vijlen;E5.962;N50.789;12;
3;NLD;Limburg;Vaals;Wolfhaag;E6.003;N50.757;12;
2;NLD;Limburg;Valkenburg aan de Geul;;E5.867;N50.864;12;places/NLD/flags/LI/Valkenburg_aan_de_Geul.gif
3;NLD;Limburg;Valkenburg aan de Geul;Berg en Terblijt;E5.785;N50.860;12;
3;NLD;Limburg;Valkenburg aan de Geul;Broekhem;E5.823;N50.870;13;
3;NLD;Limburg;Valkenburg aan de Geul;Geulhem;E5.783;N50.867;12;
3;NLD;Limburg;Valkenburg aan de Geul;Houthem;E5.767;N50.867;13;
3;NLD;Limburg;Valkenburg aan de Geul;IJzeren;E5.831;N50.839;13;
3;NLD;Limburg;Valkenburg aan de Geul;Oud Valkenburg;E5.857;N50.853;12;
3;NLD;Limburg;Valkenburg aan de Geul;Schin op Geul;E5.871;N50.853;13;
3;NLD;Limburg;Valkenburg aan de Geul;Schoonbron;E5.867;N50.850;13;
3;NLD;Limburg;Valkenburg aan de Geul;Sibbe;E5.829;N50.842;12;
3;NLD;Limburg;Valkenburg aan de Geul;Sint Gerlach;E5.788;N50.874;13;
3;NLD;Limburg;Valkenburg aan de Geul;Strucht;E5.867;N50.850;13;
3;NLD;Limburg;Valkenburg aan de Geul;Valkenburg;E5.831;N50.865;12;
3;NLD;Limburg;Valkenburg aan de Geul;Vilt;E5.811;N50.856;12;
3;NLD;Limburg;Valkenburg aan de Geul;Walem;E5.867;N50.867;12;
2;NLD;Limburg;Venlo;;E6.175;N51.347;11;places/NLD/flags/LI/Venlo.gif
3;NLD;Limburg;Venlo;'t Ven;;;12;
3;NLD;Limburg;Venlo;Beerendonck;;;12;
3;NLD;Limburg;Venlo;Belfeld;E6.117;N51.313;12;
3;NLD;Limburg;Venlo;Blerick;E6.142;N51.364;12;
3;NLD;Limburg;Venlo;Boekend;E6.118;N51.376;12;
3;NLD;Limburg;Venlo;Geloo;E6.133;N51.317;13;
3;NLD;Limburg;Venlo;Hout-Blerick;E6.129;N51.355;12;
3;NLD;Limburg;Venlo;Steyl;E6.124;N51.333;12;
3;NLD;Limburg;Venlo;Tegelen;E6.139;N51.341;12;
3;NLD;Limburg;Venlo;Venlo;E6.175;N51.370;12;
2;NLD;Limburg;Venray;;E5.896;N51.517;11;places/NLD/flags/LI/Venray.gif
3;NLD;Limburg;Venray;Castenray;E6.033;N51.483;12;
3;NLD;Limburg;Venray;Heide;E5.950;N51.505;13;
3;NLD;Limburg;Venray;Leunen;E5.981;N51.509;12;
3;NLD;Limburg;Venray;Merselo;E5.927;N51.530;12;
3;NLD;Limburg;Venray;Oirlo;E6.037;N51.510;12;
3;NLD;Limburg;Venray;Oostrum;E6.017;N51.528;12;
3;NLD;Limburg;Venray;Smakt;E6.003;N51.567;12;
3;NLD;Limburg;Venray;Veltum;E5.963;N51.515;12;
3;NLD;Limburg;Venray;Venray;E5.973;N51.528;12;
3;NLD;Limburg;Venray;Veulen;E5.954;N51.482;12;
3;NLD;Limburg;Venray;Vredepeel;E5.870;N51.539;12;
3;NLD;Limburg;Venray;Ysselsteyn;E5.896;N51.490;12;
2;NLD;Limburg;Voerendaal;;E5.933;N50.874;11;places/NLD/flags/LI/Voerendaal.gif
3;NLD;Limburg;Voerendaal;Barrier;E5.900;N50.883;13;
3;NLD;Limburg;Voerendaal;Colmont;E5.933;N50.850;13;
3;NLD;Limburg;Voerendaal;Craubeek;E5.900;N50.883;13;
3;NLD;Limburg;Voerendaal;Dolberg;E5.883;N50.883;13;
3;NLD;Limburg;Voerendaal;Eyserheide;E5.932;N50.839;13;
3;NLD;Limburg;Voerendaal;Fromberg;E5.900;N50.850;13;
3;NLD;Limburg;Voerendaal;Heek;E5.869;N50.878;13;
3;NLD;Limburg;Voerendaal;Hellebeuk;;;12;
3;NLD;Limburg;Voerendaal;Keutenberg;E5.882;N50.844;12;
3;NLD;Limburg;Voerendaal;Klimmen;E5.883;N50.876;12;
3;NLD;Limburg;Voerendaal;Koulen;E5.883;N50.867;13;
3;NLD;Limburg;Voerendaal;Kunrade;E5.931;N50.875;12;
3;NLD;Limburg;Voerendaal;Mingersberg;E5.950;N50.850;13;
3;NLD;Limburg;Voerendaal;Opscheumer;;;12;
3;NLD;Limburg;Voerendaal;Overheek;E5.883;N50.883;13;
3;NLD;Limburg;Voerendaal;Ransdaal;E5.892;N50.865;12;
3;NLD;Limburg;Voerendaal;Retersbeek;E5.914;N50.893;12;
3;NLD;Limburg;Voerendaal;Ten Esschen;E5.933;N50.900;12;
3;NLD;Limburg;Voerendaal;Termaar;E5.883;N50.867;13;
3;NLD;Limburg;Voerendaal;Termoors;E5.900;N50.867;13;
3;NLD;Limburg;Voerendaal;Ubachsberg;E5.950;N50.850;12;
3;NLD;Limburg;Voerendaal;Voerendaal;E5.930;N50.881;12;
3;NLD;Limburg;Voerendaal;Weustenrade;E5.915;N50.899;13;
3;NLD;Limburg;Voerendaal;Winthagen;E5.933;N50.867;13;
2;NLD;Limburg;Weert;;E5.709;N51.240;11;places/NLD/flags/LI/Weert.gif
3;NLD;Limburg;Weert;Altweert;E5.688;N51.238;13;
3;NLD;Limburg;Weert;Altweerterheide;E5.680;N51.218;12;
3;NLD;Limburg;Weert;Boshoven;E5.679;N51.254;12;
3;NLD;Limburg;Weert;Laar;E5.706;N51.276;12;
3;NLD;Limburg;Weert;Stramproy;E5.717;N51.194;12;
3;NLD;Limburg;Weert;Swartbroek;E5.771;N51.230;12;
3;NLD;Limburg;Weert;Tungelroy;E5.729;N51.211;12;
3;NLD;Limburg;Weert;Weert;E5.709;N51.250;12;
