"Level";"Country";"State";"County";"Place";"Longitude";"Latitude";"ZoomLevel";"Icon"
2;NLD;Drenthe;Aa en Hunze;;E6.666;N53.01;9;places/NLD/flags/DR/Aa_en_Hunze.gif
3;NLD;Drenthe;Aa en Hunze;Achter 't Hout;;;12;
3;NLD;Drenthe;Aa en Hunze;Amen;E6.61;N52.94;12;
3;NLD;Drenthe;Aa en Hunze;Anderen;E6.68;N53.00;12;
3;NLD;Drenthe;Aa en Hunze;Anloo;E6.70;N53.04;12;
3;NLD;Drenthe;Aa en Hunze;Annen;E6.72;N53.06;12;
3;NLD;Drenthe;Aa en Hunze;Annerveen;E6.77;N53.08;12;
3;NLD;Drenthe;Aa en Hunze;Annerveensche Kanaal;E6.79;N53.08;14;
3;NLD;Drenthe;Aa en Hunze;Balloërveld;E6.63;N53.02;12;
3;NLD;Drenthe;Aa en Hunze;Balloo;E6.63;N53.00;12;
3;NLD;Drenthe;Aa en Hunze;Bareveld;E6.85;N53.05;13;
3;NLD;Drenthe;Aa en Hunze;Bonnen;E6.77;N53.00;14;
3;NLD;Drenthe;Aa en Hunze;Bonnerveen;E6.83;N53.02;12;
3;NLD;Drenthe;Aa en Hunze;Bosje;E6.6;N52.9;12;
3;NLD;Drenthe;Aa en Hunze;De Hilte;E6.83;N53.04;12;
3;NLD;Drenthe;Aa en Hunze;Deurze;E6.609;N52.984;13;
3;NLD;Drenthe;Aa en Hunze;Eext;E6.735;N53.017;12;
3;NLD;Drenthe;Aa en Hunze;Eexterveen;E6.80;N53.05;12;
3;NLD;Drenthe;Aa en Hunze;Eexterveensche Kanaal;E6.82;N53.06;12;
3;NLD;Drenthe;Aa en Hunze;Eexterzandvoort;E6.78;N53.03;12;
3;NLD;Drenthe;Aa en Hunze;Ekehaar;E6.60;N52.95;12;
3;NLD;Drenthe;Aa en Hunze;Eldersloo;E6.618;N52.966;12;
3;NLD;Drenthe;Aa en Hunze;Eleveld;E6.579;N52.957;12;
3;NLD;Drenthe;Aa en Hunze;Gasselte;E6.79;N52.97;12;
3;NLD;Drenthe;Aa en Hunze;Gasselterboerveen;E6.85;N53.00;12;
3;NLD;Drenthe;Aa en Hunze;Gasselterboerveenschemond;E6.893;N53.008;12;
3;NLD;Drenthe;Aa en Hunze;Gasselternijveen;E6.85;N52.98;12;
3;NLD;Drenthe;Aa en Hunze;Gasselternijveenschemond;E6.898;N52.994;12;
3;NLD;Drenthe;Aa en Hunze;Gasselternijveenschemond 1e Dwarsdiep;;;12;
3;NLD;Drenthe;Aa en Hunze;Gasselternijveenschemond 2e Dwarsdiep;;;12;
3;NLD;Drenthe;Aa en Hunze;Gasteren;E6.66;N53.03;12;
3;NLD;Drenthe;Aa en Hunze;Geelbroek;E6.57;N52.95;12;
3;NLD;Drenthe;Aa en Hunze;Gieten;E6.76;N53.00;12;
3;NLD;Drenthe;Aa en Hunze;Gieterveen;E6.833;N53.027;12;
3;NLD;Drenthe;Aa en Hunze;Gieterzandvoort;;;12;
3;NLD;Drenthe;Aa en Hunze;Grolloo;E6.67;N52.93;12;
3;NLD;Drenthe;Aa en Hunze;Kostvlies;E6.80;N52.98;12;
3;NLD;Drenthe;Aa en Hunze;Marwijksoord;E6.67;N52.96;12;
3;NLD;Drenthe;Aa en Hunze;Nieuw-Annerveen;E6.778;N53.065;12;
3;NLD;Drenthe;Aa en Hunze;Nieuwediep;E6.85;N53.05;12;
3;NLD;Drenthe;Aa en Hunze;Nijlande;E6.626;N52.974;12;
3;NLD;Drenthe;Aa en Hunze;Nooitgedacht;E6.664;N52.975;13;
3;NLD;Drenthe;Aa en Hunze;Oud-Annerveen;E6.76;N53.09;12;
3;NLD;Drenthe;Aa en Hunze;Papenvoort;E6.70;N52.95;12;
3;NLD;Drenthe;Aa en Hunze;Rolde;E6.65;N52.98;12;
3;NLD;Drenthe;Aa en Hunze;Schipborg;E6.67;N53.073;12;
3;NLD;Drenthe;Aa en Hunze;Schoonlo;E6.70;N52.90;12;
3;NLD;Drenthe;Aa en Hunze;Schoonloo;E6.70;N52.90;12;
3;NLD;Drenthe;Aa en Hunze;Schreierswijk;E6.87;N52.98;12;
3;NLD;Drenthe;Aa en Hunze;Spijkerboor;E6.762;N53.076;12;
3;NLD;Drenthe;Aa en Hunze;Streek;E6.850;N53.033;12;
3;NLD;Drenthe;Aa en Hunze;Torenveen;E6.833;N53.000;12;
3;NLD;Drenthe;Aa en Hunze;Veenhof;E6.817;N53.000;12;
3;NLD;Drenthe;Aa en Hunze;Vredenheim;E6.666;N52.949;12;
2;NLD;Drenthe;Assen;;E6.52;N53.00;11;places/NLD/flags/DR/Assen.gif
3;NLD;Drenthe;Assen;Anreep;E6.584;N52.976;13;
3;NLD;Drenthe;Assen;Assen;E6.55;N53.00;12;
3;NLD;Drenthe;Assen;De Haar;E6.53;N52.97;12;
3;NLD;Drenthe;Assen;Graswijk;E6.56;N52.97;12;
3;NLD;Drenthe;Assen;Kloosterveen;E6.52;N53.00;12;
3;NLD;Drenthe;Assen;Loon;E6.62;N53.02;12;
3;NLD;Drenthe;Assen;Peelo;E6.57;N53.02;12;
3;NLD;Drenthe;Assen;Rhee;E6.57;N53.03;12;
3;NLD;Drenthe;Assen;Schieven;E6.59;N52.98;12;
3;NLD;Drenthe;Assen;Ter Aard;E6.55;N53.03;12;
3;NLD;Drenthe;Assen;Ubbena;E6.57;N53.05;12;
3;NLD;Drenthe;Assen;Witten;E6.52;N52.98;12;
3;NLD;Drenthe;Assen;Zeijerveen;E6.52;N53.01;13;
3;NLD;Drenthe;Assen;Zeijerveld;E6.52;N53.03;12;
2;NLD;Drenthe;Borger-Odoorn;;E7.025;N52.91;10;places/NLD/flags/DR/Borger-Odoorn.gif
3;NLD;Drenthe;Borger-Odoorn;Borger;E6.79;N52.92;12;
3;NLD;Drenthe;Borger-Odoorn;Bronneger;E6.814;N52.947;12;
3;NLD;Drenthe;Borger-Odoorn;Bronnegerveen;E6.833;N52.950;12;
3;NLD;Drenthe;Borger-Odoorn;Buinen;E6.83;N52.93;12;
3;NLD;Drenthe;Borger-Odoorn;Buinerveen;E6.88;N52.93;12;
3;NLD;Drenthe;Borger-Odoorn;Drouwen;E6.80;N52.95;12;
3;NLD;Drenthe;Borger-Odoorn;Drouwenermond;E6.884;N52.972;12;
3;NLD;Drenthe;Borger-Odoorn;Drouwenerveen;E6.851;N52.968;12;
3;NLD;Drenthe;Borger-Odoorn;Eerste Exloërmond;E6.967;N52.950;12;
3;NLD;Drenthe;Borger-Odoorn;Eerste Valthermond;E6.98;N52.88;12;
3;NLD;Drenthe;Borger-Odoorn;Ees;E6.804;N52.909;12;
3;NLD;Drenthe;Borger-Odoorn;Eesergroen;E6.78;N52.89;12;
3;NLD;Drenthe;Borger-Odoorn;Eeserveen;E6.76;N52.87;12;
3;NLD;Drenthe;Borger-Odoorn;Ellertshaar;E6.74;N52.89;12;
3;NLD;Drenthe;Borger-Odoorn;Exloërveen;E6.901;N52.915;14;
3;NLD;Drenthe;Borger-Odoorn;Exloo;E6.86;N52.88;12;
3;NLD;Drenthe;Borger-Odoorn;Klijndijk;E6.86;N52.83;12;
3;NLD;Drenthe;Borger-Odoorn;Nieuw-Buinen;E6.96;N52.97;12;
3;NLD;Drenthe;Borger-Odoorn;Odoorn;E6.85;N52.85;12;
3;NLD;Drenthe;Borger-Odoorn;Odoornerveen;E6.79;N52.84;12;
3;NLD;Drenthe;Borger-Odoorn;Tweede Exloërmond;E6.967;N52.917;12;
3;NLD;Drenthe;Borger-Odoorn;Tweede Valthermond;E7.027;N52.893;12;
3;NLD;Drenthe;Borger-Odoorn;Valthe;E6.894;N52.845;12;
3;NLD;Drenthe;Borger-Odoorn;Valthermond;E6.946;N52.875;12;
3;NLD;Drenthe;Borger-Odoorn;Westdorp;E6.766;N52.904;12;
3;NLD;Drenthe;Borger-Odoorn;Zandberg;E7.025;N52.918;12;
2;NLD;Drenthe;Coevorden;;E6.675;N52.75;10;places/NLD/flags/DR/Coevorden.gif
3;NLD;Drenthe;Coevorden;'t Haantje;E6.823;N52.814;12;
3;NLD;Drenthe;Coevorden;Aalden;E6.72;N52.79;13;
3;NLD;Drenthe;Coevorden;Achterste Erm;E6.828;N52.744;13;
3;NLD;Drenthe;Coevorden;Ballast;E6.720;N52.675;13;
3;NLD;Drenthe;Coevorden;Benneveld;E6.74;N52.78;13;
3;NLD;Drenthe;Coevorden;Bovensteenwijksmoer;;;12;
3;NLD;Drenthe;Coevorden;Coevorden;E6.74;N52.66;12;
3;NLD;Drenthe;Coevorden;Dalen;E6.75;N52.70;12;
3;NLD;Drenthe;Coevorden;Dalerend;E6.61;N52.68;13;
3;NLD;Drenthe;Coevorden;Dalerpeel;E6.66;N52.68;12;
3;NLD;Drenthe;Coevorden;Dalerveen;E6.81;N52.70;12;
3;NLD;Drenthe;Coevorden;De Bente;E6.75;N52.68;13;
3;NLD;Drenthe;Coevorden;De Haar;E6.80;N52.70;12;
3;NLD;Drenthe;Coevorden;De Kiel;E6.75;N52.86;12;
3;NLD;Drenthe;Coevorden;De Klencke;E6.725;N52.753;12;
3;NLD;Drenthe;Coevorden;De Mars;;;12;
3;NLD;Drenthe;Coevorden;Den Hool;E6.804;N52.715;12;
3;NLD;Drenthe;Coevorden;Diphoorn;E6.82;N52.77;12;
3;NLD;Drenthe;Coevorden;Eldijk;E6.783;N52.717;13;
3;NLD;Drenthe;Coevorden;Erm;E6.82;N52.75;12;
3;NLD;Drenthe;Coevorden;Ermerveen;E6.850;N52.733;12;
3;NLD;Drenthe;Coevorden;Gees;E6.690;N52.746;12;
3;NLD;Drenthe;Coevorden;Geesbrug;E6.635;N52.726;12;
3;NLD;Drenthe;Coevorden;Grevenberg;E6.74;N52.74;12;
3;NLD;Drenthe;Coevorden;Holsloot;E6.80;N52.73;12;
3;NLD;Drenthe;Coevorden;Hoogehaar;E6.72;N52.68;13;
3;NLD;Drenthe;Coevorden;Kibbelveen;E6.81;N52.82;12;
3;NLD;Drenthe;Coevorden;Klooster;E6.717;N52.656;12;
3;NLD;Drenthe;Coevorden;Meppen;E6.70;N52.78;12;
3;NLD;Drenthe;Coevorden;Nieuw Zwinderen;E6.668;N52.718;12;
3;NLD;Drenthe;Coevorden;Nieuwe Krim;E6.651;N52.666;12;
3;NLD;Drenthe;Coevorden;Nieuwlande;E6.610;N52.696;12;
3;NLD;Drenthe;Coevorden;Noord-Sleen;E6.80;N52.79;12;
3;NLD;Drenthe;Coevorden;Oosterhesselen;E6.72;N52.76;12;
3;NLD;Drenthe;Coevorden;Padhuis;E6.85;N52.66;12;
3;NLD;Drenthe;Coevorden;Pikveld;E6.769;N52.656;12;
3;NLD;Drenthe;Coevorden;Schimmelarij;E6.817;N52.700;12;
3;NLD;Drenthe;Coevorden;Schoonoord;E6.75;N52.85;12;
3;NLD;Drenthe;Coevorden;Sleen;E6.802;N52.774;13;
3;NLD;Drenthe;Coevorden;Steenwijksmoer;E6.70;N52.67;12;
3;NLD;Drenthe;Coevorden;Stieltjeskanaal;E6.836;N52.678;12;
3;NLD;Drenthe;Coevorden;Valsteeg;E6.752;N52.715;12;
3;NLD;Drenthe;Coevorden;Veenhuizen;E6.700;N52.700;12;
3;NLD;Drenthe;Coevorden;Vlieghuis;E6.829;N52.657;12;
3;NLD;Drenthe;Coevorden;Vossebelt;E6.70;N52.68;12;
3;NLD;Drenthe;Coevorden;Wachtum;E6.75;N52.72;12;
3;NLD;Drenthe;Coevorden;Weijerswold;E6.81;N52.66;13;
3;NLD;Drenthe;Coevorden;Wezup;E6.719;N52.811;12;
3;NLD;Drenthe;Coevorden;Wezuperbrug;E6.72;N52.84;12;
3;NLD;Drenthe;Coevorden;Zweeloo;E6.72;N52.79;12;
3;NLD;Drenthe;Coevorden;Zwinderen;E6.675;N52.727;12;
2;NLD;Drenthe;De Wolden;;E6.428;N52.71;10;places/NLD/flags/DR/De_Wolden.gif
3;NLD;Drenthe;De Wolden;Alteveer;E6.488;N52.676;12;
3;NLD;Drenthe;De Wolden;Anholt;E6.418;N52.781;12;
3;NLD;Drenthe;De Wolden;Ansen;E6.334;N52.783;13;
3;NLD;Drenthe;De Wolden;Armweide;E6.332;N52.771;12;
3;NLD;Drenthe;De Wolden;Baltinge;;;12;
3;NLD;Drenthe;De Wolden;Bazuin;E6.415;N52.654;13;
3;NLD;Drenthe;De Wolden;Bendersche;E6.362;N52.776;12;
3;NLD;Drenthe;De Wolden;Berghuizen;E6.288;N52.713;12;
3;NLD;Drenthe;De Wolden;Blijdenstein;E6.249;N52.712;12;
3;NLD;Drenthe;De Wolden;Bloemberg;E6.344;N52.652;12;
3;NLD;Drenthe;De Wolden;Braamberg;E6.503;N52.648;12;
3;NLD;Drenthe;De Wolden;Broekhuizen;E6.275;N52.695;12;
3;NLD;Drenthe;De Wolden;Buitenhuizen;E6.250;N52.717;12;
3;NLD;Drenthe;De Wolden;De Oude Tol;;;12;
3;NLD;Drenthe;De Wolden;De Stapel;E6.332;N52.663;12;
3;NLD;Drenthe;De Wolden;De Stuw;E6.429;N52.687;12;
3;NLD;Drenthe;De Wolden;De Tippe;E6.517;N52.617;12;
3;NLD;Drenthe;De Wolden;De Wijk;E6.286;N52.672;12;
3;NLD;Drenthe;De Wolden;Dijkhuizen;E6.259;N52.728;13;
3;NLD;Drenthe;De Wolden;Dikninge;;;12;
3;NLD;Drenthe;De Wolden;Drogt;E6.405;N52.655;12;
3;NLD;Drenthe;De Wolden;Drogteropslagen;E6.498;N52.621;12;
3;NLD;Drenthe;De Wolden;Dunnigen;;;12;
3;NLD;Drenthe;De Wolden;Echten;E6.400;N52.717;12;
3;NLD;Drenthe;De Wolden;Eemten;;;12;
3;NLD;Drenthe;De Wolden;Engeland;E6.367;N52.767;13;
3;NLD;Drenthe;De Wolden;Eursinge;E6.443;N52.777;12;
3;NLD;Drenthe;De Wolden;Fort;E6.387;N52.651;13;
3;NLD;Drenthe;De Wolden;Gijsselte;E6.411;N52.749;12;
3;NLD;Drenthe;De Wolden;Haakswold;E6.250;N52.717;13;
3;NLD;Drenthe;De Wolden;Haalweide;;;12;
3;NLD;Drenthe;De Wolden;Hees;E6.374;N52.750;12;
3;NLD;Drenthe;De Wolden;Hoge Linthorst;;;12;
3;NLD;Drenthe;De Wolden;Kerkenveld;E6.502;N52.668;12;
3;NLD;Drenthe;De Wolden;Koekange;E6.317;N52.700;12;
3;NLD;Drenthe;De Wolden;Koekangerveld;E6.333;N52.715;12;
3;NLD;Drenthe;De Wolden;Kraloo;E6.247;N52.710;13;
3;NLD;Drenthe;De Wolden;Leeuwte;E6.400;N52.767;13;
3;NLD;Drenthe;De Wolden;Linde;E6.448;N52.639;12;
3;NLD;Drenthe;De Wolden;Lubbinge;E6.433;N52.683;13;
3;NLD;Drenthe;De Wolden;Lunssloten;E6.417;N52.700;13;
3;NLD;Drenthe;De Wolden;Middelveen;E6.417;N52.665;13;
3;NLD;Drenthe;De Wolden;Nolde;E6.417;N52.633;12;
3;NLD;Drenthe;De Wolden;Noordwijk;E6.300;N52.683;13;
3;NLD;Drenthe;De Wolden;Oldenhave;E6.342;N52.752;12;
3;NLD;Drenthe;De Wolden;Oosteinde;E6.282;N52.740;12;
3;NLD;Drenthe;De Wolden;Oosterwijk;E6.300;N52.667;13;
3;NLD;Drenthe;De Wolden;Oshaar;E6.366;N52.691;12;
3;NLD;Drenthe;De Wolden;Oud Veeningen;E6.367;N52.683;13;
3;NLD;Drenthe;De Wolden;Paardelanden;E6.454;N52.623;12;
3;NLD;Drenthe;De Wolden;Pieperij;E6.368;N52.641;13;
3;NLD;Drenthe;De Wolden;Rheebruggen;E6.300;N52.783;12;
3;NLD;Drenthe;De Wolden;Ruinen;E6.359;N52.763;12;
3;NLD;Drenthe;De Wolden;Ruinerweide;E6.336;N52.730;12;
3;NLD;Drenthe;De Wolden;Ruinerwold;E6.247;N52.725;12;
3;NLD;Drenthe;De Wolden;Schottershuizen;E6.431;N52.656;12;
3;NLD;Drenthe;De Wolden;Schrapveen;E6.450;N52.617;13;
3;NLD;Drenthe;De Wolden;Steenbergen;E6.430;N52.680;12;
3;NLD;Drenthe;De Wolden;Struikberg;E6.343;N52.706;12;
3;NLD;Drenthe;De Wolden;Ten Arlo;E6.435;N52.697;12;
3;NLD;Drenthe;De Wolden;Veeningen;E6.369;N52.671;12;
3;NLD;Drenthe;De Wolden;Vuile Riete;E6.468;N52.636;12;
3;NLD;Drenthe;De Wolden;Weerwille;;;12;
3;NLD;Drenthe;De Wolden;Wemmenhove;E6.424;N52.666;12;
3;NLD;Drenthe;De Wolden;Witteveen;E6.367;N52.783;12;
3;NLD;Drenthe;De Wolden;Zuidwolde;E6.428;N52.672;12;
2;NLD;Drenthe;Emmen;;E7.040;N52.77;10;places/NLD/flags/DR/Emmen.gif
3;NLD;Drenthe;Emmen;Amsterdamsche Veld;E6.913;N52.687;12;
3;NLD;Drenthe;Emmen;Angelso;E6.93;N52.78;12;
3;NLD;Drenthe;Emmen;Barger Oosterveen;E6.978;N52.703;12;
3;NLD;Drenthe;Emmen;Barger-Compascuum;E7.04;N52.75;12;
3;NLD;Drenthe;Emmen;Barger-Erfafscheidenveen;E6.868;N52.728;13;
3;NLD;Drenthe;Emmen;Barger-Oosterveld;E6.956;N52.772;13;
3;NLD;Drenthe;Emmen;Bargermeer;E6.916;N52.765;13;
3;NLD;Drenthe;Emmen;Berkenrode;;;12;
3;NLD;Drenthe;Emmen;Emmen;E6.90;N52.78;12;
3;NLD;Drenthe;Emmen;Emmer-Compascuum;E7.05;N52.81;12;
3;NLD;Drenthe;Emmen;Emmer-Erfscheidenveen;E6.990;N52.805;12;
3;NLD;Drenthe;Emmen;Erica;E6.929;N52.711;12;
3;NLD;Drenthe;Emmen;Halfweg;;;12;
3;NLD;Drenthe;Emmen;Klazienaveen;E6.990;N52.726;11;
3;NLD;Drenthe;Emmen;Koelveen;E6.93;N52.65;12;
3;NLD;Drenthe;Emmen;Middendorp;E6.912;N52.662;12;
3;NLD;Drenthe;Emmen;Nieuw-Amsterdam;E6.858;N52.715;12;
3;NLD;Drenthe;Emmen;Nieuw-Dordrecht;E6.968;N52.748;12;
3;NLD;Drenthe;Emmen;Nieuw-Schoonebeek;E6.983;N52.650;12;
3;NLD;Drenthe;Emmen;Nieuw-Weerdinge;E6.989;N52.856;12;
3;NLD;Drenthe;Emmen;Oosterse Bos;E6.917;N52.650;12;
3;NLD;Drenthe;Emmen;Oranjedorp;E6.945;N52.743;13;
3;NLD;Drenthe;Emmen;Roswinkel;E7.043;N52.837;12;
3;NLD;Drenthe;Emmen;Schoonebeek;E6.882;N52.664;12;
3;NLD;Drenthe;Emmen;Schutwijk;E6.967;N52.700;13;
3;NLD;Drenthe;Emmen;Veenoord;E6.852;N52.710;12;
3;NLD;Drenthe;Emmen;Weerdinge;E6.917;N52.817;12;
3;NLD;Drenthe;Emmen;Weiteveen;E7.001;N52.672;12;
3;NLD;Drenthe;Emmen;Westenesch;E6.877;N52.788;12;
3;NLD;Drenthe;Emmen;Westerse Bos;E6.867;N52.667;13;
3;NLD;Drenthe;Emmen;Wilhelmsoord;E6.850;N52.750;13;
3;NLD;Drenthe;Emmen;Zandpol;E6.865;N52.696;12;
3;NLD;Drenthe;Emmen;Zuidbarge;E6.904;N52.748;12;
3;NLD;Drenthe;Emmen;Zwartemeer;E7.040;N52.721;12;
2;NLD;Drenthe;Hoogeveen;;E6.500;N52.73;11;places/NLD/flags/DR/Hoogeveen.gif
3;NLD;Drenthe;Hoogeveen;Achterom;E6.517;N52.733;12;
3;NLD;Drenthe;Hoogeveen;Elim;E6.583;N52.683;12;
3;NLD;Drenthe;Hoogeveen;Fluitenberg;E6.454;N52.735;12;
3;NLD;Drenthe;Hoogeveen;Hollandscheveld;E6.538;N52.705;12;
3;NLD;Drenthe;Hoogeveen;Hoogeveen;E6.48;N52.72;12;
3;NLD;Drenthe;Hoogeveen;Kalenberg;E6.433;N52.733;12;
3;NLD;Drenthe;Hoogeveen;Moscou;E6.536;N52.671;12;
3;NLD;Drenthe;Hoogeveen;Nieuweroord;E6.563;N52.725;12;
3;NLD;Drenthe;Hoogeveen;Nieuwlande;E6.610;N52.696;12;
3;NLD;Drenthe;Hoogeveen;Noordscheschut;E6.538;N52.724;12;
3;NLD;Drenthe;Hoogeveen;Nuil;E6.450;N52.783;13;
3;NLD;Drenthe;Hoogeveen;Pesse;E6.45;N52.77;12;
3;NLD;Drenthe;Hoogeveen;Stadterij;E6.500;N52.733;12;
3;NLD;Drenthe;Hoogeveen;Stuifzand;E6.500;N52.750;12;
3;NLD;Drenthe;Hoogeveen;Tiendeveen;E6.543;N52.746;12;
3;NLD;Drenthe;Hoogeveen;Zuideropgaande;E6.533;N52.684;12;
3;NLD;Drenthe;Hoogeveen;Zwartschaap;E6.500;N52.767;12;
2;NLD;Drenthe;Meppel;;E6.257;N52.73;11;places/NLD/flags/DR/Meppel.gif
3;NLD;Drenthe;Meppel;Broekhuizen;E6.275;N52.694;12;
3;NLD;Drenthe;Meppel;De Kolk;E6.150;N52.717;13;
3;NLD;Drenthe;Meppel;Havelterberg;E6.185;N52.775;13;
3;NLD;Drenthe;Meppel;Havixhorst;;;12;
3;NLD;Drenthe;Meppel;Kolderveen;E6.153;N52.723;12;
3;NLD;Drenthe;Meppel;Kolderveense Bovenboer;E6.154;N52.744;12;
3;NLD;Drenthe;Meppel;Lindenhorst;;;12;
3;NLD;Drenthe;Meppel;Meppel;E6.200;N52.700;12;
3;NLD;Drenthe;Meppel;Nijentap;E6.217;N52.733;12;
3;NLD;Drenthe;Meppel;Nijeveen;E6.167;N52.733;12;
3;NLD;Drenthe;Meppel;Nijeveense Bovenboer;E6.177;N52.750;12;
3;NLD;Drenthe;Meppel;Oosterboer;E6.220;N52.696;12;
3;NLD;Drenthe;Meppel;Rogat;E6.269;N52.687;12;
3;NLD;Drenthe;Meppel;Schiphorst;E6.257;N52.679;12;
2;NLD;Drenthe;Midden-Drenthe;;E6.586;N52.87;10;places/NLD/flags/DR/Midden-Drenthe.gif
3;NLD;Drenthe;Midden-Drenthe;Balinge;E6.628;N52.811;12;
3;NLD;Drenthe;Midden-Drenthe;Beilen;E6.515;N52.859;12;
3;NLD;Drenthe;Midden-Drenthe;Bovensmilde;E6.481;N52.977;12;
3;NLD;Drenthe;Midden-Drenthe;Brunsting;E6.500;N52.867;12;
3;NLD;Drenthe;Midden-Drenthe;Bruntinge;E6.583;N52.817;12;
3;NLD;Drenthe;Midden-Drenthe;Drijber;E6.535;N52.790;12;
3;NLD;Drenthe;Midden-Drenthe;Elp;E6.650;N52.883;12;
3;NLD;Drenthe;Midden-Drenthe;Eursinge;E6.604;N52.837;13;
3;NLD;Drenthe;Midden-Drenthe;Garminge;E6.624;N52.820;12;
3;NLD;Drenthe;Midden-Drenthe;Hijken;E6.496;N52.896;12;
3;NLD;Drenthe;Midden-Drenthe;Hijkersmilde;E6.428;N52.936;12;
3;NLD;Drenthe;Midden-Drenthe;Holthe;E6.542;N52.841;12;
3;NLD;Drenthe;Midden-Drenthe;Hoogersmilde;E6.393;N52.905;12;
3;NLD;Drenthe;Midden-Drenthe;Hooghalen;E6.539;N52.921;13;
3;NLD;Drenthe;Midden-Drenthe;Laaghalen;E6.528;N52.920;12;
3;NLD;Drenthe;Midden-Drenthe;Laaghalerveen;E6.510;N52.938;12;
3;NLD;Drenthe;Midden-Drenthe;Lieving;E6.528;N52.852;12;
3;NLD;Drenthe;Midden-Drenthe;Makkum;E6.542;N52.848;12;
3;NLD;Drenthe;Midden-Drenthe;Mantinge;E6.617;N52.800;12;
3;NLD;Drenthe;Midden-Drenthe;Nieuw-Balinge;E6.600;N52.767;12;
3;NLD;Drenthe;Midden-Drenthe;Oranje;E6.446;N52.907;12;
3;NLD;Drenthe;Midden-Drenthe;Orvelte;E6.664;N52.845;12;
3;NLD;Drenthe;Midden-Drenthe;Smilde;E6.450;N52.950;12;
3;NLD;Drenthe;Midden-Drenthe;Spier;E6.467;N52.817;12;
3;NLD;Drenthe;Midden-Drenthe;Westerbork;E6.612;N52.850;12;
3;NLD;Drenthe;Midden-Drenthe;Wijster;E6.517;N52.817;12;
3;NLD;Drenthe;Midden-Drenthe;Witteveen;E6.667;N52.817;12;
3;NLD;Drenthe;Midden-Drenthe;Zuidveld;E6.633;N52.867;12;
3;NLD;Drenthe;Midden-Drenthe;Zwiggelte;E6.586;N52.874;12;
2;NLD;Drenthe;Noordenveld;;E6.456;N53.12;10;places/NLD/flags/DR/Noordenveld.gif
3;NLD;Drenthe;Noordenveld;Altena;E6.48;N53.13;12;
3;NLD;Drenthe;Noordenveld;Alteveer;E6.428;N53.113;13;
3;NLD;Drenthe;Noordenveld;Amerika;E6.367;N53.100;12;
3;NLD;Drenthe;Noordenveld;Boerelaan;E6.500;N53.133;12;
3;NLD;Drenthe;Noordenveld;De Horst;E6.517;N53.133;12;
3;NLD;Drenthe;Noordenveld;De Pol;E6.517;N53.133;12;
3;NLD;Drenthe;Noordenveld;Een;E6.394;N53.074;12;
3;NLD;Drenthe;Noordenveld;Een-West;E6.333;N53.083;12;
3;NLD;Drenthe;Noordenveld;Foxwolde;E6.450;N53.150;12;
3;NLD;Drenthe;Noordenveld;Huis;E6.47;N53.02;12;
3;NLD;Drenthe;Noordenveld;Langelo;E6.446;N53.093;12;
3;NLD;Drenthe;Noordenveld;Leutingewolde;E6.435;N53.157;12;
3;NLD;Drenthe;Noordenveld;Lieveren;E6.453;N53.114;12;
3;NLD;Drenthe;Noordenveld;Matsloot;E6.483;N53.200;12;
3;NLD;Drenthe;Noordenveld;Nietap;E6.396;N53.160;13;
3;NLD;Drenthe;Noordenveld;Nieuw-Roden;E6.40;N53.13;12;
3;NLD;Drenthe;Noordenveld;Norg;E6.455;N53.066;12;
3;NLD;Drenthe;Noordenveld;Norgervaart;E6.483;N53.016;13;
3;NLD;Drenthe;Noordenveld;Peest;E6.497;N53.060;12;
3;NLD;Drenthe;Noordenveld;Peize;E6.495;N53.148;12;
3;NLD;Drenthe;Noordenveld;Peizermade;E6.511;N53.192;12;
3;NLD;Drenthe;Noordenveld;Peizerwold;E6.497;N53.161;12;
3;NLD;Drenthe;Noordenveld;Roden;E6.433;N53.137;12;
3;NLD;Drenthe;Noordenveld;Roderesch;E6.417;N53.117;12;
3;NLD;Drenthe;Noordenveld;Roderwolde;E6.467;N53.167;12;
3;NLD;Drenthe;Noordenveld;Sandebuur;E6.450;N53.167;13;
3;NLD;Drenthe;Noordenveld;Steenbergen;E6.417;N53.100;12;
3;NLD;Drenthe;Noordenveld;Terheijl;E6.386;N53.147;12;
3;NLD;Drenthe;Noordenveld;Veenhuizen;E6.396;N53.033;12;
3;NLD;Drenthe;Noordenveld;Westervelde;E6.441;N53.054;12;
3;NLD;Drenthe;Noordenveld;Zuidvelde;E6.456;N53.047;12;
2;NLD;Drenthe;Tynaarlo;;E6.687;N53.11;10;places/NLD/flags/DR/Tynaarlo.gif
3;NLD;Drenthe;Tynaarlo;Bunne;E6.533;N53.118;13;
3;NLD;Drenthe;Tynaarlo;Bunnerveen;;;12;
3;NLD;Drenthe;Tynaarlo;De Groeve;E6.717;N53.117;12;
3;NLD;Drenthe;Tynaarlo;De Punt;E6.595;N53.117;12;
3;NLD;Drenthe;Tynaarlo;Donderen;E6.546;N53.097;12;
3;NLD;Drenthe;Tynaarlo;Eelde;E6.561;N53.135;12;
3;NLD;Drenthe;Tynaarlo;Eelderwolde;E6.547;N53.174;12;
3;NLD;Drenthe;Tynaarlo;Midlaren;E6.676;N53.111;12;
3;NLD;Drenthe;Tynaarlo;Oudemolen;E6.640;N53.048;12;
3;NLD;Drenthe;Tynaarlo;Paterswolde;E6.567;N53.145;12;
3;NLD;Drenthe;Tynaarlo;Schuilingsoord;E6.697;N53.078;12;
3;NLD;Drenthe;Tynaarlo;Taarlo;E6.625;N53.033;12;
3;NLD;Drenthe;Tynaarlo;Tynaarlo;E6.616;N53.078;12;
3;NLD;Drenthe;Tynaarlo;Vries;E6.578;N53.074;12;
3;NLD;Drenthe;Tynaarlo;Westlaren;E6.667;N53.083;12;
3;NLD;Drenthe;Tynaarlo;Winde;E6.526;N53.127;12;
3;NLD;Drenthe;Tynaarlo;Yde;E6.586;N53.112;12;
3;NLD;Drenthe;Tynaarlo;Zeegse;E6.648;N53.068;12;
3;NLD;Drenthe;Tynaarlo;Zeijen;E6.546;N53.047;12;
3;NLD;Drenthe;Tynaarlo;Zuidlaarderveen;E6.750;N53.104;12;
3;NLD;Drenthe;Tynaarlo;Zuidlaren;E6.687;N53.095;12;
2;NLD;Drenthe;Westerveld;;E6.258;N52.84;10;
3;NLD;Drenthe;Westerveld;Berkenheuvel;;;12;
3;NLD;Drenthe;Westerveld;Boschoord;E6.228;N52.899;12;
3;NLD;Drenthe;Westerveld;Boterveen;E6.377;N52.864;12;
3;NLD;Drenthe;Westerveld;Busselte;E6.210;N52.765;12;
3;NLD;Drenthe;Westerveld;Darp;E6.203;N52.775;12;
3;NLD;Drenthe;Westerveld;De Moesberg;;;12;
3;NLD;Drenthe;Westerveld;Diever;E6.314;N52.855;12;
3;NLD;Drenthe;Westerveld;Dieverbrug;E6.341;N52.847;12;
3;NLD;Drenthe;Westerveld;Doldersum;;;12;
3;NLD;Drenthe;Westerveld;Dwingeloo;E6.367;N52.833;12;
3;NLD;Drenthe;Westerveld;Eemster;E6.388;N52.854;12;
3;NLD;Drenthe;Westerveld;Eursinge;E6.22;N52.75;9;
3;NLD;Drenthe;Westerveld;Frederiksoord;E6.183;N52.843;12;
3;NLD;Drenthe;Westerveld;Geeuwenbrug;E6.370;N52.872;12;
3;NLD;Drenthe;Westerveld;Havelte;E6.237;N52.770;12;
3;NLD;Drenthe;Westerveld;Havelterberg;E6.187;N52.774;13;
3;NLD;Drenthe;Westerveld;Het Moer;E6.283;N52.833;12;
3;NLD;Drenthe;Westerveld;Het Schier;E6.217;N52.800;12;
3;NLD;Drenthe;Westerveld;Holtien;E6.400;N52.850;12;
3;NLD;Drenthe;Westerveld;Holtinge;E6.252;N52.797;12;
3;NLD;Drenthe;Westerveld;Holtland;E6.350;N52.850;13;
3;NLD;Drenthe;Westerveld;Kalteren;E6.297;N52.863;12;
3;NLD;Drenthe;Westerveld;Leggeloo;E6.367;N52.850;12;
3;NLD;Drenthe;Westerveld;Lhee;E6.395;N52.828;12;
3;NLD;Drenthe;Westerveld;Lheebroek;E6.425;N52.847;12;
3;NLD;Drenthe;Westerveld;Molenstad;E6.367;N52.850;13;
3;NLD;Drenthe;Westerveld;Nieuw-Balinge;E6.600;N52.767;12;
3;NLD;Drenthe;Westerveld;Nijensleek;E6.167;N52.833;12;
3;NLD;Drenthe;Westerveld;Oldendiever;E6.320;N52.850;12;
3;NLD;Drenthe;Westerveld;Oude Willem;E6.310;N52.893;13;
3;NLD;Drenthe;Westerveld;Soerte;;;12;
3;NLD;Drenthe;Westerveld;Ten Have;E6.267;N52.850;13;
3;NLD;Drenthe;Westerveld;Uffelte;E6.280;N52.788;12;
3;NLD;Drenthe;Westerveld;Veendijk;E6.200;N52.750;12;
3;NLD;Drenthe;Westerveld;Veenhuizen;E6.267;N52.867;12;
3;NLD;Drenthe;Westerveld;Veldhuizen;E6.250;N52.850;13;
3;NLD;Drenthe;Westerveld;Vledder;E6.207;N52.855;12;
3;NLD;Drenthe;Westerveld;Vledderveen;E6.187;N52.876;12;
3;NLD;Drenthe;Westerveld;Wapse;E6.267;N52.859;12;
3;NLD;Drenthe;Westerveld;Wapserveen;E6.222;N52.826;12;
3;NLD;Drenthe;Westerveld;Wateren;E6.281;N52.911;12;
3;NLD;Drenthe;Westerveld;Westeinde;E6.351;N52.825;12;
3;NLD;Drenthe;Westerveld;Wilhelminaoord;E6.166;N52.856;12;
3;NLD;Drenthe;Westerveld;Wittelte;E6.308;N52.830;12;
3;NLD;Drenthe;Westerveld;Witteveen;E6.367;N52.783;12;
3;NLD;Drenthe;Westerveld;Zoerte;E6.283;N52.867;12;
3;NLD;Drenthe;Westerveld;Zorgvlied;E6.258;N52.922;12;
