"Level";"Country";"State";"County";"Place";"Longitude";"Latitude";"ZoomLevel";"Icon"
2;FRA;Rhône-Alpes;Ain;;E5.24;N46.08;9;
3;FRA;Rhône-Alpes;Ain;Amareins 01003=01165;E4.7827;N46.0803;13;
3;FRA;Rhône-Alpes;Ain;Ambérieu-en-Bugey 01004;E5.3612;N45.9554;13;
3;FRA;Rhône-Alpes;Ain;Ambérieux-en-Dombes 01005;E4.9040;N45.9959;13;
3;FRA;Rhône-Alpes;Ain;Ambléon 01006;E5.6000;N45.7500;13;
3;FRA;Rhône-Alpes;Ain;Ambronay 01007;E5.3500;N46.0000;13;
3;FRA;Rhône-Alpes;Ain;Ambutrix 01008;E5.3333;N45.9333;13;
3;FRA;Rhône-Alpes;Ain;Andert-et-Condon 01009;E5.6500;N45.8000;13;
3;FRA;Rhône-Alpes;Ain;Anglefort 01010;E5.8083;N45.9167;13;
3;FRA;Rhône-Alpes;Ain;Apremont 01011;E5.6583;N46.2083;13;
3;FRA;Rhône-Alpes;Ain;Aranc 01012;E5.5000;N46.0000;13;
3;FRA;Rhône-Alpes;Ain;Arandas 01013;E5.4833;N45.9000;13;
3;FRA;Rhône-Alpes;Ain;Arbent 01014;E5.6833;N46.3000;13;
3;FRA;Rhône-Alpes;Ain;Arbignieu 01015;E5.6500;N45.7333;13;
3;FRA;Rhône-Alpes;Ain;Arbigny 01016;E4.9667;N46.4667;13;
3;FRA;Rhône-Alpes;Ain;Argis 01017;E5.4833;N45.9333;13;
3;FRA;Rhône-Alpes;Ain;Arlod 01018=01033;E5.8206;N46.0936;13;
3;FRA;Rhône-Alpes;Ain;Armix 01019;E5.5833;N45.8500;13;
3;FRA;Rhône-Alpes;Ain;Arnans 01020=01125;E5.4587;N46.2609;13;
3;FRA;Rhône-Alpes;Ain;Ars-sur-Formans 01021;E4.8167;N45.9833;13;
3;FRA;Rhône-Alpes;Ain;Artemare 01022;E5.7000;N45.8667;13;
3;FRA;Rhône-Alpes;Ain;Asnières-sur-Saône 01023;E4.8833;N46.3833;13;
3;FRA;Rhône-Alpes;Ain;Attignat 01024;E5.1667;N46.2833;13;
3;FRA;Rhône-Alpes;Ain;Bâgé-la-Ville 01025;E4.9500;N46.3167;13;
3;FRA;Rhône-Alpes;Ain;Bâgé-le-Châtel 01026;E4.9333;N46.3000;13;
3;FRA;Rhône-Alpes;Ain;Balan 01027;E5.1000;N45.8333;13;
3;FRA;Rhône-Alpes;Ain;Baneins 01028;E4.9000;N46.1167;13;
3;FRA;Rhône-Alpes;Ain;Beaupont 01029;E5.2667;N46.4000;13;
3;FRA;Rhône-Alpes;Ain;Beauregard 01030;E4.7515;N46.0009;13;
3;FRA;Rhône-Alpes;Ain;Béligneux 01032;E5.1167;N45.8667;13;
3;FRA;Rhône-Alpes;Ain;Bellegarde-sur-Valserine 01033;E5.8167;N46.1000;13;
3;FRA;Rhône-Alpes;Ain;Belley 01034;E5.6833;N45.7667;13;
3;FRA;Rhône-Alpes;Ain;Belleydoux 01035;E5.7667;N46.2500;13;
3;FRA;Rhône-Alpes;Ain;Bellignat 01031;E5.6167;N46.2500;13;
3;FRA;Rhône-Alpes;Ain;Belmont-Luthézieu 01036;E5.6607;N45.8807;13;
3;FRA;Rhône-Alpes;Ain;Bénonces 01037;E5.4833;N45.8333;13;
3;FRA;Rhône-Alpes;Ain;Bény 01038;E5.2833;N46.3333;13;
3;FRA;Rhône-Alpes;Ain;Béon 01039;E5.7500;N45.8333;13;
3;FRA;Rhône-Alpes;Ain;Béréziat 01040;E5.0500;N46.3667;13;
3;FRA;Rhône-Alpes;Ain;Bettant 01041;E5.3667;N45.9333;13;
3;FRA;Rhône-Alpes;Ain;Bey 01042;E4.8500;N46.2167;13;
3;FRA;Rhône-Alpes;Ain;Beynost 01043;E5.0000;N45.8333;13;
3;FRA;Rhône-Alpes;Ain;Billiat 01044;E5.7833;N46.0667;13;
3;FRA;Rhône-Alpes;Ain;Birieux 01045;E5.0333;N45.9500;13;
3;FRA;Rhône-Alpes;Ain;Biziat 01046;E4.9333;N46.2167;13;
3;FRA;Rhône-Alpes;Ain;Blyes 01047;E5.2500;N45.8500;13;
3;FRA;Rhône-Alpes;Ain;Bohas 01048=01245;E5.4000;N46.1667;13;
3;FRA;Rhône-Alpes;Ain;Bohas-Meyriat-Rignat 01245;E5.4000;N46.1333;13;
3;FRA;Rhône-Alpes;Ain;Boissey 01050;E5.0000;N46.3833;13;
3;FRA;Rhône-Alpes;Ain;Bolozon 01051;E5.4833;N46.2000;13;
3;FRA;Rhône-Alpes;Ain;Bouligneux 01052;E5.0000;N46.0167;13;
3;FRA;Rhône-Alpes;Ain;Bourg-en-Bresse 01053;E5.2167;N46.2000;13;
3;FRA;Rhône-Alpes;Ain;Bourg-Saint-Christophe 01054;E5.1667;N45.8833;13;
3;FRA;Rhône-Alpes;Ain;Bouvent 01055=01283;E5.6333;N46.2833;13;
3;FRA;Rhône-Alpes;Ain;Boyeux-Saint-Jérôme 01056;E5.4667;N46.0333;13;
3;FRA;Rhône-Alpes;Ain;Boz 01057;E4.9000;N46.4000;13;
3;FRA;Rhône-Alpes;Ain;Brégnier-Cordon 01058;E5.6167;N45.6500;13;
3;FRA;Rhône-Alpes;Ain;Brénaz 01059;E5.7167;N45.9500;13;
3;FRA;Rhône-Alpes;Ain;Brénod 01060;E5.6000;N46.0667;13;
3;FRA;Rhône-Alpes;Ain;Brens 01061;E5.6951;N45.7207;13;
3;FRA;Rhône-Alpes;Ain;Bressolles 01062;E5.1000;N45.8667;13;
3;FRA;Rhône-Alpes;Ain;Brion 01063;E5.5538;N46.1717;13;
3;FRA;Rhône-Alpes;Ain;Briord 01064;E5.4667;N45.7833;13;
3;FRA;Rhône-Alpes;Ain;Buellas 01065;E5.1333;N46.2000;13;
3;FRA;Rhône-Alpes;Ain;Ceignes 01067;E5.5000;N46.1167;13;
3;FRA;Rhône-Alpes;Ain;Cerdon 01068;E5.4667;N46.0833;13;
3;FRA;Rhône-Alpes;Ain;Certines 01069;E5.2667;N46.1333;13;
3;FRA;Rhône-Alpes;Ain;Cesseins 01070=01165;E4.8333;N46.0667;13;
3;FRA;Rhône-Alpes;Ain;Cessy 01071;E6.0667;N46.3167;13;
3;FRA;Rhône-Alpes;Ain;Ceyzériat 01072;E5.3167;N46.1667;13;
3;FRA;Rhône-Alpes;Ain;Ceyzérieu 01073;E5.7333;N45.8333;13;
3;FRA;Rhône-Alpes;Ain;Chalamont 01074;E5.1667;N46.0000;13;
3;FRA;Rhône-Alpes;Ain;Chaleins 01075;E4.8000;N46.0333;13;
3;FRA;Rhône-Alpes;Ain;Chaley 01076;E5.5333;N45.9500;13;
3;FRA;Rhône-Alpes;Ain;Challes 01077;E5.4667;N46.1333;13;
3;FRA;Rhône-Alpes;Ain;Challex 01078;E5.9667;N46.1833;13;
3;FRA;Rhône-Alpes;Ain;Champagne-en-Valromey 01079;E5.6798;N45.9058;13;
3;FRA;Rhône-Alpes;Ain;Champdor 01080;E5.6000;N46.0167;13;
3;FRA;Rhône-Alpes;Ain;Champfromier 01081;E5.8167;N46.2000;13;
3;FRA;Rhône-Alpes;Ain;Chanay 01082;E5.7833;N46.0000;13;
3;FRA;Rhône-Alpes;Ain;Chaneins 01083;E4.8500;N46.1000;13;
3;FRA;Rhône-Alpes;Ain;Chanoz-Châtenay 01084;E5.0333;N46.1833;13;
3;FRA;Rhône-Alpes;Ain;Charancin 01086=01414;E5.6333;N45.9333;13;
3;FRA;Rhône-Alpes;Ain;Charix 01087;E5.6833;N46.1833;13;
3;FRA;Rhône-Alpes;Ain;Charnoz-sur-Ain 01088;E5.2167;N45.8667;13;
3;FRA;Rhône-Alpes;Ain;Château-Gaillard 01089;E5.3000;N45.9667;13;
3;FRA;Rhône-Alpes;Ain;Châtenay 01090;E5.2000;N46.0333;13;
3;FRA;Rhône-Alpes;Ain;Châtillon-en-Michaille 01091;E5.7833;N46.1333;13;
3;FRA;Rhône-Alpes;Ain;Châtillon-la-Palud 01092;E5.2500;N45.9667;13;
3;FRA;Rhône-Alpes;Ain;Châtillon-sur-Chalaronne 01093;E4.9667;N46.1167;13;
3;FRA;Rhône-Alpes;Ain;Chavannes-sur-Reyssouze 01094;E5.0000;N46.4333;13;
3;FRA;Rhône-Alpes;Ain;Chavannes-sur-Suran 01095;E5.4167;N46.2667;13;
3;FRA;Rhône-Alpes;Ain;Chaveyriat 01096;E5.0667;N46.1833;13;
3;FRA;Rhône-Alpes;Ain;Chavornay 01097;E5.7000;N45.8833;13;
3;FRA;Rhône-Alpes;Ain;Chazey-Bons 01098;E5.6833;N45.8000;13;
3;FRA;Rhône-Alpes;Ain;Chazey-sur-Ain 01099;E5.2500;N45.9000;13;
3;FRA;Rhône-Alpes;Ain;Cheignieu-la-Balme 01100;E5.6167;N45.8333;13;
3;FRA;Rhône-Alpes;Ain;Chevillard 01101;E5.5833;N46.1167;13;
3;FRA;Rhône-Alpes;Ain;Chevroux 01102;E4.9500;N46.3833;13;
3;FRA;Rhône-Alpes;Ain;Chevry 01103;E6.0333;N46.2833;13;
3;FRA;Rhône-Alpes;Ain;Chézery-Forens 01104;E5.8833;N46.2167;13;
3;FRA;Rhône-Alpes;Ain;Civrieux 01105;E4.8833;N45.9167;13;
3;FRA;Rhône-Alpes;Ain;Cize 01106;E5.4333;N46.2000;13;
3;FRA;Rhône-Alpes;Ain;Cleyzieu 01107;E5.4333;N45.9000;13;
3;FRA;Rhône-Alpes;Ain;Coligny 01108;E5.3500;N46.3833;13;
3;FRA;Rhône-Alpes;Ain;Collonges 01109;E5.9000;N46.1333;13;
3;FRA;Rhône-Alpes;Ain;Colomieu 01110;E5.6167;N45.7333;13;
3;FRA;Rhône-Alpes;Ain;Conand 01111;E5.4667;N45.8833;13;
3;FRA;Rhône-Alpes;Ain;Condamine 01112;E5.5667;N46.1167;13;
3;FRA;Rhône-Alpes;Ain;Condeissiat 01113;E5.0833;N46.1667;13;
3;FRA;Rhône-Alpes;Ain;Confort 01114;E5.8167;N46.1500;13;
3;FRA;Rhône-Alpes;Ain;Confrançon 01115;E5.0667;N46.2667;13;
3;FRA;Rhône-Alpes;Ain;Contrevoz 01116;E5.6333;N45.8000;13;
3;FRA;Rhône-Alpes;Ain;Conzieu 01117;E5.6000;N45.7333;13;
3;FRA;Rhône-Alpes;Ain;Corbonod 01118;E5.8167;N45.9500;13;
3;FRA;Rhône-Alpes;Ain;Corcelles 01119;E5.5833;N46.0333;13;
3;FRA;Rhône-Alpes;Ain;Cordieux 01120=01262;E5.0333;N45.9167;13;
3;FRA;Rhône-Alpes;Ain;Corlier 01121;E5.5000;N46.0333;13;
3;FRA;Rhône-Alpes;Ain;Cormaranche-en-Bugey 01122;E5.6000;N45.9500;13;
3;FRA;Rhône-Alpes;Ain;Cormoranche-sur-Saône 01123;E4.8333;N46.2333;13;
3;FRA;Rhône-Alpes;Ain;Cormoz 01124;E5.2333;N46.4500;13;
3;FRA;Rhône-Alpes;Ain;Corveissiat 01125;E5.4833;N46.2333;13;
3;FRA;Rhône-Alpes;Ain;Coupy 01126=01033;E5.8358;N46.1086;13;
3;FRA;Rhône-Alpes;Ain;Courmangoux 01127;E5.3667;N46.3333;13;
3;FRA;Rhône-Alpes;Ain;Courtes 01128;E5.1000;N46.4667;13;
3;FRA;Rhône-Alpes;Ain;Crans 01129;E5.2167;N45.9667;13;
3;FRA;Rhône-Alpes;Ain;Cras-sur-Reyssouze 01130;E5.1667;N46.3000;13;
3;FRA;Rhône-Alpes;Ain;Craz 01131=01189;E5.7577;N46.0411;13;
3;FRA;Rhône-Alpes;Ain;Crépieux-la-Pape 01132=69274;E4.8744;N45.8005;13;
3;FRA;Rhône-Alpes;Ain;Cressin-Rochefort 01133;E5.7667;N45.7667;13;
3;FRA;Rhône-Alpes;Ain;Crottet 01134;E4.9000;N46.2833;13;
3;FRA;Rhône-Alpes;Ain;Crozet 01135;E6.0126;N46.2810;13;
3;FRA;Rhône-Alpes;Ain;Cruzilles-lès-Mépillat 01136;E4.8833;N46.2167;13;
3;FRA;Rhône-Alpes;Ain;Cuisiat 01137=01426;E5.3833;N46.3000;13;
3;FRA;Rhône-Alpes;Ain;Culoz 01138;E5.7833;N45.8500;13;
3;FRA;Rhône-Alpes;Ain;Curciat-Dongalon 01139;E5.1500;N46.4667;13;
3;FRA;Rhône-Alpes;Ain;Curtafond 01140;E5.0833;N46.2667;13;
3;FRA;Rhône-Alpes;Ain;Cuzieu 01141;E5.6843;N45.8172;13;
3;FRA;Rhône-Alpes;Ain;Dagneux 01142;E5.0667;N45.8500;13;
3;FRA;Rhône-Alpes;Ain;Divonne-les-Bains 01143;E6.1333;N46.3667;13;
3;FRA;Rhône-Alpes;Ain;Dommartin 01144;E4.9917;N46.3417;13;
3;FRA;Rhône-Alpes;Ain;Dompierre-sur-Chalaronne 01146;E4.9000;N46.1333;13;
3;FRA;Rhône-Alpes;Ain;Dompierre-sur-Veyle 01145;E5.2000;N46.0667;13;
3;FRA;Rhône-Alpes;Ain;Domsure 01147;E5.3000;N46.4167;13;
3;FRA;Rhône-Alpes;Ain;Dortan 01148;E5.6667;N46.3167;13;
3;FRA;Rhône-Alpes;Ain;Douvres 01149;E5.3667;N45.9833;13;
3;FRA;Rhône-Alpes;Ain;Drom 01150;E5.3667;N46.2167;13;
3;FRA;Rhône-Alpes;Ain;Druillat 01151;E5.3167;N46.0667;13;
3;FRA;Rhône-Alpes;Ain;Échallon 01152;E5.7381;N46.2145;13;
3;FRA;Rhône-Alpes;Ain;Échenevex 01153;E6.0333;N46.3167;13;
3;FRA;Rhône-Alpes;Ain;Étrez 01154;E5.1833;N46.3333;13;
3;FRA;Rhône-Alpes;Ain;Évosges 01155;E5.5000;N45.9583;13;
3;FRA;Rhône-Alpes;Ain;Faramans 01156;E5.1167;N45.9000;13;
3;FRA;Rhône-Alpes;Ain;Fareins 01157;E4.7667;N46.0167;13;
3;FRA;Rhône-Alpes;Ain;Farges 01158;E5.9167;N46.1667;13;
3;FRA;Rhône-Alpes;Ain;Feillens 01159;E4.8833;N46.3333;13;
3;FRA;Rhône-Alpes;Ain;Ferney-Voltaire 01160;E6.1167;N46.2500;13;
3;FRA;Rhône-Alpes;Ain;Fitignieu 01161=01414;E5.6667;N45.9333;13;
3;FRA;Rhône-Alpes;Ain;Flaxieu 01162;E5.7333;N45.8167;13;
3;FRA;Rhône-Alpes;Ain;Foissiat 01163;E5.1833;N46.3667;13;
3;FRA;Rhône-Alpes;Ain;Forens 01164=01104;E5.8577;N46.2140;13;
3;FRA;Rhône-Alpes;Ain;Francheleins 01165;E4.8084;N46.0737;13;
3;FRA;Rhône-Alpes;Ain;Frans 01166;E4.7833;N45.9833;13;
3;FRA;Rhône-Alpes;Ain;Garnerans 01167;E4.8333;N46.2000;13;
3;FRA;Rhône-Alpes;Ain;Genay 01168=69278;E4.8419;N45.8982;13;
3;FRA;Rhône-Alpes;Ain;Genouilleux 01169;E4.7833;N46.1167;13;
3;FRA;Rhône-Alpes;Ain;Géovreisset 01171;E5.6000;N46.2500;13;
3;FRA;Rhône-Alpes;Ain;Géovreissiat 01170;E5.5667;N46.2000;13;
3;FRA;Rhône-Alpes;Ain;Germagnat 01172;E5.4500;N46.3167;13;
3;FRA;Rhône-Alpes;Ain;Gex 01173;E6.0667;N46.3333;13;
3;FRA;Rhône-Alpes;Ain;Giron 01174;E5.7667;N46.2333;13;
3;FRA;Rhône-Alpes;Ain;Gorrevod 01175;E4.9500;N46.4167;13;
3;FRA;Rhône-Alpes;Ain;Grand-Corent 01177;E5.4333;N46.2000;13;
3;FRA;Rhône-Alpes;Ain;Granges 01178=01240;E5.5000;N46.2333;13;
3;FRA;Rhône-Alpes;Ain;Grièges 01179;E4.8500;N46.2500;13;
3;FRA;Rhône-Alpes;Ain;Grilly 01180;E6.1167;N46.3333;13;
3;FRA;Rhône-Alpes;Ain;Groissiat 01181;E5.6000;N46.2167;13;
3;FRA;Rhône-Alpes;Ain;Groslée 01182;E5.5667;N45.7167;13;
3;FRA;Rhône-Alpes;Ain;Guéreins 01183;E4.7833;N46.1000;13;
3;FRA;Rhône-Alpes;Ain;Hautecourt-Romanèche 01184;E5.4167;N46.1583;13;
3;FRA;Rhône-Alpes;Ain;Hauteville-Lompnes 01185;E5.6000;N45.9667;13;
3;FRA;Rhône-Alpes;Ain;Hauteville-Lompnés 01459=01185;E5.6022;N45.9767;13;
3;FRA;Rhône-Alpes;Ain;Hostias 01186;E5.5333;N45.9000;13;
3;FRA;Rhône-Alpes;Ain;Hotonnes 01187;E5.6833;N46.0000;13;
3;FRA;Rhône-Alpes;Ain;Illiat 01188;E4.8833;N46.1833;13;
3;FRA;Rhône-Alpes;Ain;Injoux-Génissiat 01189;E5.7833;N46.0500;13;
3;FRA;Rhône-Alpes;Ain;Innimond 01190;E5.5667;N45.7833;13;
3;FRA;Rhône-Alpes;Ain;Izenave 01191;E5.5333;N46.0333;13;
3;FRA;Rhône-Alpes;Ain;Izernore 01192;E5.5500;N46.2167;13;
3;FRA;Rhône-Alpes;Ain;Izieu 01193;E5.6333;N45.6500;13;
3;FRA;Rhône-Alpes;Ain;Jassans-Riottier 01194;E4.7500;N45.9833;13;
3;FRA;Rhône-Alpes;Ain;Jasseron 01195;E5.3333;N46.2167;13;
3;FRA;Rhône-Alpes;Ain;Jayat 01196;E5.1167;N46.3667;13;
3;FRA;Rhône-Alpes;Ain;Journans 01197;E5.3333;N46.1500;13;
3;FRA;Rhône-Alpes;Ain;Joyeux 01198;E5.1000;N45.9500;13;
3;FRA;Rhône-Alpes;Ain;Jujurieux 01199;E5.4167;N46.0333;13;
3;FRA;Rhône-Alpes;Ain;L'Abergement-Clémenciat 01001;E4.9167;N46.1500;13;
3;FRA;Rhône-Alpes;Ain;L'Abergement-de-Varey 01002;E5.4167;N46.0000;13;
3;FRA;Rhône-Alpes;Ain;La Boisse 01049;E5.0333;N45.8500;13;
3;FRA;Rhône-Alpes;Ain;La Burbanche 01066;E5.5667;N45.8500;13;
3;FRA;Rhône-Alpes;Ain;La Chapelle-du-Châtelard 01085;E5.0333;N46.0667;13;
3;FRA;Rhône-Alpes;Ain;La Tranclière 01425;E5.2667;N46.1167;13;
3;FRA;Rhône-Alpes;Ain;Labalme 01200;E5.1333;N45.8500;13;
3;FRA;Rhône-Alpes;Ain;Lacoux 01201=01185;E5.4833;N46.1000;13;
3;FRA;Rhône-Alpes;Ain;Lagnieu 01202;E5.3500;N45.9000;13;
3;FRA;Rhône-Alpes;Ain;Laiz 01203;E4.8833;N46.2500;13;
3;FRA;Rhône-Alpes;Ain;Lalleyriat 01204;E5.7167;N46.1500;13;
3;FRA;Rhône-Alpes;Ain;Lancrans 01205;E5.8333;N46.1333;13;
3;FRA;Rhône-Alpes;Ain;Lantenay 01206;E5.5333;N46.0500;13;
3;FRA;Rhône-Alpes;Ain;Lapeyrouse 01207;E4.9667;N45.9833;13;
3;FRA;Rhône-Alpes;Ain;Lavours 01208;E5.7667;N45.8000;13;
3;FRA;Rhône-Alpes;Ain;Le Grand-Abergement 01176;E5.6667;N46.0333;13;
3;FRA;Rhône-Alpes;Ain;Le Montellier 01260;E5.0667;N45.9333;13;
3;FRA;Rhône-Alpes;Ain;Le Petit-Abergement 01292;E5.6500;N46.0333;13;
3;FRA;Rhône-Alpes;Ain;Le Plantay 01299;E5.0833;N46.0167;13;
3;FRA;Rhône-Alpes;Ain;Le Poizat 01300;E5.7000;N46.1500;13;
3;FRA;Rhône-Alpes;Ain;Léaz 01209;E5.8833;N46.1000;13;
3;FRA;Rhône-Alpes;Ain;Lélex 01210;E5.9500;N46.3000;13;
3;FRA;Rhône-Alpes;Ain;Lent 01211;E5.2000;N46.1167;13;
3;FRA;Rhône-Alpes;Ain;Les Neyrolles 01274;E5.6333;N46.1333;13;
3;FRA;Rhône-Alpes;Ain;Lescheroux 01212;E5.1500;N46.4000;13;
3;FRA;Rhône-Alpes;Ain;Leyment 01213;E5.3000;N45.9167;13;
3;FRA;Rhône-Alpes;Ain;Leyssard 01214;E5.4667;N46.1667;13;
3;FRA;Rhône-Alpes;Ain;Lhôpital 01215;E5.7788;N46.0220;13;
3;FRA;Rhône-Alpes;Ain;Lhuis 01216;E5.5333;N45.7500;13;
3;FRA;Rhône-Alpes;Ain;Lilignod 01217=01079;E5.6833;N45.9500;13;
3;FRA;Rhône-Alpes;Ain;Lochieu 01218;E5.7167;N45.9333;13;
3;FRA;Rhône-Alpes;Ain;Lompnas 01219;E5.5198;N45.8028;13;
3;FRA;Rhône-Alpes;Ain;Lompnes 01220=01185;E5.5988;N45.9833;13;
3;FRA;Rhône-Alpes;Ain;Lompnieu 01221;E5.6595;N45.9619;13;
3;FRA;Rhône-Alpes;Ain;Longecombe 01222=01185;E5.5511;N45.9494;13;
3;FRA;Rhône-Alpes;Ain;Loyes 01223=01450;E5.2307;N45.9341;13;
3;FRA;Rhône-Alpes;Ain;Loyettes 01224;E5.2000;N45.7667;13;
3;FRA;Rhône-Alpes;Ain;Lurcy 01225;E4.7667;N46.0667;13;
3;FRA;Rhône-Alpes;Ain;Luthézieu 01226=01036;E5.6667;N45.9000;13;
3;FRA;Rhône-Alpes;Ain;Magnieu 01227;E5.7167;N45.7833;13;
3;FRA;Rhône-Alpes;Ain;Maillat 01228;E5.5500;N46.1333;13;
3;FRA;Rhône-Alpes;Ain;Malafretaz 01229;E5.1500;N46.3167;13;
3;FRA;Rhône-Alpes;Ain;Mantenay-Montlin 01230;E5.0833;N46.4167;13;
3;FRA;Rhône-Alpes;Ain;Manziat 01231;E4.9000;N46.3500;13;
3;FRA;Rhône-Alpes;Ain;Marboz 01232;E5.2500;N46.3333;13;
3;FRA;Rhône-Alpes;Ain;Marchamp 01233;E5.5500;N45.7833;13;
3;FRA;Rhône-Alpes;Ain;Marignieu 01234;E5.7167;N45.8000;13;
3;FRA;Rhône-Alpes;Ain;Marlieux 01235;E5.0667;N46.0667;13;
3;FRA;Rhône-Alpes;Ain;Marsonnas 01236;E5.0667;N46.3333;13;
3;FRA;Rhône-Alpes;Ain;Martignat 01237;E5.6000;N46.2167;13;
3;FRA;Rhône-Alpes;Ain;Massieux 01238;E4.8333;N45.9167;13;
3;FRA;Rhône-Alpes;Ain;Massignieu-de-Rives 01239;E5.7667;N45.7500;13;
3;FRA;Rhône-Alpes;Ain;Matafelon-Granges 01240;E5.5667;N46.2667;13;
3;FRA;Rhône-Alpes;Ain;Meillonnas 01241;E5.3500;N46.2500;13;
3;FRA;Rhône-Alpes;Ain;Mérignat 01242;E5.4333;N46.0667;13;
3;FRA;Rhône-Alpes;Ain;Messimy-sur-Saône 01243;E4.7643;N46.0489;13;
3;FRA;Rhône-Alpes;Ain;Meximieux 01244;E5.2000;N45.9000;13;
3;FRA;Rhône-Alpes;Ain;Mézériat 01246;E5.0333;N46.2333;13;
3;FRA;Rhône-Alpes;Ain;Mijoux 01247;E6.0000;N46.3667;13;
3;FRA;Rhône-Alpes;Ain;Mionnay 01248;E4.9333;N45.9000;13;
3;FRA;Rhône-Alpes;Ain;Miribel 01249;E4.9524;N45.8239;13;
3;FRA;Rhône-Alpes;Ain;Misérieux 01250;E4.8167;N45.9833;13;
3;FRA;Rhône-Alpes;Ain;Moëns 01251=01313;E6.1000;N46.2667;13;
3;FRA;Rhône-Alpes;Ain;Mogneneins 01252;E4.8167;N46.1333;13;
3;FRA;Rhône-Alpes;Ain;Mollon 01253=01450;E5.2500;N45.9500;13;
3;FRA;Rhône-Alpes;Ain;Montagnat 01254;E5.2833;N46.1667;13;
3;FRA;Rhône-Alpes;Ain;Montagnieu 01255;E5.4667;N45.8000;13;
3;FRA;Rhône-Alpes;Ain;Montanay 01256=69284;E4.8635;N45.8811;13;
3;FRA;Rhône-Alpes;Ain;Montanges 01257;E5.8000;N46.1667;13;
3;FRA;Rhône-Alpes;Ain;Montceaux 01258;E4.8000;N46.1000;13;
3;FRA;Rhône-Alpes;Ain;Montcet 01259;E5.1167;N46.2000;13;
3;FRA;Rhône-Alpes;Ain;Monthieux 01261;E4.9333;N45.9500;13;
3;FRA;Rhône-Alpes;Ain;Montluel 01262;E5.0500;N45.8500;13;
3;FRA;Rhône-Alpes;Ain;Montmerle-sur-Saône 01263;E4.7667;N46.0833;13;
3;FRA;Rhône-Alpes;Ain;Montracol 01264;E5.1167;N46.1833;13;
3;FRA;Rhône-Alpes;Ain;Montréal-la-Cluse 01265;E5.5705;N46.1872;13;
3;FRA;Rhône-Alpes;Ain;Montrevel-en-Bresse 01266;E5.1333;N46.3333;13;
3;FRA;Rhône-Alpes;Ain;Murs-et-Gélignieux 01268;E5.6667;N45.6333;13;
3;FRA;Rhône-Alpes;Ain;Nantua 01269;E5.6167;N46.1500;13;
3;FRA;Rhône-Alpes;Ain;Napt 01270=01410;E5.5000;N46.2000;13;
3;FRA;Rhône-Alpes;Ain;Nattages 01271;E5.7667;N45.7333;13;
3;FRA;Rhône-Alpes;Ain;Neuville-les-Dames 01272;E5.0000;N46.1667;13;
3;FRA;Rhône-Alpes;Ain;Neuville-sur-Ain 01273;E5.3667;N46.0833;13;
3;FRA;Rhône-Alpes;Ain;Neyron 01275;E4.9310;N45.8142;13;
3;FRA;Rhône-Alpes;Ain;Niévroz 01276;E5.0667;N45.8333;13;
3;FRA;Rhône-Alpes;Ain;Nivollet-Montgriffon 01277;E5.4333;N45.9833;13;
3;FRA;Rhône-Alpes;Ain;Nurieux-Volognat 01267;E5.5138;N46.1757;13;
3;FRA;Rhône-Alpes;Ain;Ochiaz 01278=01091;E5.7833;N46.1167;13;
3;FRA;Rhône-Alpes;Ain;Oncieu 01279;E5.4667;N45.9500;13;
3;FRA;Rhône-Alpes;Ain;Ordonnaz 01280;E5.5333;N45.8333;13;
3;FRA;Rhône-Alpes;Ain;Ornex 01281;E6.1000;N46.2833;13;
3;FRA;Rhône-Alpes;Ain;Outriaz 01282;E5.5500;N46.0667;13;
3;FRA;Rhône-Alpes;Ain;Oyonnax 01283;E5.6667;N46.2500;13;
3;FRA;Rhône-Alpes;Ain;Ozan 01284;E4.9167;N46.3833;13;
3;FRA;Rhône-Alpes;Ain;Parcieux 01285;E4.8167;N45.9167;13;
3;FRA;Rhône-Alpes;Ain;Parves 01286;E5.7500;N45.7500;13;
3;FRA;Rhône-Alpes;Ain;Passin 01287=01079;E5.7000;N45.9333;13;
3;FRA;Rhône-Alpes;Ain;Péron 01288;E5.9333;N46.2000;13;
3;FRA;Rhône-Alpes;Ain;Péronnas 01289;E5.2000;N46.1833;13;
3;FRA;Rhône-Alpes;Ain;Pérouges 01290;E5.1833;N45.9000;13;
3;FRA;Rhône-Alpes;Ain;Perrex 01291;E4.9833;N46.2333;13;
3;FRA;Rhône-Alpes;Ain;Peyriat 01293;E5.5167;N46.1500;13;
3;FRA;Rhône-Alpes;Ain;Peyrieu 01294;E5.6755;N45.6781;13;
3;FRA;Rhône-Alpes;Ain;Peyzieux-sur-Saône 01295;E4.8167;N46.1167;13;
3;FRA;Rhône-Alpes;Ain;Pirajoux 01296;E5.3000;N46.3833;13;
3;FRA;Rhône-Alpes;Ain;Pizay 01297;E5.0833;N45.8833;13;
3;FRA;Rhône-Alpes;Ain;Plagne 01298;E5.7333;N46.1833;13;
3;FRA;Rhône-Alpes;Ain;Polliat 01301;E5.1333;N46.2500;13;
3;FRA;Rhône-Alpes;Ain;Pollieu 01302;E5.7500;N45.8000;13;
3;FRA;Rhône-Alpes;Ain;Poncin 01303;E5.4000;N46.0833;13;
3;FRA;Rhône-Alpes;Ain;Pont-d'Ain 01304;E5.3333;N46.0500;13;
3;FRA;Rhône-Alpes;Ain;Pont-de-Vaux 01305;E4.9333;N46.4333;13;
3;FRA;Rhône-Alpes;Ain;Pont-de-Veyle 01306;E4.8833;N46.2667;13;
3;FRA;Rhône-Alpes;Ain;Port 01307;E5.5667;N46.1667;13;
3;FRA;Rhône-Alpes;Ain;Pougny 01308;E5.9500;N46.1333;13;
3;FRA;Rhône-Alpes;Ain;Pouillat 01309;E5.4333;N46.3333;13;
3;FRA;Rhône-Alpes;Ain;Prémeyzel 01310;E5.6500;N45.6833;13;
3;FRA;Rhône-Alpes;Ain;Prémillieu 01311;E5.5667;N45.8667;13;
3;FRA;Rhône-Alpes;Ain;Pressiat 01312;E5.3833;N46.3333;13;
3;FRA;Rhône-Alpes;Ain;Prévessin-Moëns 01313;E6.0833;N46.2500;13;
3;FRA;Rhône-Alpes;Ain;Priay 01314;E5.2833;N46.0000;13;
3;FRA;Rhône-Alpes;Ain;Proulieu 01315=01202;E5.3206;N45.8652;13;
3;FRA;Rhône-Alpes;Ain;Pugieu 01316;E5.6500;N45.8167;13;
3;FRA;Rhône-Alpes;Ain;Ramasse 01317;E5.3500;N46.2000;13;
3;FRA;Rhône-Alpes;Ain;Rancé 01318;E4.8667;N45.9667;13;
3;FRA;Rhône-Alpes;Ain;Relevant 01319;E4.9500;N46.0833;13;
3;FRA;Rhône-Alpes;Ain;Replonges 01320;E4.8833;N46.3000;13;
3;FRA;Rhône-Alpes;Ain;Revonnas 01321;E5.3333;N46.1667;13;
3;FRA;Rhône-Alpes;Ain;Reyrieux 01322;E4.8167;N45.9333;13;
3;FRA;Rhône-Alpes;Ain;Reyssouze 01323;E4.9167;N46.4333;13;
3;FRA;Rhône-Alpes;Ain;Rignat 01324=01245;E5.3667;N46.1500;13;
3;FRA;Rhône-Alpes;Ain;Rignieux-le-Franc 01325;E5.1833;N45.9333;13;
3;FRA;Rhône-Alpes;Ain;Rillieux 01326=69286;E4.8899;N45.8234;13;
3;FRA;Rhône-Alpes;Ain;Romanèche 01327=01184;E5.4333;N46.1833;13;
3;FRA;Rhône-Alpes;Ain;Romans 01328;E5.0333;N46.1167;13;
3;FRA;Rhône-Alpes;Ain;Rossillon 01329;E5.6000;N45.8333;13;
3;FRA;Rhône-Alpes;Ain;Ruffieu 01330;E5.6667;N46.0000;13;
3;FRA;Rhône-Alpes;Ain;Saint-Alban 01331;E5.4500;N46.1000;13;
3;FRA;Rhône-Alpes;Ain;Saint-André-d'Huiriat 01334;E4.9167;N46.2167;13;
3;FRA;Rhône-Alpes;Ain;Saint-André-de-Bâgé 01332;E4.9167;N46.3000;13;
3;FRA;Rhône-Alpes;Ain;Saint-André-de-Corcy 01333;E4.9500;N45.9167;13;
3;FRA;Rhône-Alpes;Ain;Saint-André-le-Bouchoux 01335;E5.0833;N46.1167;13;
3;FRA;Rhône-Alpes;Ain;Saint-André-sur-Vieux-Jonc 01336;E5.0667;N46.1500;13;
3;FRA;Rhône-Alpes;Ain;Saint-Bénigne 01337;E4.9667;N46.4333;13;
3;FRA;Rhône-Alpes;Ain;Saint-Benoît 01338;E5.5833;N45.7000;13;
3;FRA;Rhône-Alpes;Ain;Saint-Bernard 01339;E4.7329;N45.9449;13;
3;FRA;Rhône-Alpes;Ain;Saint-Bois 01340;E5.6333;N45.7000;13;
3;FRA;Rhône-Alpes;Ain;Saint-Champ 01341;E5.7333;N45.7833;13;
3;FRA;Rhône-Alpes;Ain;Saint-Cyr-sur-Menthon 01343;E4.9833;N46.2667;13;
3;FRA;Rhône-Alpes;Ain;Saint-Denis-en-Bugey 01345;E5.3333;N45.9500;13;
3;FRA;Rhône-Alpes;Ain;Saint-Denis-lès-Bourg 01344;E5.2000;N46.2000;13;
3;FRA;Rhône-Alpes;Ain;Saint-Didier-d'Aussiat 01346;E5.0667;N46.3000;13;
3;FRA;Rhône-Alpes;Ain;Saint-Didier-de-Formans 01347;E4.7833;N45.9500;13;
3;FRA;Rhône-Alpes;Ain;Saint-Didier-sur-Chalaronne 01348;E4.8167;N46.1667;13;
3;FRA;Rhône-Alpes;Ain;Saint-Éloi 01349;E5.1500;N45.9333;13;
3;FRA;Rhône-Alpes;Ain;Saint-Étienne-du-Bois 01350;E5.2833;N46.2833;13;
3;FRA;Rhône-Alpes;Ain;Saint-Étienne-sur-Chalaronne 01351;E4.8667;N46.1500;13;
3;FRA;Rhône-Alpes;Ain;Saint-Étienne-sur-Reyssouze 01352;E5.0000;N46.4000;13;
3;FRA;Rhône-Alpes;Ain;Saint-Genis-Pouilly 01354;E6.0167;N46.2500;13;
3;FRA;Rhône-Alpes;Ain;Saint-Genis-sur-Menthon 01355;E5.0167;N46.2833;13;
3;FRA;Rhône-Alpes;Ain;Saint-Georges-sur-Renon 01356;E5.0333;N46.1000;13;
3;FRA;Rhône-Alpes;Ain;Saint-Germain-de-Joux 01357;E5.7333;N46.1833;13;
3;FRA;Rhône-Alpes;Ain;Saint-Germain-les-Paroisses 01358;E5.6167;N45.7667;13;
3;FRA;Rhône-Alpes;Ain;Saint-Germain-sur-Renon 01359;E5.0500;N46.0833;13;
3;FRA;Rhône-Alpes;Ain;Saint-Jean-de-Gonville 01360;E5.9500;N46.2167;13;
3;FRA;Rhône-Alpes;Ain;Saint-Jean-de-Niost 01361;E5.2167;N45.8333;13;
3;FRA;Rhône-Alpes;Ain;Saint-Jean-de-Thurigneux 01362;E4.8833;N45.9500;13;
3;FRA;Rhône-Alpes;Ain;Saint-Jean-le-Vieux 01363;E5.3895;N46.0290;13;
3;FRA;Rhône-Alpes;Ain;Saint-Jean-sur-Reyssouze 01364;E5.0667;N46.4000;13;
3;FRA;Rhône-Alpes;Ain;Saint-Jean-sur-Veyle 01365;E4.9167;N46.2500;13;
3;FRA;Rhône-Alpes;Ain;Saint-Julien-sur-Reyssouze 01367;E5.1167;N46.4000;13;
3;FRA;Rhône-Alpes;Ain;Saint-Julien-sur-Veyle 01368;E4.9500;N46.2000;13;
3;FRA;Rhône-Alpes;Ain;Saint-Just 01369;E5.2791;N46.1899;13;
3;FRA;Rhône-Alpes;Ain;Saint-Laurent-sur-Saône 01370;E4.8333;N46.3000;13;
3;FRA;Rhône-Alpes;Ain;Saint-Marcel 01371;E4.9857;N45.9488;13;
3;FRA;Rhône-Alpes;Ain;Saint-Martin-de-Bavel 01372;E5.6833;N45.8500;13;
3;FRA;Rhône-Alpes;Ain;Saint-Martin-du-Frêne 01373;E5.5500;N46.1333;13;
3;FRA;Rhône-Alpes;Ain;Saint-Martin-du-Mont 01374;E5.3333;N46.1000;13;
3;FRA;Rhône-Alpes;Ain;Saint-Martin-le-Châtel 01375;E5.1167;N46.2833;13;
3;FRA;Rhône-Alpes;Ain;Saint-Maurice-d'Échazeaux 01377=01125;E5.4893;N46.2590;13;
3;FRA;Rhône-Alpes;Ain;Saint-Maurice-de-Beynost 01376;E4.9667;N45.8333;13;
3;FRA;Rhône-Alpes;Ain;Saint-Maurice-de-Gourdans 01378;E5.2000;N45.8167;13;
3;FRA;Rhône-Alpes;Ain;Saint-Maurice-de-Rémens 01379;E5.2833;N45.9500;13;
3;FRA;Rhône-Alpes;Ain;Saint-Nizier-le-Bouchoux 01380;E5.1500;N46.4500;13;
3;FRA;Rhône-Alpes;Ain;Saint-Nizier-le-Désert 01381;E5.1500;N46.0500;13;
3;FRA;Rhône-Alpes;Ain;Saint-Paul-de-Varax 01383;E5.1333;N46.1000;13;
3;FRA;Rhône-Alpes;Ain;Saint-Rambert-en-Bugey 01384;E5.4333;N45.9500;13;
3;FRA;Rhône-Alpes;Ain;Saint-Rémy 01385;E5.1667;N46.1833;13;
3;FRA;Rhône-Alpes;Ain;Saint-Sorlin-en-Bugey 01386;E5.3667;N45.8833;13;
3;FRA;Rhône-Alpes;Ain;Saint-Sulpice 01387;E5.0413;N46.3204;13;
3;FRA;Rhône-Alpes;Ain;Saint-Trivier-de-Courtes 01388;E5.0833;N46.4667;13;
3;FRA;Rhône-Alpes;Ain;Saint-Trivier-sur-Moignans 01389;E4.9000;N46.0667;13;
3;FRA;Rhône-Alpes;Ain;Saint-Vulbas 01390;E5.2833;N45.8333;13;
3;FRA;Rhône-Alpes;Ain;Sainte-Croix 01342;E5.0528;N45.8937;13;
3;FRA;Rhône-Alpes;Ain;Sainte-Euphémie 01353;E4.7833;N45.9667;13;
3;FRA;Rhône-Alpes;Ain;Sainte-Julie 01366;E5.2833;N45.8833;13;
3;FRA;Rhône-Alpes;Ain;Sainte-Olive 01382;E4.9333;N46.0167;13;
3;FRA;Rhône-Alpes;Ain;Salavre 01391;E5.3500;N46.3667;13;
3;FRA;Rhône-Alpes;Ain;Samognat 01392;E5.5833;N46.2500;13;
3;FRA;Rhône-Alpes;Ain;Sandrans 01393;E4.9833;N46.0667;13;
3;FRA;Rhône-Alpes;Ain;Sathonay-Camp 01394=69292;E4.8745;N45.8243;13;
3;FRA;Rhône-Alpes;Ain;Sathonay-Village 01395=69293;E4.8778;N45.8325;13;
3;FRA;Rhône-Alpes;Ain;Sault-Brénaz 01396;E5.4167;N45.8500;13;
3;FRA;Rhône-Alpes;Ain;Sauverny 01397;E6.1167;N46.3167;13;
3;FRA;Rhône-Alpes;Ain;Savigneux 01398;E4.8500;N46.0000;13;
3;FRA;Rhône-Alpes;Ain;Ségny 01399;E6.0833;N46.3000;13;
3;FRA;Rhône-Alpes;Ain;Seillonnaz 01400;E5.4833;N45.8000;13;
3;FRA;Rhône-Alpes;Ain;Sergy 01401;E6.0000;N46.2500;13;
3;FRA;Rhône-Alpes;Ain;Sermoyer 01402;E4.9833;N46.5000;13;
3;FRA;Rhône-Alpes;Ain;Serrières-de-Briord 01403;E5.4532;N45.8071;13;
3;FRA;Rhône-Alpes;Ain;Serrières-sur-Ain 01404;E5.4500;N46.1500;13;
3;FRA;Rhône-Alpes;Ain;Servas 01405;E5.1667;N46.1333;13;
3;FRA;Rhône-Alpes;Ain;Servignat 01406;E5.0667;N46.4333;13;
3;FRA;Rhône-Alpes;Ain;Seyssel 01407;E5.8319;N45.9597;13;
3;FRA;Rhône-Alpes;Ain;Simandre-sur-Suran 01408;E5.4167;N46.2167;13;
3;FRA;Rhône-Alpes;Ain;Songieu 01409;E5.7000;N45.9667;13;
3;FRA;Rhône-Alpes;Ain;Sonthonnax-la-Montagne 01410;E5.5333;N46.2333;13;
3;FRA;Rhône-Alpes;Ain;Souclin 01411;E5.4167;N45.8667;13;
3;FRA;Rhône-Alpes;Ain;Sulignat 01412;E4.9667;N46.1667;13;
3;FRA;Rhône-Alpes;Ain;Surjoux 01413;E5.8000;N46.0167;13;
3;FRA;Rhône-Alpes;Ain;Sutrieu 01414;E5.6500;N45.9500;13;
3;FRA;Rhône-Alpes;Ain;Talissieu 01415;E5.7167;N45.8667;13;
3;FRA;Rhône-Alpes;Ain;Tenay 01416;E5.5000;N45.9167;13;
3;FRA;Rhône-Alpes;Ain;Thézillieu 01417;E5.6000;N45.8833;13;
3;FRA;Rhône-Alpes;Ain;Thil 01418;E5.0167;N45.8167;13;
3;FRA;Rhône-Alpes;Ain;Thoiry 01419;E5.9806;N46.2369;13;
3;FRA;Rhône-Alpes;Ain;Thoissey 01420;E4.8000;N46.1667;13;
3;FRA;Rhône-Alpes;Ain;Torcieu 01421;E5.4000;N45.9167;13;
3;FRA;Rhône-Alpes;Ain;Tossiat 01422;E5.3167;N46.1333;13;
3;FRA;Rhône-Alpes;Ain;Toussieux 01423;E4.8333;N45.9667;13;
3;FRA;Rhône-Alpes;Ain;Tramoyes 01424;E4.9667;N45.8667;13;
3;FRA;Rhône-Alpes;Ain;Treffort-Cuisiat 01426;E5.3886;N46.3007;13;
3;FRA;Rhône-Alpes;Ain;Trévoux 01427;E4.7667;N45.9333;13;
3;FRA;Rhône-Alpes;Ain;Valeins 01428;E4.8667;N46.1167;13;
3;FRA;Rhône-Alpes;Ain;Vandeins 01429;E5.0833;N46.2167;13;
3;FRA;Rhône-Alpes;Ain;Varambon 01430;E5.3167;N46.0333;13;
3;FRA;Rhône-Alpes;Ain;Vaux-en-Bugey 01431;E5.3500;N45.9167;13;
3;FRA;Rhône-Alpes;Ain;Verjon 01432;E5.3500;N46.3500;13;
3;FRA;Rhône-Alpes;Ain;Vernoux 01433;E5.1167;N46.4833;13;
3;FRA;Rhône-Alpes;Ain;Versailleux 01434;E5.1000;N45.9833;13;
3;FRA;Rhône-Alpes;Ain;Versonnex 01435;E6.0981;N46.3037;13;
3;FRA;Rhône-Alpes;Ain;Vesancy 01436;E6.0833;N46.3500;13;
3;FRA;Rhône-Alpes;Ain;Vescours 01437;E5.0333;N46.4667;13;
3;FRA;Rhône-Alpes;Ain;Vésenex-Crassy 01438=01143;E6.1514;N46.3711;13;
3;FRA;Rhône-Alpes;Ain;Vésines 01439;E4.8667;N46.3500;13;
3;FRA;Rhône-Alpes;Ain;Veyziat 01440=01283;E5.6333;N46.2833;13;
3;FRA;Rhône-Alpes;Ain;Vieu 01442;E5.6833;N45.9000;13;
3;FRA;Rhône-Alpes;Ain;Vieu-d'Izenave 01441;E5.5333;N46.0833;13;
3;FRA;Rhône-Alpes;Ain;Villars-les-Dombes 01443;E5.0167;N46.0000;13;
3;FRA;Rhône-Alpes;Ain;Villebois 01444;E5.4333;N45.8500;13;
3;FRA;Rhône-Alpes;Ain;Villemotier 01445;E5.3167;N46.3500;13;
3;FRA;Rhône-Alpes;Ain;Villeneuve 01446;E4.8370;N46.0214;13;
3;FRA;Rhône-Alpes;Ain;Villereversure 01447;E5.3833;N46.1833;13;
3;FRA;Rhône-Alpes;Ain;Villes 01448;E5.7833;N46.0833;13;
3;FRA;Rhône-Alpes;Ain;Villette-sur-Ain 01449;E5.2697;N45.9881;13;
3;FRA;Rhône-Alpes;Ain;Villieu-Loyes-Mollon 01450;E5.2213;N45.9222;13;
3;FRA;Rhône-Alpes;Ain;Viriat 01451;E5.2167;N46.2500;13;
3;FRA;Rhône-Alpes;Ain;Virieu-le-Grand 01452;E5.6500;N45.8500;13;
3;FRA;Rhône-Alpes;Ain;Virieu-le-Petit 01453;E5.7261;N45.9098;13;
3;FRA;Rhône-Alpes;Ain;Virignin 01454;E5.7167;N45.7167;13;
3;FRA;Rhône-Alpes;Ain;Volognat 01455=01267;E5.5167;N46.1833;13;
3;FRA;Rhône-Alpes;Ain;Vongnes 01456;E5.7167;N45.8167;13;
3;FRA;Rhône-Alpes;Ain;Vonnas 01457;E5.0000;N46.2167;13;
3;FRA;Rhône-Alpes;Ain;Vouvray 01458=01091;E5.7833;N46.1167;13;
2;FRA;Rhône-Alpes;Ardèche;;E4.50;N44.90;9;
3;FRA;Rhône-Alpes;Ardèche;Accons 07001;E4.3833;N44.9000;13;
3;FRA;Rhône-Alpes;Ardèche;Ailhon 07002;E4.3418;N44.5978;13;
3;FRA;Rhône-Alpes;Ardèche;Aizac 07003;E4.3333;N44.7167;13;
3;FRA;Rhône-Alpes;Ardèche;Ajoux 07004;E4.5167;N44.7667;13;
3;FRA;Rhône-Alpes;Ardèche;Alba-la-Romaine 07005;E4.5976;N44.5552;13;
3;FRA;Rhône-Alpes;Ardèche;Albon-d'Ardèche 07006;E4.4291;N44.8214;13;
3;FRA;Rhône-Alpes;Ardèche;Alboussière 07007;E4.7333;N44.9500;13;
3;FRA;Rhône-Alpes;Ardèche;Alissas 07008;E4.6167;N44.7167;13;
3;FRA;Rhône-Alpes;Ardèche;Andance 07009;E4.7833;N45.2333;13;
3;FRA;Rhône-Alpes;Ardèche;Annonay 07010;E4.6667;N45.2333;13;
3;FRA;Rhône-Alpes;Ardèche;Antraigues-sur-Volane 07011;E4.3576;N44.7181;13;
3;FRA;Rhône-Alpes;Ardèche;Arcens 07012;E4.3333;N44.9167;13;
3;FRA;Rhône-Alpes;Ardèche;Ardoix 07013;E4.7333;N45.1833;13;
3;FRA;Rhône-Alpes;Ardèche;Arlebosc 07014;E4.6500;N45.0333;13;
3;FRA;Rhône-Alpes;Ardèche;Arras-sur-Rhône 07015;E4.8000;N45.1333;13;
3;FRA;Rhône-Alpes;Ardèche;Asperjoc 07016;E4.3500;N44.6833;13;
3;FRA;Rhône-Alpes;Ardèche;Astet 07018;E4.0500;N44.6833;13;
3;FRA;Rhône-Alpes;Ardèche;Aubenas 07019;E4.3833;N44.6167;13;
3;FRA;Rhône-Alpes;Ardèche;Aubignas 07020;E4.6167;N44.5833;13;
3;FRA;Rhône-Alpes;Ardèche;Auriolles 07021=07207;E4.3167;N44.4333;13;
3;FRA;Rhône-Alpes;Ardèche;Baix 07022;E4.7667;N44.7167;13;
3;FRA;Rhône-Alpes;Ardèche;Balazuc 07023;E4.3667;N44.5000;13;
3;FRA;Rhône-Alpes;Ardèche;Banne 07024;E4.1500;N44.3667;13;
3;FRA;Rhône-Alpes;Ardèche;Barnas 07025;E4.1667;N44.6667;13;
3;FRA;Rhône-Alpes;Ardèche;Beauchastel 07027;E4.8000;N44.8333;13;
3;FRA;Rhône-Alpes;Ardèche;Beaulieu 07028;E4.2339;N44.3603;13;
3;FRA;Rhône-Alpes;Ardèche;Beaumont 07029;E4.1675;N44.5379;13;
3;FRA;Rhône-Alpes;Ardèche;Beauvène 07030;E4.5333;N44.9000;13;
3;FRA;Rhône-Alpes;Ardèche;Berrias-et-Casteljau 07031;E4.2011;N44.3748;13;
3;FRA;Rhône-Alpes;Ardèche;Berzème 07032;E4.5833;N44.6333;13;
3;FRA;Rhône-Alpes;Ardèche;Bessas 07033;E4.3167;N44.3500;13;
3;FRA;Rhône-Alpes;Ardèche;Bidon 07034;E4.5333;N44.3667;13;
3;FRA;Rhône-Alpes;Ardèche;Boffres 07035;E4.7000;N44.9167;13;
3;FRA;Rhône-Alpes;Ardèche;Bogy 07036;E4.7667;N45.2833;13;
3;FRA;Rhône-Alpes;Ardèche;Borée 07037;E4.2500;N44.9000;13;
3;FRA;Rhône-Alpes;Ardèche;Borne 07038;E4.0167;N44.6167;13;
3;FRA;Rhône-Alpes;Ardèche;Boucieu-le-Roi 07040;E4.6816;N45.0371;13;
3;FRA;Rhône-Alpes;Ardèche;Boulieu-lès-Annonay 07041;E4.6667;N45.2667;13;
3;FRA;Rhône-Alpes;Ardèche;Bourg-Saint-Andéol 07042;E4.6500;N44.3667;13;
3;FRA;Rhône-Alpes;Ardèche;Bozas 07039;E4.6501;N45.0556;13;
3;FRA;Rhône-Alpes;Ardèche;Brahic 07043=07334;E4.0833;N44.3833;13;
3;FRA;Rhône-Alpes;Ardèche;Brossainc 07044;E4.6833;N45.3333;13;
3;FRA;Rhône-Alpes;Ardèche;Burzet 07045;E4.2500;N44.7333;13;
3;FRA;Rhône-Alpes;Ardèche;Casteljau 07046=07031;E4.1833;N44.4000;13;
3;FRA;Rhône-Alpes;Ardèche;Cellier-du-Luc 07047;E3.9167;N44.6833;13;
3;FRA;Rhône-Alpes;Ardèche;Chalencon 07048;E4.6000;N44.9000;13;
3;FRA;Rhône-Alpes;Ardèche;Chambonas 07050;E4.1000;N44.4167;13;
3;FRA;Rhône-Alpes;Ardèche;Champagne 07051;E4.7999;N45.2736;13;
3;FRA;Rhône-Alpes;Ardèche;Champis 07052;E4.7455;N44.9568;13;
3;FRA;Rhône-Alpes;Ardèche;Chandolas 07053;E4.2667;N44.4000;13;
3;FRA;Rhône-Alpes;Ardèche;Chanéac 07054;E4.3167;N44.9500;13;
3;FRA;Rhône-Alpes;Ardèche;Charmes-sur-Rhône 07055;E4.8333;N44.8667;13;
3;FRA;Rhône-Alpes;Ardèche;Charnas 07056;E4.7500;N45.3333;13;
3;FRA;Rhône-Alpes;Ardèche;Chassagnes 07057=07334;E4.1667;N44.4000;13;
3;FRA;Rhône-Alpes;Ardèche;Chassiers 07058;E4.3000;N44.5500;13;
3;FRA;Rhône-Alpes;Ardèche;Châteaubourg 07059;E4.8500;N45.0000;13;
3;FRA;Rhône-Alpes;Ardèche;Châteauneuf-de-Vernoux 07060;E4.6500;N44.9167;13;
3;FRA;Rhône-Alpes;Ardèche;Chauzon 07061;E4.3667;N44.4833;13;
3;FRA;Rhône-Alpes;Ardèche;Chazeaux 07062;E4.3167;N44.6000;13;
3;FRA;Rhône-Alpes;Ardèche;Cheminas 07063;E4.7500;N45.1167;13;
3;FRA;Rhône-Alpes;Ardèche;Chirols 07065;E4.3000;N44.6833;13;
3;FRA;Rhône-Alpes;Ardèche;Chomérac 07066;E4.6500;N44.7000;13;
3;FRA;Rhône-Alpes;Ardèche;Colombier-le-Cardinal 07067;E4.7500;N45.2667;13;
3;FRA;Rhône-Alpes;Ardèche;Colombier-le-Jeune 07068;E4.7000;N45.0000;13;
3;FRA;Rhône-Alpes;Ardèche;Colombier-le-Vieux 07069;E4.6833;N45.0667;13;
3;FRA;Rhône-Alpes;Ardèche;Cornas 07070;E4.8500;N44.9667;13;
3;FRA;Rhône-Alpes;Ardèche;Coucouron 07071;E3.9667;N44.8000;13;
3;FRA;Rhône-Alpes;Ardèche;Coux 07072;E4.6167;N44.7667;13;
3;FRA;Rhône-Alpes;Ardèche;Creysseilles 07074;E4.5667;N44.7500;13;
3;FRA;Rhône-Alpes;Ardèche;Cros-de-Géorand 07075;E4.1333;N44.8000;13;
3;FRA;Rhône-Alpes;Ardèche;Cruas 07076;E4.7667;N44.6500;13;
3;FRA;Rhône-Alpes;Ardèche;Darbres 07077;E4.5167;N44.6333;13;
3;FRA;Rhône-Alpes;Ardèche;Davézieux 07078;E4.7167;N45.2500;13;
3;FRA;Rhône-Alpes;Ardèche;Désaignes 07079;E4.5167;N45.0000;13;
3;FRA;Rhône-Alpes;Ardèche;Devesset 07080;E4.3833;N45.0667;13;
3;FRA;Rhône-Alpes;Ardèche;Dompnac 07081;E4.1000;N44.5500;13;
3;FRA;Rhône-Alpes;Ardèche;Dornas 07082;E4.3500;N44.8500;13;
3;FRA;Rhône-Alpes;Ardèche;Dunière-sur-Eyrieux 07083;E4.6500;N44.8167;13;
3;FRA;Rhône-Alpes;Ardèche;Eclassan 07084;E4.7667;N45.1667;13;
3;FRA;Rhône-Alpes;Ardèche;Empurany 07085;E4.6000;N45.0167;13;
3;FRA;Rhône-Alpes;Ardèche;Étables 07086;E4.7167;N45.1000;13;
3;FRA;Rhône-Alpes;Ardèche;Fabras 07087;E4.3000;N44.6500;13;
3;FRA;Rhône-Alpes;Ardèche;Faugères 07088;E4.1333;N44.4750;13;
3;FRA;Rhône-Alpes;Ardèche;Félines 07089;E4.7288;N45.3168;13;
3;FRA;Rhône-Alpes;Ardèche;Flaviac 07090;E4.6833;N44.7500;13;
3;FRA;Rhône-Alpes;Ardèche;Fons 07091;E4.3333;N44.5667;13;
3;FRA;Rhône-Alpes;Ardèche;Freyssenet 07092;E4.5500;N44.6833;13;
3;FRA;Rhône-Alpes;Ardèche;Genestelle 07093;E4.4000;N44.7167;13;
3;FRA;Rhône-Alpes;Ardèche;Gilhac-et-Bruzac 07094;E4.7278;N44.8862;13;
3;FRA;Rhône-Alpes;Ardèche;Gilhoc-sur-Ormèze 07095;E4.6879;N44.9862;13;
3;FRA;Rhône-Alpes;Ardèche;Gluiras 07096;E4.5500;N44.8500;13;
3;FRA;Rhône-Alpes;Ardèche;Glun 07097;E4.8333;N45.0167;13;
3;FRA;Rhône-Alpes;Ardèche;Gourdon 07098;E4.4481;N44.7312;13;
3;FRA;Rhône-Alpes;Ardèche;Gras 07099;E4.5333;N44.4500;13;
3;FRA;Rhône-Alpes;Ardèche;Gravières 07100;E4.0833;N44.4333;13;
3;FRA;Rhône-Alpes;Ardèche;Grospierres 07101;E4.3000;N44.4000;13;
3;FRA;Rhône-Alpes;Ardèche;Guilherand-Granges 07102;E4.8737;N44.9323;13;
3;FRA;Rhône-Alpes;Ardèche;Intres 07103;E4.3500;N44.9833;13;
3;FRA;Rhône-Alpes;Ardèche;Issamoulenc 07104;E4.4667;N44.7833;13;
3;FRA;Rhône-Alpes;Ardèche;Issanlas 07105;E4.0000;N44.7500;13;
3;FRA;Rhône-Alpes;Ardèche;Issarlès 07106;E4.0333;N44.8333;13;
3;FRA;Rhône-Alpes;Ardèche;Jaujac 07107;E4.2500;N44.6333;13;
3;FRA;Rhône-Alpes;Ardèche;Jaunac 07108;E4.3998;N44.9197;13;
3;FRA;Rhône-Alpes;Ardèche;Joannas 07109;E4.2500;N44.5667;13;
3;FRA;Rhône-Alpes;Ardèche;Joyeuse 07110;E4.2333;N44.4833;13;
3;FRA;Rhône-Alpes;Ardèche;Juvinas 07111;E4.3000;N44.7167;13;
3;FRA;Rhône-Alpes;Ardèche;La Rochette 07195;E4.2409;N44.9170;13;
3;FRA;Rhône-Alpes;Ardèche;La Souche 07315;E4.1982;N44.6293;13;
3;FRA;Rhône-Alpes;Ardèche;La Voulte-sur-Rhône 07349;E4.7833;N44.8000;13;
3;FRA;Rhône-Alpes;Ardèche;Labastide-de-Virac 07113;E4.4167;N44.3500;13;
3;FRA;Rhône-Alpes;Ardèche;Labastide-sur-Bésorgues 07112;E4.3024;N44.7250;13;
3;FRA;Rhône-Alpes;Ardèche;Labatie-d'Andaure 07114;E4.4833;N45.0167;13;
3;FRA;Rhône-Alpes;Ardèche;Labeaume 07115;E4.3069;N44.4486;13;
3;FRA;Rhône-Alpes;Ardèche;Labégude 07116;E4.3667;N44.6500;13;
3;FRA;Rhône-Alpes;Ardèche;Lablachère 07117;E4.2167;N44.4667;13;
3;FRA;Rhône-Alpes;Ardèche;Laboule 07118;E4.1667;N44.5833;13;
3;FRA;Rhône-Alpes;Ardèche;Lachamp-Raphaël 07120;E4.3000;N44.8167;13;
3;FRA;Rhône-Alpes;Ardèche;Lachapelle-Graillouse 07121;E4.0000;N44.8167;13;
3;FRA;Rhône-Alpes;Ardèche;Lachapelle-sous-Aubenas 07122;E4.3667;N44.5500;13;
3;FRA;Rhône-Alpes;Ardèche;Lachapelle-sous-Chanéac 07123;E4.3333;N44.9500;13;
3;FRA;Rhône-Alpes;Ardèche;Lafarre 07124;E4.3500;N45.0833;13;
3;FRA;Rhône-Alpes;Ardèche;Lafigère 07125=07147;E4.0333;N44.4500;13;
3;FRA;Rhône-Alpes;Ardèche;Lagorce 07126;E4.4167;N44.4500;13;
3;FRA;Rhône-Alpes;Ardèche;Lalevade-d'Ardèche 07127;E4.3167;N44.6500;13;
3;FRA;Rhône-Alpes;Ardèche;Lalouvesc 07128;E4.5333;N45.1167;13;
3;FRA;Rhône-Alpes;Ardèche;Lamastre 07129;E4.5833;N44.9833;13;
3;FRA;Rhône-Alpes;Ardèche;Lanarce 07130;E4.0000;N44.7333;13;
3;FRA;Rhône-Alpes;Ardèche;Lanas 07131;E4.4000;N44.5167;13;
3;FRA;Rhône-Alpes;Ardèche;Largentière 07132;E4.3000;N44.5333;13;
3;FRA;Rhône-Alpes;Ardèche;Larnas 07133;E4.6000;N44.4500;13;
3;FRA;Rhône-Alpes;Ardèche;Laurac-en-Vivarais 07134;E4.3000;N44.5000;13;
3;FRA;Rhône-Alpes;Ardèche;Laval-d'Aurelle 07135;E3.9667;N44.5500;13;
3;FRA;Rhône-Alpes;Ardèche;Laveyrune 07136;E3.9000;N44.6333;13;
3;FRA;Rhône-Alpes;Ardèche;Lavillatte 07137;E3.9333;N44.7500;13;
3;FRA;Rhône-Alpes;Ardèche;Lavilledieu 07138;E4.4667;N44.5667;13;
3;FRA;Rhône-Alpes;Ardèche;Laviolle 07139;E4.3333;N44.7667;13;
3;FRA;Rhône-Alpes;Ardèche;Le Béage 07026;E4.1167;N44.8500;13;
3;FRA;Rhône-Alpes;Ardèche;Le Chambon 07049;E4.3037;N44.8360;13;
3;FRA;Rhône-Alpes;Ardèche;Le Cheylard 07064;E4.4167;N44.9000;13;
3;FRA;Rhône-Alpes;Ardèche;Le Crestet 07073;E4.6500;N45.0167;13;
3;FRA;Rhône-Alpes;Ardèche;Le Lac-d'Issarlès 07119;E4.0612;N44.8211;13;
3;FRA;Rhône-Alpes;Ardèche;Le Plagnal 07175;E3.9333;N44.7000;13;
3;FRA;Rhône-Alpes;Ardèche;Le Pouzat 07180=07204;E4.4667;N44.9667;13;
3;FRA;Rhône-Alpes;Ardèche;Le Pouzin 07181;E4.7500;N44.7500;13;
3;FRA;Rhône-Alpes;Ardèche;Le Roux 07200;E4.1500;N44.7333;13;
3;FRA;Rhône-Alpes;Ardèche;Le Teil 07319;E4.6833;N44.5500;13;
3;FRA;Rhône-Alpes;Ardèche;Lemps 07140;E4.7667;N45.1083;13;
3;FRA;Rhône-Alpes;Ardèche;Lentillères 07141;E4.3000;N44.6167;13;
3;FRA;Rhône-Alpes;Ardèche;Les Assions 07017;E4.1667;N44.4167;13;
3;FRA;Rhône-Alpes;Ardèche;Les Ollières-sur-Eyrieux 07167;E4.6167;N44.8000;13;
3;FRA;Rhône-Alpes;Ardèche;Les Salelles 07305;E4.0833;N44.4167;13;
3;FRA;Rhône-Alpes;Ardèche;Les Vans 07334;E4.1333;N44.4000;13;
3;FRA;Rhône-Alpes;Ardèche;Lespéron 07142;E3.8833;N44.7167;13;
3;FRA;Rhône-Alpes;Ardèche;Limony 07143;E4.7667;N45.3500;13;
3;FRA;Rhône-Alpes;Ardèche;Loubaresse 07144;E4.0500;N44.6000;13;
3;FRA;Rhône-Alpes;Ardèche;Lussas 07145;E4.4833;N44.6000;13;
3;FRA;Rhône-Alpes;Ardèche;Lyas 07146;E4.5833;N44.7500;13;
3;FRA;Rhône-Alpes;Ardèche;Malarce-sur-la-Thines 07147;E4.0833;N44.4333;13;
3;FRA;Rhône-Alpes;Ardèche;Malbosc 07148;E4.0500;N44.3500;13;
3;FRA;Rhône-Alpes;Ardèche;Marcols-les-Eaux 07149;E4.4000;N44.8167;13;
3;FRA;Rhône-Alpes;Ardèche;Mariac 07150;E4.3667;N44.9000;13;
3;FRA;Rhône-Alpes;Ardèche;Mars 07151;E4.3167;N45.0167;13;
3;FRA;Rhône-Alpes;Ardèche;Mauves 07152;E4.8333;N45.0333;13;
3;FRA;Rhône-Alpes;Ardèche;Mayres 07153;E4.1149;N44.6656;13;
3;FRA;Rhône-Alpes;Ardèche;Mazan-l'Abbaye 07154;E4.0833;N44.7333;13;
3;FRA;Rhône-Alpes;Ardèche;Mercuer 07155;E4.3580;N44.6311;13;
3;FRA;Rhône-Alpes;Ardèche;Meyras 07156;E4.2667;N44.6833;13;
3;FRA;Rhône-Alpes;Ardèche;Meysse 07157;E4.7167;N44.6167;13;
3;FRA;Rhône-Alpes;Ardèche;Mézilhac 07158;E4.3500;N44.8000;13;
3;FRA;Rhône-Alpes;Ardèche;Mirabel 07159;E4.4980;N44.6087;13;
3;FRA;Rhône-Alpes;Ardèche;Monestier 07160;E4.5333;N45.2000;13;
3;FRA;Rhône-Alpes;Ardèche;Montpezat-sous-Bauzon 07161;E4.2000;N44.7167;13;
3;FRA;Rhône-Alpes;Ardèche;Montréal 07162;E4.3000;N44.5167;13;
3;FRA;Rhône-Alpes;Ardèche;Montselgues 07163;E4.0000;N44.5167;13;
3;FRA;Rhône-Alpes;Ardèche;Naves 07164=07334;E4.1130;N44.4013;13;
3;FRA;Rhône-Alpes;Ardèche;Nonières 07165;E4.5000;N44.9333;13;
3;FRA;Rhône-Alpes;Ardèche;Nozières 07166;E4.5667;N45.0333;13;
3;FRA;Rhône-Alpes;Ardèche;Orgnac-l'Aven 07168;E4.4500;N44.3167;13;
3;FRA;Rhône-Alpes;Ardèche;Ozon 07169;E4.8167;N45.1667;13;
3;FRA;Rhône-Alpes;Ardèche;Pailharès 07170;E4.5667;N45.0833;13;
3;FRA;Rhône-Alpes;Ardèche;Payzac 07171;E4.1500;N44.4500;13;
3;FRA;Rhône-Alpes;Ardèche;Peaugres 07172;E4.7333;N45.2833;13;
3;FRA;Rhône-Alpes;Ardèche;Péreyres 07173;E4.2667;N44.7833;13;
3;FRA;Rhône-Alpes;Ardèche;Peyraud 07174;E4.7883;N45.3018;13;
3;FRA;Rhône-Alpes;Ardèche;Planzolles 07176;E4.1500;N44.4833;13;
3;FRA;Rhône-Alpes;Ardèche;Plats 07177;E4.7833;N45.0167;13;
3;FRA;Rhône-Alpes;Ardèche;Pont-de-Labeaume 07178;E4.2833;N44.6667;13;
3;FRA;Rhône-Alpes;Ardèche;Pourchères 07179;E4.5167;N44.7500;13;
3;FRA;Rhône-Alpes;Ardèche;Prades 07182;E4.3167;N44.6333;13;
3;FRA;Rhône-Alpes;Ardèche;Pradons 07183;E4.3667;N44.4667;13;
3;FRA;Rhône-Alpes;Ardèche;Pranles 07184;E4.6000;N44.7667;13;
3;FRA;Rhône-Alpes;Ardèche;Préaux 07185;E4.6642;N45.1428;13;
3;FRA;Rhône-Alpes;Ardèche;Privas 07186;E4.6000;N44.7333;13;
3;FRA;Rhône-Alpes;Ardèche;Prunet 07187;E4.2667;N44.6000;13;
3;FRA;Rhône-Alpes;Ardèche;Quintenas 07188;E4.6833;N45.1833;13;
3;FRA;Rhône-Alpes;Ardèche;Ribes 07189;E4.2167;N44.4833;13;
3;FRA;Rhône-Alpes;Ardèche;Rochecolombe 07190;E4.4500;N44.5000;13;
3;FRA;Rhône-Alpes;Ardèche;Rochemaure 07191;E4.7000;N44.5833;13;
3;FRA;Rhône-Alpes;Ardèche;Rochepaule 07192;E4.4667;N45.0833;13;
3;FRA;Rhône-Alpes;Ardèche;Rocher 07193;E4.3000;N44.5667;13;
3;FRA;Rhône-Alpes;Ardèche;Rochessauve 07194;E4.6167;N44.6833;13;
3;FRA;Rhône-Alpes;Ardèche;Rocles 07196;E4.2167;N44.5500;13;
3;FRA;Rhône-Alpes;Ardèche;Roiffieux 07197;E4.6500;N45.2333;13;
3;FRA;Rhône-Alpes;Ardèche;Rompon 07198;E4.7333;N44.7833;13;
3;FRA;Rhône-Alpes;Ardèche;Rosières 07199;E4.2833;N44.4833;13;
3;FRA;Rhône-Alpes;Ardèche;Ruoms 07201;E4.3500;N44.4500;13;
3;FRA;Rhône-Alpes;Ardèche;Sablières 07202;E4.0667;N44.5167;13;
3;FRA;Rhône-Alpes;Ardèche;Sagnes-et-Goudoulet 07203;E4.2251;N44.7899;13;
3;FRA;Rhône-Alpes;Ardèche;Saint-Agrève 07204;E4.4000;N45.0167;13;
3;FRA;Rhône-Alpes;Ardèche;Saint-Alban-Auriolles 07207;E4.2989;N44.4252;13;
3;FRA;Rhône-Alpes;Ardèche;Saint-Alban-d'Ay 07205;E4.6333;N45.1833;13;
3;FRA;Rhône-Alpes;Ardèche;Saint-Alban-en-Montagne 07206;E3.9167;N44.7000;13;
3;FRA;Rhône-Alpes;Ardèche;Saint-Andéol-de-Berg 07208;E4.5333;N44.5167;13;
3;FRA;Rhône-Alpes;Ardèche;Saint-Andéol-de-Fourchades 07209;E4.3000;N44.8333;13;
3;FRA;Rhône-Alpes;Ardèche;Saint-Andéol-de-Vals 07210;E4.3833;N44.6833;13;
3;FRA;Rhône-Alpes;Ardèche;Saint-André-de-Cruzières 07211;E4.2167;N44.3167;13;
3;FRA;Rhône-Alpes;Ardèche;Saint-André-en-Vivarais 07212;E4.4167;N45.1167;13;
3;FRA;Rhône-Alpes;Ardèche;Saint-André-Lachamp 07213;E4.1667;N44.5000;13;
3;FRA;Rhône-Alpes;Ardèche;Saint-Apollinaire-de-Rias 07214;E4.5994;N44.9252;13;
3;FRA;Rhône-Alpes;Ardèche;Saint-Barthélemy-Grozon 07216;E4.6220;N44.9629;13;
3;FRA;Rhône-Alpes;Ardèche;Saint-Barthélemy-le-Meil 07215;E4.5000;N44.9000;13;
3;FRA;Rhône-Alpes;Ardèche;Saint-Barthélemy-le-Plain 07217;E4.7500;N45.0500;13;
3;FRA;Rhône-Alpes;Ardèche;Saint-Basile 07218;E4.5833;N44.9667;13;
3;FRA;Rhône-Alpes;Ardèche;Saint-Bauzile 07219;E4.6667;N44.6667;13;
3;FRA;Rhône-Alpes;Ardèche;Saint-Christol 07220;E4.4333;N44.8833;13;
3;FRA;Rhône-Alpes;Ardèche;Saint-Cierge-la-Serre 07221;E4.6833;N44.7833;13;
3;FRA;Rhône-Alpes;Ardèche;Saint-Cierge-sous-le-Cheylard 07222;E4.4667;N44.9333;13;
3;FRA;Rhône-Alpes;Ardèche;Saint-Cirgues-de-Prades 07223;E4.2708;N44.6236;13;
3;FRA;Rhône-Alpes;Ardèche;Saint-Cirgues-en-Montagne 07224;E4.1000;N44.7500;13;
3;FRA;Rhône-Alpes;Ardèche;Saint-Clair 07225;E4.6833;N45.2833;13;
3;FRA;Rhône-Alpes;Ardèche;Saint-Clément 07226;E4.2667;N44.9500;13;
3;FRA;Rhône-Alpes;Ardèche;Saint-Cyr 07227;E4.7333;N45.2500;13;
3;FRA;Rhône-Alpes;Ardèche;Saint-Désirat 07228;E4.7833;N45.2500;13;
3;FRA;Rhône-Alpes;Ardèche;Saint-Didier-sous-Aubenas 07229;E4.4167;N44.6000;13;
3;FRA;Rhône-Alpes;Ardèche;Saint-Étienne-de-Boulogne 07230;E4.4667;N44.7000;13;
3;FRA;Rhône-Alpes;Ardèche;Saint-Étienne-de-Fontbellon 07231;E4.3833;N44.6000;13;
3;FRA;Rhône-Alpes;Ardèche;Saint-Étienne-de-Lugdarès 07232;E3.9500;N44.6500;13;
3;FRA;Rhône-Alpes;Ardèche;Saint-Étienne-de-Serre 07233;E4.5404;N44.8017;13;
3;FRA;Rhône-Alpes;Ardèche;Saint-Étienne-de-Valoux 07234;E4.7833;N45.2500;13;
3;FRA;Rhône-Alpes;Ardèche;Saint-Félicien 07236;E4.6333;N45.0833;13;
3;FRA;Rhône-Alpes;Ardèche;Saint-Fortunat-sur-Eyrieux 07237;E4.6667;N44.8333;13;
3;FRA;Rhône-Alpes;Ardèche;Saint-Genest-de-Beauzon 07238;E4.1869;N44.4424;13;
3;FRA;Rhône-Alpes;Ardèche;Saint-Genest-Lachamp 07239;E4.4167;N44.8500;13;
3;FRA;Rhône-Alpes;Ardèche;Saint-Georges-les-Bains 07240;E4.8167;N44.8667;13;
3;FRA;Rhône-Alpes;Ardèche;Saint-Germain 07241;E4.4500;N44.5500;13;
3;FRA;Rhône-Alpes;Ardèche;Saint-Gineis-en-Coiron 07242;E4.5339;N44.6333;13;
3;FRA;Rhône-Alpes;Ardèche;Saint-Jacques-d'Atticieux 07243;E4.6667;N45.3333;13;
3;FRA;Rhône-Alpes;Ardèche;Saint-Jean-Chambre 07244;E4.5833;N44.9167;13;
3;FRA;Rhône-Alpes;Ardèche;Saint-Jean-de-Muzols 07245;E4.8167;N45.0833;13;
3;FRA;Rhône-Alpes;Ardèche;Saint-Jean-de-Pourcharesse 07246=07284;E4.1000;N44.4833;13;
3;FRA;Rhône-Alpes;Ardèche;Saint-Jean-le-Centenier 07247;E4.5333;N44.5833;13;
3;FRA;Rhône-Alpes;Ardèche;Saint-Jean-Roure 07248;E4.4333;N44.9500;13;
3;FRA;Rhône-Alpes;Ardèche;Saint-Jeure-d'Andaure 07249;E4.4667;N45.0500;13;
3;FRA;Rhône-Alpes;Ardèche;Saint-Jeure-d'Ay 07250;E4.7000;N45.1500;13;
3;FRA;Rhône-Alpes;Ardèche;Saint-Joseph-des-Bancs 07251;E4.4000;N44.7333;13;
3;FRA;Rhône-Alpes;Ardèche;Saint-Julien-Boutières 07252;E4.3500;N44.9833;13;
3;FRA;Rhône-Alpes;Ardèche;Saint-Julien-du-Gua 07253;E4.4500;N44.7667;13;
3;FRA;Rhône-Alpes;Ardèche;Saint-Julien-du-Serre 07254;E4.4167;N44.6500;13;
3;FRA;Rhône-Alpes;Ardèche;Saint-Julien-en-Saint-Alban 07255;E4.6833;N44.7333;13;
3;FRA;Rhône-Alpes;Ardèche;Saint-Julien-Labrousse 07256;E4.5333;N44.9333;13;
3;FRA;Rhône-Alpes;Ardèche;Saint-Julien-le-Roux 07257;E4.6667;N44.8833;13;
3;FRA;Rhône-Alpes;Ardèche;Saint-Julien-Vocance 07258;E4.5000;N45.1667;13;
3;FRA;Rhône-Alpes;Ardèche;Saint-Just 07259;E4.6131;N44.3034;13;
3;FRA;Rhône-Alpes;Ardèche;Saint-Lager-Bressac 07260;E4.7000;N44.6833;13;
3;FRA;Rhône-Alpes;Ardèche;Saint-Laurent-du-Pape 07261;E4.7667;N44.8167;13;
3;FRA;Rhône-Alpes;Ardèche;Saint-Laurent-les-Bains 07262;E3.9667;N44.6167;13;
3;FRA;Rhône-Alpes;Ardèche;Saint-Laurent-sous-Coiron 07263;E4.4833;N44.6333;13;
3;FRA;Rhône-Alpes;Ardèche;Saint-Marcel-d'Ardèche 07264;E4.6167;N44.3167;13;
3;FRA;Rhône-Alpes;Ardèche;Saint-Marcel-lès-Annonay 07265;E4.6167;N45.2833;13;
3;FRA;Rhône-Alpes;Ardèche;Saint-Martial 07267;E4.2667;N44.8667;13;
3;FRA;Rhône-Alpes;Ardèche;Saint-Martin-d'Ardèche 07268;E4.5833;N44.3000;13;
3;FRA;Rhône-Alpes;Ardèche;Saint-Martin-de-Valamas 07269;E4.3667;N44.9333;13;
3;FRA;Rhône-Alpes;Ardèche;Saint-Martin-l'Inférieur 07271=07270;E4.6742;N44.6265;13;
3;FRA;Rhône-Alpes;Ardèche;Saint-Martin-sur-Lavezon 07270;E4.6552;N44.6202;13;
3;FRA;Rhône-Alpes;Ardèche;Saint-Maurice-d'Ardèche 07272;E4.4000;N44.5167;13;
3;FRA;Rhône-Alpes;Ardèche;Saint-Maurice-d'Ibie 07273;E4.5000;N44.5000;13;
3;FRA;Rhône-Alpes;Ardèche;Saint-Maurice-en-Chalencon 07274;E4.5909;N44.8486;13;
3;FRA;Rhône-Alpes;Ardèche;Saint-Mélany 07275;E4.1167;N44.5167;13;
3;FRA;Rhône-Alpes;Ardèche;Saint-Michel-d'Aurance 07276;E4.4667;N44.9000;13;
3;FRA;Rhône-Alpes;Ardèche;Saint-Michel-de-Boulogne 07277;E4.4333;N44.6833;13;
3;FRA;Rhône-Alpes;Ardèche;Saint-Michel-de-Chabrillanoux 07278;E4.6019;N44.8405;13;
3;FRA;Rhône-Alpes;Ardèche;Saint-Montan 07279;E4.6167;N44.4333;13;
3;FRA;Rhône-Alpes;Ardèche;Saint-Paul-le-Jeune 07280;E4.1500;N44.3333;13;
3;FRA;Rhône-Alpes;Ardèche;Saint-Péray 07281;E4.8333;N44.9500;13;
3;FRA;Rhône-Alpes;Ardèche;Saint-Pierre-de-Colombier 07282;E4.2667;N44.7000;13;
3;FRA;Rhône-Alpes;Ardèche;Saint-Pierre-la-Roche 07283;E4.6167;N44.6500;13;
3;FRA;Rhône-Alpes;Ardèche;Saint-Pierre-Saint-Jean 07284;E4.1026;N44.4884;13;
3;FRA;Rhône-Alpes;Ardèche;Saint-Pierre-sur-Doux 07285;E4.4667;N45.1000;13;
3;FRA;Rhône-Alpes;Ardèche;Saint-Pierreville 07286;E4.4833;N44.8167;13;
3;FRA;Rhône-Alpes;Ardèche;Saint-Pons 07287;E4.5833;N44.5833;13;
3;FRA;Rhône-Alpes;Ardèche;Saint-Priest 07288;E4.5452;N44.7163;13;
3;FRA;Rhône-Alpes;Ardèche;Saint-Privat 07289;E4.4167;N44.6333;13;
3;FRA;Rhône-Alpes;Ardèche;Saint-Prix 07290;E4.5167;N44.9500;13;
3;FRA;Rhône-Alpes;Ardèche;Saint-Remèze 07291;E4.5000;N44.3833;13;
3;FRA;Rhône-Alpes;Ardèche;Saint-Romain-d'Ay 07292;E4.6667;N45.1667;13;
3;FRA;Rhône-Alpes;Ardèche;Saint-Romain-de-Lerps 07293;E4.8000;N44.9833;13;
3;FRA;Rhône-Alpes;Ardèche;Saint-Sauveur-de-Cruzières 07294;E4.2667;N44.3000;13;
3;FRA;Rhône-Alpes;Ardèche;Saint-Sauveur-de-Montagut 07295;E4.5833;N44.8167;13;
3;FRA;Rhône-Alpes;Ardèche;Saint-Sernin 07296;E4.4000;N44.5667;13;
3;FRA;Rhône-Alpes;Ardèche;Saint-Sylvestre 07297;E4.7487;N44.9897;13;
3;FRA;Rhône-Alpes;Ardèche;Saint-Symphorien-de-Mahun 07299;E4.5500;N45.1667;13;
3;FRA;Rhône-Alpes;Ardèche;Saint-Symphorien-sous-Chomérac 07298;E4.7000;N44.7167;13;
3;FRA;Rhône-Alpes;Ardèche;Saint-Thomé 07300;E4.6333;N44.5000;13;
3;FRA;Rhône-Alpes;Ardèche;Saint-Victor 07301;E4.6667;N45.1000;13;
3;FRA;Rhône-Alpes;Ardèche;Saint-Vincent-de-Barrès 07302;E4.7000;N44.6500;13;
3;FRA;Rhône-Alpes;Ardèche;Saint-Vincent-de-Durfort 07303;E4.6333;N44.8000;13;
3;FRA;Rhône-Alpes;Ardèche;Sainte-Eulalie 07235;E4.1833;N44.8167;13;
3;FRA;Rhône-Alpes;Ardèche;Sainte-Marguerite-Lafigère 07266;E3.9833;N44.4667;13;
3;FRA;Rhône-Alpes;Ardèche;Salavas 07304;E4.3833;N44.4000;13;
3;FRA;Rhône-Alpes;Ardèche;Sampzon 07306;E4.3167;N44.4167;13;
3;FRA;Rhône-Alpes;Ardèche;Sanilhac 07307;E4.2500;N44.5167;13;
3;FRA;Rhône-Alpes;Ardèche;Sarras 07308;E4.8000;N45.1833;13;
3;FRA;Rhône-Alpes;Ardèche;Satillieu 07309;E4.6167;N45.1500;13;
3;FRA;Rhône-Alpes;Ardèche;Savas 07310;E4.7000;N45.3000;13;
3;FRA;Rhône-Alpes;Ardèche;Sceautres 07311;E4.6333;N44.6167;13;
3;FRA;Rhône-Alpes;Ardèche;Sécheras 07312;E4.7667;N45.1167;13;
3;FRA;Rhône-Alpes;Ardèche;Serrières 07313;E4.7500;N45.3167;13;
3;FRA;Rhône-Alpes;Ardèche;Silhac 07314;E4.6333;N44.9000;13;
3;FRA;Rhône-Alpes;Ardèche;Soyons 07316;E4.8500;N44.8833;13;
3;FRA;Rhône-Alpes;Ardèche;Talencieux 07317;E4.7833;N45.2167;13;
3;FRA;Rhône-Alpes;Ardèche;Tauriers 07318;E4.2833;N44.5500;13;
3;FRA;Rhône-Alpes;Ardèche;Thines 07320=07147;E4.0500;N44.4833;13;
3;FRA;Rhône-Alpes;Ardèche;Thorrenc 07321;E4.7667;N45.2333;13;
3;FRA;Rhône-Alpes;Ardèche;Thueyts 07322;E4.2167;N44.6833;13;
3;FRA;Rhône-Alpes;Ardèche;Toulaud 07323;E4.8167;N44.9000;13;
3;FRA;Rhône-Alpes;Ardèche;Tournon-sur-Rhône 07324;E4.8311;N45.0688;13;
3;FRA;Rhône-Alpes;Ardèche;Ucel 07325;E4.3832;N44.6416;13;
3;FRA;Rhône-Alpes;Ardèche;Usclades-et-Rieutord 07326;E4.1574;N44.7760;13;
3;FRA;Rhône-Alpes;Ardèche;Uzer 07327;E4.3333;N44.5167;13;
3;FRA;Rhône-Alpes;Ardèche;Vagnas 07328;E4.3833;N44.3500;13;
3;FRA;Rhône-Alpes;Ardèche;Valgorge 07329;E4.1167;N44.5833;13;
3;FRA;Rhône-Alpes;Ardèche;Vallon-Pont-d'Arc 07330;E4.4000;N44.4000;13;
3;FRA;Rhône-Alpes;Ardèche;Vals-les-Bains 07331;E4.3667;N44.6667;13;
3;FRA;Rhône-Alpes;Ardèche;Valvignères 07332;E4.5833;N44.5000;13;
3;FRA;Rhône-Alpes;Ardèche;Vanosc 07333;E4.5500;N45.2167;13;
3;FRA;Rhône-Alpes;Ardèche;Vaudevant 07335;E4.6167;N45.1000;13;
3;FRA;Rhône-Alpes;Ardèche;Vernon 07336;E4.2333;N44.5000;13;
3;FRA;Rhône-Alpes;Ardèche;Vernosc-lès-Annonay 07337;E4.7167;N45.2167;13;
3;FRA;Rhône-Alpes;Ardèche;Vernoux-en-Vivarais 07338;E4.6500;N44.9000;13;
3;FRA;Rhône-Alpes;Ardèche;Vesseaux 07339;E4.4500;N44.6333;13;
3;FRA;Rhône-Alpes;Ardèche;Veyras 07340;E4.5667;N44.7333;13;
3;FRA;Rhône-Alpes;Ardèche;Villeneuve-de-Berg 07341;E4.5000;N44.5500;13;
3;FRA;Rhône-Alpes;Ardèche;Villevocance 07342;E4.5833;N45.2333;13;
3;FRA;Rhône-Alpes;Ardèche;Vinezac 07343;E4.3257;N44.5388;13;
3;FRA;Rhône-Alpes;Ardèche;Vinzieux 07344;E4.7000;N45.3333;13;
3;FRA;Rhône-Alpes;Ardèche;Vion 07345;E4.8000;N45.1000;13;
3;FRA;Rhône-Alpes;Ardèche;Viviers 07346;E4.6833;N44.4833;13;
3;FRA;Rhône-Alpes;Ardèche;Vocance 07347;E4.5500;N45.2000;13;
3;FRA;Rhône-Alpes;Ardèche;Vogüé 07348;E4.4167;N44.5500;13;
2;FRA;Rhône-Alpes;Drôme;;E5.15;N44.68;9;
3;FRA;Rhône-Alpes;Drôme;Aix-en-Diois 26001;E5.4167;N44.7167;13;
3;FRA;Rhône-Alpes;Drôme;Albon 26002;E4.8667;N45.2333;13;
3;FRA;Rhône-Alpes;Drôme;Aleyrac 26003;E4.9500;N44.5000;13;
3;FRA;Rhône-Alpes;Drôme;Alixan 26004;E5.0333;N44.9667;13;
3;FRA;Rhône-Alpes;Drôme;Allan 26005;E4.7833;N44.4833;13;
3;FRA;Rhône-Alpes;Drôme;Allex 26006;E4.9167;N44.7667;13;
3;FRA;Rhône-Alpes;Drôme;Ambonil 26007;E4.9000;N44.7833;13;
3;FRA;Rhône-Alpes;Drôme;Ancône 26008;E4.7333;N44.5833;13;
3;FRA;Rhône-Alpes;Drôme;Andancette 26009;E4.8000;N45.2333;13;
3;FRA;Rhône-Alpes;Drôme;Anneyron 26010;E4.9000;N45.2667;13;
3;FRA;Rhône-Alpes;Drôme;Aouste-sur-Sye 26011;E5.0500;N44.7167;13;
3;FRA;Rhône-Alpes;Drôme;Arnayon 26012;E5.3167;N44.4833;13;
3;FRA;Rhône-Alpes;Drôme;Arpavon 26013;E5.2667;N44.3667;13;
3;FRA;Rhône-Alpes;Drôme;Arthémonay 26014;E5.0500;N45.1333;13;
3;FRA;Rhône-Alpes;Drôme;Aubenasson 26015;E5.1500;N44.6833;13;
3;FRA;Rhône-Alpes;Drôme;Aubres 26016;E5.1667;N44.3833;13;
3;FRA;Rhône-Alpes;Drôme;Aucelon 26017;E5.3500;N44.6333;13;
3;FRA;Rhône-Alpes;Drôme;Aulan 26018;E5.4333;N44.2167;13;
3;FRA;Rhône-Alpes;Drôme;Aurel 26019;E5.3000;N44.7000;13;
3;FRA;Rhône-Alpes;Drôme;Autichamp 26021;E4.9500;N44.6833;13;
3;FRA;Rhône-Alpes;Drôme;Ballons 26022;E5.6500;N44.2500;13;
3;FRA;Rhône-Alpes;Drôme;Barbières 26023;E5.1333;N44.9500;13;
3;FRA;Rhône-Alpes;Drôme;Barcelonne 26024;E5.0500;N44.8667;13;
3;FRA;Rhône-Alpes;Drôme;Barnave 26025;E5.3667;N44.6500;13;
3;FRA;Rhône-Alpes;Drôme;Barret-de-Lioure 26026;E5.5000;N44.1833;13;
3;FRA;Rhône-Alpes;Drôme;Barsac 26027;E5.2833;N44.7333;13;
3;FRA;Rhône-Alpes;Drôme;Bathernay 26028;E5.0000;N45.1833;13;
3;FRA;Rhône-Alpes;Drôme;Beaufort-sur-Gervanne 26035;E5.1500;N44.7833;13;
3;FRA;Rhône-Alpes;Drôme;Beaumont-en-Diois 26036;E5.4667;N44.5667;13;
3;FRA;Rhône-Alpes;Drôme;Beaumont-lès-Valence 26037;E4.9667;N44.8667;13;
3;FRA;Rhône-Alpes;Drôme;Beaumont-Monteux 26038;E4.9167;N45.0167;13;
3;FRA;Rhône-Alpes;Drôme;Beauregard-Baret 26039;E5.1833;N44.9833;13;
3;FRA;Rhône-Alpes;Drôme;Beaurières 26040;E5.5500;N44.5833;13;
3;FRA;Rhône-Alpes;Drôme;Beausemblant 26041;E4.8333;N45.2167;13;
3;FRA;Rhône-Alpes;Drôme;Beauvallon 26042;E4.9167;N44.8667;13;
3;FRA;Rhône-Alpes;Drôme;Beauvoisin 26043;E5.2167;N44.3000;13;
3;FRA;Rhône-Alpes;Drôme;Béconne 26044=26276;E5.0500;N44.5000;13;
3;FRA;Rhône-Alpes;Drôme;Bellecombe-Tarendol 26046;E5.3500;N44.3500;13;
3;FRA;Rhône-Alpes;Drôme;Bellegarde-en-Diois 26047;E5.4333;N44.5333;13;
3;FRA;Rhône-Alpes;Drôme;Bénivay-Ollon 26048;E5.1833;N44.3000;13;
3;FRA;Rhône-Alpes;Drôme;Bésayes 26049;E5.0833;N44.9667;13;
3;FRA;Rhône-Alpes;Drôme;Bésignan 26050;E5.3333;N44.3167;13;
3;FRA;Rhône-Alpes;Drôme;Bézaudun-sur-Bîne 26051;E5.1667;N44.6000;13;
3;FRA;Rhône-Alpes;Drôme;Bonlieu-sur-Roubion 26052;E4.8667;N44.5833;13;
3;FRA;Rhône-Alpes;Drôme;Bonneval-en-Diois 26053=26055;E5.6167;N44.6333;13;
3;FRA;Rhône-Alpes;Drôme;Bouchet 26054;E4.8833;N44.3000;13;
3;FRA;Rhône-Alpes;Drôme;Boulc 26055;E5.5667;N44.6500;13;
3;FRA;Rhône-Alpes;Drôme;Bourdeaux 26056;E5.1333;N44.5833;13;
3;FRA;Rhône-Alpes;Drôme;Bourg-de-Péage 26057;E5.0500;N45.0333;13;
3;FRA;Rhône-Alpes;Drôme;Bourg-lès-Valence 26058;E4.8833;N44.9500;13;
3;FRA;Rhône-Alpes;Drôme;Bouvante 26059;E5.2714;N44.9653;13;
3;FRA;Rhône-Alpes;Drôme;Bouvières 26060;E5.2167;N44.5000;13;
3;FRA;Rhône-Alpes;Drôme;Bren 26061;E4.9333;N45.1333;13;
3;FRA;Rhône-Alpes;Drôme;Brette 26062;E5.3167;N44.5833;13;
3;FRA;Rhône-Alpes;Drôme;Buis-les-Baronnies 26063;E5.2667;N44.2667;13;
3;FRA;Rhône-Alpes;Drôme;Chabeuil 26064;E5.0167;N44.9000;13;
3;FRA;Rhône-Alpes;Drôme;Chabrillan 26065;E4.9333;N44.7167;13;
3;FRA;Rhône-Alpes;Drôme;Chalancon 26067;E5.3500;N44.5167;13;
3;FRA;Rhône-Alpes;Drôme;Chamaloc 26069;E5.3833;N44.8000;13;
3;FRA;Rhône-Alpes;Drôme;Chamaret 26070;E4.9000;N44.4000;13;
3;FRA;Rhône-Alpes;Drôme;Chanos-Curson 26071;E4.9167;N45.0667;13;
3;FRA;Rhône-Alpes;Drôme;Chantemerle-les-Blés 26072;E4.9167;N45.1000;13;
3;FRA;Rhône-Alpes;Drôme;Chantemerle-lès-Grignan 26073;E4.8333;N44.4000;13;
3;FRA;Rhône-Alpes;Drôme;Charens 26076;E5.5167;N44.5500;13;
3;FRA;Rhône-Alpes;Drôme;Charmes-sur-l'Herbasse 26077;E5.0167;N45.1333;13;
3;FRA;Rhône-Alpes;Drôme;Charols 26078;E4.9500;N44.5833;13;
3;FRA;Rhône-Alpes;Drôme;Charpey 26079;E5.1000;N44.9333;13;
3;FRA;Rhône-Alpes;Drôme;Chastel-Arnaud 26080;E5.2000;N44.6667;13;
3;FRA;Rhône-Alpes;Drôme;Châteaudouble 26081;E5.1000;N44.9000;13;
3;FRA;Rhône-Alpes;Drôme;Châteauneuf-de-Bordette 26082;E5.1833;N44.3333;13;
3;FRA;Rhône-Alpes;Drôme;Châteauneuf-de-Galaure 26083;E4.9500;N45.2167;13;
3;FRA;Rhône-Alpes;Drôme;Châteauneuf-du-Rhône 26085;E4.7167;N44.4833;13;
3;FRA;Rhône-Alpes;Drôme;Châteauneuf-sur-Isère 26084;E4.9396;N45.0152;13;
3;FRA;Rhône-Alpes;Drôme;Châtillon-en-Diois 26086;E5.4667;N44.6833;13;
3;FRA;Rhône-Alpes;Drôme;Châtillon-Saint-Jean 26087;E5.1333;N45.0833;13;
3;FRA;Rhône-Alpes;Drôme;Chatuzange-le-Goubet 26088;E5.0833;N45.0000;13;
3;FRA;Rhône-Alpes;Drôme;Chaudebonne 26089;E5.2333;N44.4667;13;
3;FRA;Rhône-Alpes;Drôme;Chauvac-Laux-Montaux 26091;E5.5167;N44.3167;13;
3;FRA;Rhône-Alpes;Drôme;Chavannes 26092;E4.8500;N45.0833;13;
3;FRA;Rhône-Alpes;Drôme;Clansayes 26093;E4.8000;N44.3667;13;
3;FRA;Rhône-Alpes;Drôme;Claveyson 26094;E4.9333;N45.1833;13;
3;FRA;Rhône-Alpes;Drôme;Cléon-d'Andran 26095;E4.9333;N44.6167;13;
3;FRA;Rhône-Alpes;Drôme;Clérieux 26096;E4.9667;N45.0833;13;
3;FRA;Rhône-Alpes;Drôme;Cliousclat 26097;E4.8333;N44.7167;13;
3;FRA;Rhône-Alpes;Drôme;Cobonne 26098;E5.0833;N44.7667;13;
3;FRA;Rhône-Alpes;Drôme;Colonzelle 26099;E4.9167;N44.4000;13;
3;FRA;Rhône-Alpes;Drôme;Combovin 26100;E5.0833;N44.8667;13;
3;FRA;Rhône-Alpes;Drôme;Comps 26101;E5.1167;N44.5333;13;
3;FRA;Rhône-Alpes;Drôme;Condillac 26102;E4.8167;N44.6333;13;
3;FRA;Rhône-Alpes;Drôme;Condorcet 26103;E5.2006;N44.4073;13;
3;FRA;Rhône-Alpes;Drôme;Cornillac 26104;E5.3833;N44.4500;13;
3;FRA;Rhône-Alpes;Drôme;Cornillon-sur-l'Oule 26105;E5.3667;N44.4667;13;
3;FRA;Rhône-Alpes;Drôme;Crépol 26107;E5.0667;N45.1833;13;
3;FRA;Rhône-Alpes;Drôme;Crest 26108;E5.0333;N44.7333;13;
3;FRA;Rhône-Alpes;Drôme;Creyers 26109=26354;E5.5500;N44.6833;13;
3;FRA;Rhône-Alpes;Drôme;Crozes-Hermitage 26110;E4.8333;N45.0833;13;
3;FRA;Rhône-Alpes;Drôme;Crupies 26111;E5.1667;N44.5667;13;
3;FRA;Rhône-Alpes;Drôme;Curnier 26112;E5.2333;N44.3833;13;
3;FRA;Rhône-Alpes;Drôme;Die 26113;E5.3667;N44.7500;13;
3;FRA;Rhône-Alpes;Drôme;Dieulefit 26114;E5.0667;N44.5167;13;
3;FRA;Rhône-Alpes;Drôme;Divajeu 26115;E5.0167;N44.7000;13;
3;FRA;Rhône-Alpes;Drôme;Donzère 26116;E4.7167;N44.4500;13;
3;FRA;Rhône-Alpes;Drôme;Échevis 26117;E5.3833;N45.0167;13;
3;FRA;Rhône-Alpes;Drôme;Épinouze 26118;E4.9167;N45.3167;13;
3;FRA;Rhône-Alpes;Drôme;Érôme 26119;E4.8167;N45.1167;13;
3;FRA;Rhône-Alpes;Drôme;Espeluche 26121;E4.8167;N44.5167;13;
3;FRA;Rhône-Alpes;Drôme;Espenel 26122;E5.2333;N44.6833;13;
3;FRA;Rhône-Alpes;Drôme;Establet 26123;E5.4500;N44.5167;13;
3;FRA;Rhône-Alpes;Drôme;Étoile-sur-Rhône 26124;E4.9000;N44.8333;13;
3;FRA;Rhône-Alpes;Drôme;Eurre 26125;E4.9833;N44.7667;13;
3;FRA;Rhône-Alpes;Drôme;Eygalayes 26126;E5.6167;N44.2333;13;
3;FRA;Rhône-Alpes;Drôme;Eygaliers 26127;E5.2833;N44.2333;13;
3;FRA;Rhône-Alpes;Drôme;Eygluy-Escoulin 26128;E5.1949;N44.7894;13;
3;FRA;Rhône-Alpes;Drôme;Eymeux 26129;E5.1667;N45.0833;13;
3;FRA;Rhône-Alpes;Drôme;Eyroles 26130;E5.2167;N44.4167;13;
3;FRA;Rhône-Alpes;Drôme;Eyzahut 26131;E5.0167;N44.5667;13;
3;FRA;Rhône-Alpes;Drôme;Fay-le-Clos 26133;E5.0000;N44.9500;13;
3;FRA;Rhône-Alpes;Drôme;Félines-sur-Rimandoule 26134;E4.9167;N45.2167;13;
3;FRA;Rhône-Alpes;Drôme;Ferrassières 26135;E5.4833;N44.1333;13;
3;FRA;Rhône-Alpes;Drôme;Francillon-sur-Roubion 26137;E5.0833;N44.6167;13;
3;FRA;Rhône-Alpes;Drôme;Génissieux 26139;E5.0833;N45.0833;13;
3;FRA;Rhône-Alpes;Drôme;Gervans 26380;E4.8333;N45.1000;13;
3;FRA;Rhône-Alpes;Drôme;Geyssans 26140;E5.1000;N45.1333;13;
3;FRA;Rhône-Alpes;Drôme;Gigors-et-Lozeron 26141;E5.1333;N44.8000;13;
3;FRA;Rhône-Alpes;Drôme;Glandage 26142;E5.6000;N44.6833;13;
3;FRA;Rhône-Alpes;Drôme;Grane 26144;E4.9167;N44.7333;13;
3;FRA;Rhône-Alpes;Drôme;Granges-les-Beaumont 26379;E4.9839;N45.0530;13;
3;FRA;Rhône-Alpes;Drôme;Grignan 26146;E4.9000;N44.4167;13;
3;FRA;Rhône-Alpes;Drôme;Gumiane 26147;E5.2500;N44.5167;13;
3;FRA;Rhône-Alpes;Drôme;Hauterives 26148;E5.0333;N45.2500;13;
3;FRA;Rhône-Alpes;Drôme;Hostun 26149;E5.2000;N45.0333;13;
3;FRA;Rhône-Alpes;Drôme;Izon-la-Bruisse 26150;E5.6000;N44.2500;13;
3;FRA;Rhône-Alpes;Drôme;Jaillans 26381;E5.1833;N45.0333;13;
3;FRA;Rhône-Alpes;Drôme;Jansac 26151=26262;E5.3833;N44.6500;13;
3;FRA;Rhône-Alpes;Drôme;Jonchères 26152;E5.4000;N44.5667;13;
3;FRA;Rhône-Alpes;Drôme;L'Escoulin 26120=26128;E5.1500;N45.0500;13;
3;FRA;Rhône-Alpes;Drôme;La Bâtie-Crémezin 26029=26136;E5.5833;N44.5833;13;
3;FRA;Rhône-Alpes;Drôme;La Bâtie-des-Fonds 26030;E5.6333;N44.5167;13;
3;FRA;Rhône-Alpes;Drôme;La Bâtie-Rolland 26031;E4.8500;N44.5500;13;
3;FRA;Rhône-Alpes;Drôme;La Baume-Cornillane 26032;E5.0500;N44.8167;13;
3;FRA;Rhône-Alpes;Drôme;La Baume-d'Hostun 26034;E5.2333;N45.0500;13;
3;FRA;Rhône-Alpes;Drôme;La Baume-de-Transit 26033;E4.8667;N44.3500;13;
3;FRA;Rhône-Alpes;Drôme;La Bégude-de-Mazenc 26045;E4.9333;N44.5333;13;
3;FRA;Rhône-Alpes;Drôme;La Chapelle-en-Vercors 26074;E5.4167;N44.9667;13;
3;FRA;Rhône-Alpes;Drôme;La Charce 26075;E5.4500;N44.4667;13;
3;FRA;Rhône-Alpes;Drôme;La Chaudière 26090;E5.2167;N44.6333;13;
3;FRA;Rhône-Alpes;Drôme;La Coucourde 26106;E4.7833;N44.6500;13;
3;FRA;Rhône-Alpes;Drôme;La Fare 26132=26199;E5.4332;N44.3374;13;
3;FRA;Rhône-Alpes;Drôme;La Garde-Adhémar 26138;E4.7500;N44.4000;13;
3;FRA;Rhône-Alpes;Drôme;La Laupie 26157;E4.8333;N44.6000;13;
3;FRA;Rhône-Alpes;Drôme;La Motte-Chalancon 26215;E5.3833;N44.4833;13;
3;FRA;Rhône-Alpes;Drôme;La Motte-de-Galaure 26216;E4.9167;N45.2000;13;
3;FRA;Rhône-Alpes;Drôme;La Motte-Fanjas 26217;E5.2667;N45.0500;13;
3;FRA;Rhône-Alpes;Drôme;La Penne-sur-l'Ouvèze 26229;E5.2167;N44.2500;13;
3;FRA;Rhône-Alpes;Drôme;La Répara 26265=26020;E4.9860;N44.6597;13;
3;FRA;Rhône-Alpes;Drôme;La Répara-Auriples 26020;E4.9860;N44.6597;13;
3;FRA;Rhône-Alpes;Drôme;La Roche-de-Glun 26271;E4.8500;N45.0000;13;
3;FRA;Rhône-Alpes;Drôme;La Roche-sur-Grane 26277;E4.9333;N44.6833;13;
3;FRA;Rhône-Alpes;Drôme;La Roche-sur-le-Buis 26278;E5.3167;N44.2833;13;
3;FRA;Rhône-Alpes;Drôme;La Rochette-du-Buis 26279;E5.4167;N44.2667;13;
3;FRA;Rhône-Alpes;Drôme;La Rochette-sur-Crest 26280=26365;E5.0500;N44.7833;13;
3;FRA;Rhône-Alpes;Drôme;La Touche 26352;E4.8833;N44.5000;13;
3;FRA;Rhône-Alpes;Drôme;Laborel 26153;E5.6000;N44.2833;13;
3;FRA;Rhône-Alpes;Drôme;Lachau 26154;E5.6500;N44.2333;13;
3;FRA;Rhône-Alpes;Drôme;Lapeyrouse-Mornay 26155;E5.0000;N45.3167;13;
3;FRA;Rhône-Alpes;Drôme;Larnage 26156;E4.8667;N45.0833;13;
3;FRA;Rhône-Alpes;Drôme;Laux-Montaux 26158=26091;E5.5500;N44.3167;13;
3;FRA;Rhône-Alpes;Drôme;Laval-d'Aix 26159;E5.4333;N44.7167;13;
3;FRA;Rhône-Alpes;Drôme;Laveyron 26160;E4.8333;N45.2000;13;
3;FRA;Rhône-Alpes;Drôme;Le Chaffal 26066;E5.1833;N44.8667;13;
3;FRA;Rhône-Alpes;Drôme;Le Chalon 26068;E5.0833;N45.1500;13;
3;FRA;Rhône-Alpes;Drôme;Le Grand-Serre 26143;E5.1000;N45.2667;13;
3;FRA;Rhône-Alpes;Drôme;Le Pègue 26226;E5.0500;N44.4333;13;
3;FRA;Rhône-Alpes;Drôme;Le Pilhon 26237=26136;E5.6000;N44.6000;13;
3;FRA;Rhône-Alpes;Drôme;Le Poët-Célard 26241;E5.1000;N44.6000;13;
3;FRA;Rhône-Alpes;Drôme;Le Poët-en-Percip 26242;E5.3833;N44.2500;13;
3;FRA;Rhône-Alpes;Drôme;Le Poët-Laval 26243;E5.0167;N44.5333;13;
3;FRA;Rhône-Alpes;Drôme;Le Poët-Sigillat 26244;E5.3167;N44.3667;13;
3;FRA;Rhône-Alpes;Drôme;Lemps 26161;E5.4187;N44.3511;13;
3;FRA;Rhône-Alpes;Drôme;Lens-Lestang 26162;E5.0333;N45.2833;13;
3;FRA;Rhône-Alpes;Drôme;Léoncel 26163;E5.2000;N44.9000;13;
3;FRA;Rhône-Alpes;Drôme;Les Granges-Gontardes 26145;E4.7667;N44.4167;13;
3;FRA;Rhône-Alpes;Drôme;Les Pilles 26238;E5.2000;N44.3833;13;
3;FRA;Rhône-Alpes;Drôme;Les Prés 26255;E5.5792;N44.5272;13;
3;FRA;Rhône-Alpes;Drôme;Les Tonils 26351;E5.2000;N44.5833;13;
3;FRA;Rhône-Alpes;Drôme;Les Tourrettes 26353;E4.8004;N44.6633;13;
3;FRA;Rhône-Alpes;Drôme;Lesches-en-Diois 26164;E5.5333;N44.6000;13;
3;FRA;Rhône-Alpes;Drôme;Livron-sur-Drôme 26165;E4.8500;N44.7667;13;
3;FRA;Rhône-Alpes;Drôme;Loriol-sur-Drôme 26166;E4.8167;N44.7500;13;
3;FRA;Rhône-Alpes;Drôme;Luc-en-Diois 26167;E5.4511;N44.6159;13;
3;FRA;Rhône-Alpes;Drôme;Lus-la-Croix-Haute 26168;E5.7000;N44.6667;13;
3;FRA;Rhône-Alpes;Drôme;Malataverne 26169;E4.7503;N44.4880;13;
3;FRA;Rhône-Alpes;Drôme;Malissard 26170;E4.9667;N44.9000;13;
3;FRA;Rhône-Alpes;Drôme;Manas 26171;E4.9833;N44.6000;13;
3;FRA;Rhône-Alpes;Drôme;Manthes 26172;E5.0000;N45.3000;13;
3;FRA;Rhône-Alpes;Drôme;Marches 26173;E5.1000;N44.9833;13;
3;FRA;Rhône-Alpes;Drôme;Margès 26174;E5.0500;N45.1500;13;
3;FRA;Rhône-Alpes;Drôme;Marignac-en-Diois 26175;E5.3333;N44.8000;13;
3;FRA;Rhône-Alpes;Drôme;Marsanne 26176;E4.8667;N44.6500;13;
3;FRA;Rhône-Alpes;Drôme;Marsaz 26177;E4.9442;N45.1167;13;
3;FRA;Rhône-Alpes;Drôme;Menglon 26178;E5.4667;N44.6667;13;
3;FRA;Rhône-Alpes;Drôme;Mercurol 26179;E4.9000;N45.0667;13;
3;FRA;Rhône-Alpes;Drôme;Mérindol-les-Oliviers 26180;E5.1667;N44.2667;13;
3;FRA;Rhône-Alpes;Drôme;Mévouillon 26181;E5.4833;N44.2333;13;
3;FRA;Rhône-Alpes;Drôme;Mirabel-aux-Baronnies 26182;E5.1000;N44.3000;13;
3;FRA;Rhône-Alpes;Drôme;Mirabel-et-Blacons 26183;E5.1167;N44.7167;13;
3;FRA;Rhône-Alpes;Drôme;Miribel 26184;E5.1106;N45.1991;13;
3;FRA;Rhône-Alpes;Drôme;Mirmande 26185;E4.8333;N44.6833;13;
3;FRA;Rhône-Alpes;Drôme;Miscon 26186;E5.5333;N44.6333;13;
3;FRA;Rhône-Alpes;Drôme;Molières-Glandaz 26187;E5.4000;N44.7333;13;
3;FRA;Rhône-Alpes;Drôme;Mollans-sur-Ouvèze 26188;E5.2000;N44.2333;13;
3;FRA;Rhône-Alpes;Drôme;Montauban-sur-l'Ouvèze 26189;E5.5000;N44.2667;13;
3;FRA;Rhône-Alpes;Drôme;Montaulieu 26190;E5.2167;N44.3500;13;
3;FRA;Rhône-Alpes;Drôme;Montboucher-sur-Jabron 26191;E4.8000;N44.5500;13;
3;FRA;Rhône-Alpes;Drôme;Montbrison-sur-Lez 26192;E5.0167;N44.4417;13;
3;FRA;Rhône-Alpes;Drôme;Montbrun-les-Bains 26193;E5.4333;N44.1833;13;
3;FRA;Rhône-Alpes;Drôme;Montchenu 26194;E5.0333;N45.2000;13;
3;FRA;Rhône-Alpes;Drôme;Montclar-sur-Gervanne 26195;E5.1500;N44.7500;13;
3;FRA;Rhône-Alpes;Drôme;Montéléger 26196;E4.9333;N44.8667;13;
3;FRA;Rhône-Alpes;Drôme;Montélier 26197;E5.0333;N44.9333;13;
3;FRA;Rhône-Alpes;Drôme;Montélimar 26198;E4.7500;N44.5667;13;
3;FRA;Rhône-Alpes;Drôme;Montferrand-la-Fare 26199;E5.4501;N44.3597;13;
3;FRA;Rhône-Alpes;Drôme;Montfroc 26200;E5.6333;N44.1833;13;
3;FRA;Rhône-Alpes;Drôme;Montguers 26201;E5.4500;N44.2833;13;
3;FRA;Rhône-Alpes;Drôme;Montjoux 26202;E5.1000;N44.5000;13;
3;FRA;Rhône-Alpes;Drôme;Montjoyer 26203;E4.8500;N44.4667;13;
3;FRA;Rhône-Alpes;Drôme;Montlaur-en-Diois 26204;E5.4167;N44.6333;13;
3;FRA;Rhône-Alpes;Drôme;Montmaur-en-Diois 26205;E5.3833;N44.6833;13;
3;FRA;Rhône-Alpes;Drôme;Montmeyran 26206;E4.9833;N44.8333;13;
3;FRA;Rhône-Alpes;Drôme;Montmiral 26207;E5.1500;N45.1500;13;
3;FRA;Rhône-Alpes;Drôme;Montoison 26208;E4.9167;N44.7833;13;
3;FRA;Rhône-Alpes;Drôme;Montréal-les-Sources 26209;E5.3000;N44.4000;13;
3;FRA;Rhône-Alpes;Drôme;Montrigaud 26210;E5.1333;N45.2167;13;
3;FRA;Rhône-Alpes;Drôme;Montségur-sur-Lauzon 26211;E4.8667;N44.3500;13;
3;FRA;Rhône-Alpes;Drôme;Montvendre 26212;E5.0167;N44.8667;13;
3;FRA;Rhône-Alpes;Drôme;Moras-en-Valloire 26213;E4.9833;N45.2833;13;
3;FRA;Rhône-Alpes;Drôme;Mornans 26214;E5.1167;N44.6000;13;
3;FRA;Rhône-Alpes;Drôme;Mours-Saint-Eusèbe 26218;E5.0500;N45.0667;13;
3;FRA;Rhône-Alpes;Drôme;Mureils 26219;E4.9333;N45.2000;13;
3;FRA;Rhône-Alpes;Drôme;Nyons 26220;E5.1333;N44.3667;13;
3;FRA;Rhône-Alpes;Drôme;Omblèze 26221;E5.2167;N44.8667;13;
3;FRA;Rhône-Alpes;Drôme;Orcinas 26222;E5.1333;N44.5333;13;
3;FRA;Rhône-Alpes;Drôme;Oriol-en-Royans 26223;E5.2833;N45.0000;13;
3;FRA;Rhône-Alpes;Drôme;Ourches 26224;E5.0333;N44.8000;13;
3;FRA;Rhône-Alpes;Drôme;Parnans 26225;E5.1500;N45.1000;13;
3;FRA;Rhône-Alpes;Drôme;Pelonne 26227;E5.3833;N44.3833;13;
3;FRA;Rhône-Alpes;Drôme;Pennes-le-Sec 26228;E5.3167;N44.6333;13;
3;FRA;Rhône-Alpes;Drôme;Petit-Paris 26230=26321;E5.2388;N44.5534;13;
3;FRA;Rhône-Alpes;Drôme;Peyrins 26231;E5.0500;N45.0833;13;
3;FRA;Rhône-Alpes;Drôme;Peyrus 26232;E5.1000;N44.9167;13;
3;FRA;Rhône-Alpes;Drôme;Piégon 26233;E5.1333;N44.3000;13;
3;FRA;Rhône-Alpes;Drôme;Piégros-la-Clastre 26234;E5.1000;N44.6833;13;
3;FRA;Rhône-Alpes;Drôme;Pierrelatte 26235;E4.7000;N44.3833;13;
3;FRA;Rhône-Alpes;Drôme;Pierrelongue 26236;E5.2167;N44.2500;13;
3;FRA;Rhône-Alpes;Drôme;Plaisians 26239;E5.3167;N44.2333;13;
3;FRA;Rhône-Alpes;Drôme;Plan-de-Baix 26240;E5.1667;N44.8167;13;
3;FRA;Rhône-Alpes;Drôme;Pommerol 26245;E5.4523;N44.4463;13;
3;FRA;Rhône-Alpes;Drôme;Ponet-et-Saint-Auban 26246;E5.3167;N44.7833;13;
3;FRA;Rhône-Alpes;Drôme;Ponsas 26247;E4.8500;N45.1667;13;
3;FRA;Rhône-Alpes;Drôme;Pont-de-Barret 26249;E5.0167;N44.6000;13;
3;FRA;Rhône-Alpes;Drôme;Pont-de-l'Isère 26250;E4.8833;N45.0000;13;
3;FRA;Rhône-Alpes;Drôme;Pontaix 26248;E5.2667;N44.7500;13;
3;FRA;Rhône-Alpes;Drôme;Portes-en-Valdaine 26251;E4.9000;N44.5167;13;
3;FRA;Rhône-Alpes;Drôme;Portes-lès-Valence 26252;E4.8833;N44.8667;13;
3;FRA;Rhône-Alpes;Drôme;Poyols 26253;E5.4167;N44.6000;13;
3;FRA;Rhône-Alpes;Drôme;Pradelle 26254;E5.3000;N44.6000;13;
3;FRA;Rhône-Alpes;Drôme;Propiac 26256;E5.2000;N44.2833;13;
3;FRA;Rhône-Alpes;Drôme;Puy-Saint-Martin 26258;E4.9667;N44.6333;13;
3;FRA;Rhône-Alpes;Drôme;Puygiron 26257;E4.8500;N44.5333;13;
3;FRA;Rhône-Alpes;Drôme;Ratières 26259;E4.9667;N45.1833;13;
3;FRA;Rhône-Alpes;Drôme;Ravel-et-Ferriers 26260=26055;E5.5333;N44.6667;13;
3;FRA;Rhône-Alpes;Drôme;Réauville 26261;E4.9333;N44.4333;13;
3;FRA;Rhône-Alpes;Drôme;Recoubeau-Jansac 26262;E5.4124;N44.6543;13;
3;FRA;Rhône-Alpes;Drôme;Reilhanette 26263;E5.4167;N44.1667;13;
3;FRA;Rhône-Alpes;Drôme;Rémuzat 26264;E5.3500;N44.4000;13;
3;FRA;Rhône-Alpes;Drôme;Rimon-et-Savel 26266;E5.3000;N44.6667;13;
3;FRA;Rhône-Alpes;Drôme;Rioms 26267;E5.4500;N44.2667;13;
3;FRA;Rhône-Alpes;Drôme;Roche-Saint-Secret-Béconne 26276;E5.0282;N44.4766;13;
3;FRA;Rhône-Alpes;Drôme;Rochebaudin 26268;E5.0333;N44.5833;13;
3;FRA;Rhône-Alpes;Drôme;Rochebrune 26269;E5.2500;N44.3333;13;
3;FRA;Rhône-Alpes;Drôme;Rochechinard 26270;E5.2500;N45.0333;13;
3;FRA;Rhône-Alpes;Drôme;Rochefort-en-Valdaine 26272;E4.8585;N44.5031;13;
3;FRA;Rhône-Alpes;Drôme;Rochefort-Samson 26273;E5.1500;N44.9667;13;
3;FRA;Rhône-Alpes;Drôme;Rochefourchat 26274;E5.2500;N44.6000;13;
3;FRA;Rhône-Alpes;Drôme;Rochegude 26275;E4.8333;N44.2500;13;
3;FRA;Rhône-Alpes;Drôme;Romans-sur-Isère 26281;E5.0500;N45.0500;13;
3;FRA;Rhône-Alpes;Drôme;Romeyer 26282;E5.4080;N44.7785;13;
3;FRA;Rhône-Alpes;Drôme;Rottier 26283;E5.4167;N44.4667;13;
3;FRA;Rhône-Alpes;Drôme;Roussas 26284;E4.8000;N44.4333;13;
3;FRA;Rhône-Alpes;Drôme;Rousset-les-Vignes 26285;E5.0667;N44.4167;13;
3;FRA;Rhône-Alpes;Drôme;Roussieux 26286;E5.4667;N44.3333;13;
3;FRA;Rhône-Alpes;Drôme;Roynac 26287;E4.9333;N44.6333;13;
3;FRA;Rhône-Alpes;Drôme;Sahune 26288;E5.2667;N44.4167;13;
3;FRA;Rhône-Alpes;Drôme;Saillans 26289;E5.1833;N44.7000;13;
3;FRA;Rhône-Alpes;Drôme;Saint-Agnan-en-Vercors 26290;E5.4167;N44.9333;13;
3;FRA;Rhône-Alpes;Drôme;Saint-Andéol 26291;E5.2667;N44.8000;13;
3;FRA;Rhône-Alpes;Drôme;Saint-Auban-sur-l'Ouvèze 26292;E5.4167;N44.2833;13;
3;FRA;Rhône-Alpes;Drôme;Saint-Avit 26293;E4.9667;N45.2000;13;
3;FRA;Rhône-Alpes;Drôme;Saint-Bardoux 26294;E5.0000;N45.0833;13;
3;FRA;Rhône-Alpes;Drôme;Saint-Barthélemy-de-Vals 26295;E4.8667;N45.1667;13;
3;FRA;Rhône-Alpes;Drôme;Saint-Benoit-en-Diois 26296;E5.2833;N44.6667;13;
3;FRA;Rhône-Alpes;Drôme;Saint-Bonnet-de-Valclérieux 26297;E5.1500;N45.2000;13;
3;FRA;Rhône-Alpes;Drôme;Saint-Christophe-et-le-Laris 26298;E5.0667;N45.2167;13;
3;FRA;Rhône-Alpes;Drôme;Saint-Dizier-en-Diois 26300;E5.4833;N44.5167;13;
3;FRA;Rhône-Alpes;Drôme;Saint-Donat-sur-l'Herbasse 26301;E5.0000;N45.1167;13;
3;FRA;Rhône-Alpes;Drôme;Saint-Ferréol-Trente-Pas 26304;E5.2167;N44.4333;13;
3;FRA;Rhône-Alpes;Drôme;Saint-Gervais-sur-Roubion 26305;E4.8833;N44.5667;13;
3;FRA;Rhône-Alpes;Drôme;Saint-Jean-en-Royans 26307;E5.3000;N45.0167;13;
3;FRA;Rhône-Alpes;Drôme;Saint-Julien-en-Quint 26308;E5.3000;N44.8333;13;
3;FRA;Rhône-Alpes;Drôme;Saint-Julien-en-Vercors 26309;E5.4500;N45.0500;13;
3;FRA;Rhône-Alpes;Drôme;Saint-Laurent-d'Onay 26310;E5.1000;N45.1833;13;
3;FRA;Rhône-Alpes;Drôme;Saint-Laurent-en-Royans 26311;E5.3333;N45.0333;13;
3;FRA;Rhône-Alpes;Drôme;Saint-Marcel-lès-Sauzet 26312;E4.8000;N44.5833;13;
3;FRA;Rhône-Alpes;Drôme;Saint-Marcel-lès-Valence 26313;E4.9500;N44.9667;13;
3;FRA;Rhône-Alpes;Drôme;Saint-Martin-d'Août 26314;E4.9833;N45.2167;13;
3;FRA;Rhône-Alpes;Drôme;Saint-Martin-en-Vercors 26315;E5.4500;N45.0167;13;
3;FRA;Rhône-Alpes;Drôme;Saint-Martin-le-Colonel 26316;E5.2833;N44.9833;13;
3;FRA;Rhône-Alpes;Drôme;Saint-Maurice-sur-Eygues 26317;E5.0167;N44.3000;13;
3;FRA;Rhône-Alpes;Drôme;Saint-May 26318;E5.3167;N44.4333;13;
3;FRA;Rhône-Alpes;Drôme;Saint-Michel-sur-Savasse 26319;E5.1167;N45.1500;13;
3;FRA;Rhône-Alpes;Drôme;Saint-Nazaire-en-Royans 26320;E5.2500;N45.0667;13;
3;FRA;Rhône-Alpes;Drôme;Saint-Nazaire-le-Désert 26321;E5.2833;N44.5667;13;
3;FRA;Rhône-Alpes;Drôme;Saint-Pantaléon-les-Vignes 26322;E5.0333;N44.4000;13;
3;FRA;Rhône-Alpes;Drôme;Saint-Paul-lès-Romans 26323;E5.1333;N45.0667;13;
3;FRA;Rhône-Alpes;Drôme;Saint-Paul-Trois-Châteaux 26324;E4.7667;N44.3500;13;
3;FRA;Rhône-Alpes;Drôme;Saint-Rambert-d'Albon 26325;E4.8167;N45.2833;13;
3;FRA;Rhône-Alpes;Drôme;Saint-Restitut 26326;E4.7833;N44.3333;13;
3;FRA;Rhône-Alpes;Drôme;Saint-Roman 26327;E5.4333;N44.6833;13;
3;FRA;Rhône-Alpes;Drôme;Saint-Sauveur-en-Diois 26328;E5.1667;N44.6833;13;
3;FRA;Rhône-Alpes;Drôme;Saint-Sauveur-Gouvernet 26329;E5.3509;N44.3373;13;
3;FRA;Rhône-Alpes;Drôme;Saint-Sorlin-en-Valloire 26330;E4.9500;N45.2833;13;
3;FRA;Rhône-Alpes;Drôme;Saint-Thomas-en-Royans 26331;E5.3000;N45.0500;13;
3;FRA;Rhône-Alpes;Drôme;Saint-Uze 26332;E4.8667;N45.1833;13;
3;FRA;Rhône-Alpes;Drôme;Saint-Vallier 26333;E4.8167;N45.1667;13;
3;FRA;Rhône-Alpes;Drôme;Saint-Vincent-la-Commanderie 26382;E5.1167;N44.9333;13;
3;FRA;Rhône-Alpes;Drôme;Sainte-Croix 26299;E5.2833;N44.7667;13;
3;FRA;Rhône-Alpes;Drôme;Sainte-Eulalie-en-Royans 26302;E5.3406;N45.0475;13;
3;FRA;Rhône-Alpes;Drôme;Sainte-Euphémie-sur-Ouvèze 26303;E5.3833;N44.3000;13;
3;FRA;Rhône-Alpes;Drôme;Sainte-Jalle 26306;E5.2833;N44.3333;13;
3;FRA;Rhône-Alpes;Drôme;Salettes 26334;E4.9667;N44.5667;13;
3;FRA;Rhône-Alpes;Drôme;Salles-sous-Bois 26335;E4.9333;N44.4500;13;
3;FRA;Rhône-Alpes;Drôme;Saou 26336;E5.0667;N44.6500;13;
3;FRA;Rhône-Alpes;Drôme;Saulce-sur-Rhône 26337;E4.7833;N44.7000;13;
3;FRA;Rhône-Alpes;Drôme;Sauzet 26338;E4.8167;N44.6000;13;
3;FRA;Rhône-Alpes;Drôme;Savasse 26339;E4.7833;N44.6000;13;
3;FRA;Rhône-Alpes;Drôme;Séderon 26340;E5.5333;N44.2000;13;
3;FRA;Rhône-Alpes;Drôme;Serves-sur-Rhône 26341;E4.8167;N45.1333;13;
3;FRA;Rhône-Alpes;Drôme;Solérieux 26342;E4.8333;N44.3500;13;
3;FRA;Rhône-Alpes;Drôme;Souspierre 26343;E4.9667;N44.5333;13;
3;FRA;Rhône-Alpes;Drôme;Soyans 26344;E5.0167;N44.6333;13;
3;FRA;Rhône-Alpes;Drôme;Suze 26346;E5.1167;N44.7667;13;
3;FRA;Rhône-Alpes;Drôme;Suze-la-Rousse 26345;E4.8500;N44.2833;13;
3;FRA;Rhône-Alpes;Drôme;Tain-l'Hermitage 26347;E4.8500;N45.0667;13;
3;FRA;Rhône-Alpes;Drôme;Taulignan 26348;E4.9833;N44.4500;13;
3;FRA;Rhône-Alpes;Drôme;Tersanne 26349;E5.0167;N45.2167;13;
3;FRA;Rhône-Alpes;Drôme;Teyssières 26350;E5.1333;N44.4500;13;
3;FRA;Rhône-Alpes;Drôme;Treschenu-Creyers 26354;E5.5403;N44.7312;13;
3;FRA;Rhône-Alpes;Drôme;Triors 26355;E5.1167;N45.1000;13;
3;FRA;Rhône-Alpes;Drôme;Truinas 26356;E5.0833;N44.5667;13;
3;FRA;Rhône-Alpes;Drôme;Tulette 26357;E4.9333;N44.2833;13;
3;FRA;Rhône-Alpes;Drôme;Upie 26358;E4.9500;N44.8000;13;
3;FRA;Rhône-Alpes;Drôme;Vachères-en-Quint 26359;E5.2667;N44.7833;13;
3;FRA;Rhône-Alpes;Drôme;Val-Maravel 26136;E5.5683;N44.5910;13;
3;FRA;Rhône-Alpes;Drôme;Valaurie 26360;E4.8167;N44.4167;13;
3;FRA;Rhône-Alpes;Drôme;Valdrôme 26361;E5.5833;N44.5000;13;
3;FRA;Rhône-Alpes;Drôme;Valence 26362;E4.9000;N44.9333;13;
3;FRA;Rhône-Alpes;Drôme;Valouse 26363;E5.2000;N44.4667;13;
3;FRA;Rhône-Alpes;Drôme;Vassieux-en-Vercors 26364;E5.3667;N44.8833;13;
3;FRA;Rhône-Alpes;Drôme;Vaunaveys-la-Rochette 26365;E5.0323;N44.7685;13;
3;FRA;Rhône-Alpes;Drôme;Veaunes 26366;E4.9167;N45.0833;13;
3;FRA;Rhône-Alpes;Drôme;Venterol 26367;E5.1000;N44.3833;13;
3;FRA;Rhône-Alpes;Drôme;Vercheny 26368;E5.2500;N44.7167;13;
3;FRA;Rhône-Alpes;Drôme;Verclause 26369;E5.4333;N44.3833;13;
3;FRA;Rhône-Alpes;Drôme;Vercoiran 26370;E5.3333;N44.3000;13;
3;FRA;Rhône-Alpes;Drôme;Véronne 26371;E5.2167;N44.7500;13;
3;FRA;Rhône-Alpes;Drôme;Vers-sur-Méouge 26372;E5.5500;N44.2333;13;
3;FRA;Rhône-Alpes;Drôme;Vesc 26373;E5.1500;N44.5167;13;
3;FRA;Rhône-Alpes;Drôme;Villebois-les-Pins 26374;E5.6099;N44.3160;13;
3;FRA;Rhône-Alpes;Drôme;Villefranche-le-Château 26375;E5.5167;N44.2167;13;
3;FRA;Rhône-Alpes;Drôme;Villeperdrix 26376;E5.2833;N44.4500;13;
3;FRA;Rhône-Alpes;Drôme;Vinsobres 26377;E5.0667;N44.3333;13;
3;FRA;Rhône-Alpes;Drôme;Volvent 26378;E5.3500;N44.5667;13;
2;FRA;Rhône-Alpes;Haute-Savoie;;E6.27;N46.07;9;
3;FRA;Rhône-Alpes;Haute-Savoie;Abondance 74001;E6.7333;N46.2833;13;
3;FRA;Rhône-Alpes;Haute-Savoie;Alby-sur-Chéran 74002;E6.0210;N45.8173;13;
3;FRA;Rhône-Alpes;Haute-Savoie;Alex 74003;E6.2333;N45.8833;13;
3;FRA;Rhône-Alpes;Haute-Savoie;Allèves 74004;E6.0833;N45.7500;13;
3;FRA;Rhône-Alpes;Haute-Savoie;Allinges 74005;E6.4667;N46.3333;13;
3;FRA;Rhône-Alpes;Haute-Savoie;Allonzier-la-Caille 74006;E6.1167;N46.0000;13;
3;FRA;Rhône-Alpes;Haute-Savoie;Amancy 74007;E6.3333;N46.0667;13;
3;FRA;Rhône-Alpes;Haute-Savoie;Ambilly 74008;E6.2244;N46.1927;13;
3;FRA;Rhône-Alpes;Haute-Savoie;Andilly 74009;E6.0667;N46.0500;13;
3;FRA;Rhône-Alpes;Haute-Savoie;Annecy 74010;E6.1167;N45.9000;13;
3;FRA;Rhône-Alpes;Haute-Savoie;Annecy-le-Vieux 74011;E6.1500;N45.9167;13;
3;FRA;Rhône-Alpes;Haute-Savoie;Annemasse 74012;E6.2500;N46.2000;13;
3;FRA;Rhône-Alpes;Haute-Savoie;Anthy-sur-Léman 74013;E6.4266;N46.3557;13;
3;FRA;Rhône-Alpes;Haute-Savoie;Arâches-la-Frasse 74014;E6.6500;N46.0333;13;
3;FRA;Rhône-Alpes;Haute-Savoie;Arbusigny 74015;E6.2167;N46.1000;13;
3;FRA;Rhône-Alpes;Haute-Savoie;Archamps 74016;E6.1333;N46.1333;13;
3;FRA;Rhône-Alpes;Haute-Savoie;Arcine 74017=74077;E5.9000;N46.0833;13;
3;FRA;Rhône-Alpes;Haute-Savoie;Arenthon 74018;E6.3333;N46.1000;13;
3;FRA;Rhône-Alpes;Haute-Savoie;Argonay 74019;E6.9333;N45.9833;13;
3;FRA;Rhône-Alpes;Haute-Savoie;Armoy 74020;E6.5167;N46.3500;13;
3;FRA;Rhône-Alpes;Haute-Savoie;Arthaz-Pont-Notre-Dame 74021;E6.2833;N46.1500;13;
3;FRA;Rhône-Alpes;Haute-Savoie;Aviernoz 74022;E6.2167;N45.9667;13;
3;FRA;Rhône-Alpes;Haute-Savoie;Avregny 74023=74006;E6.0833;N46.0167;13;
3;FRA;Rhône-Alpes;Haute-Savoie;Ayse 74024;E6.4333;N46.0833;13;
3;FRA;Rhône-Alpes;Haute-Savoie;Ballaison 74025;E6.3333;N46.3000;13;
3;FRA;Rhône-Alpes;Haute-Savoie;Balmont 74028=74268;E6.0500;N45.8333;13;
3;FRA;Rhône-Alpes;Haute-Savoie;Bassy 74029;E5.8167;N45.9833;13;
3;FRA;Rhône-Alpes;Haute-Savoie;Beaumont 74031;E6.1167;N46.1000;13;
3;FRA;Rhône-Alpes;Haute-Savoie;Bellevaux 74032;E6.5293;N46.2560;13;
3;FRA;Rhône-Alpes;Haute-Savoie;Bernex 74033;E6.6667;N46.3667;13;
3;FRA;Rhône-Alpes;Haute-Savoie;Bloye 74035;E5.9333;N45.8167;13;
3;FRA;Rhône-Alpes;Haute-Savoie;Bluffy 74036;E6.2167;N45.8667;13;
3;FRA;Rhône-Alpes;Haute-Savoie;Boëge 74037;E6.4167;N46.2167;13;
3;FRA;Rhône-Alpes;Haute-Savoie;Bogève 74038;E6.4333;N46.2000;13;
3;FRA;Rhône-Alpes;Haute-Savoie;Bonne 74040;E6.3221;N46.1671;13;
3;FRA;Rhône-Alpes;Haute-Savoie;Bonneguête 74039=74095;E5.9000;N45.9500;13;
3;FRA;Rhône-Alpes;Haute-Savoie;Bonnevaux 74041;E6.6667;N46.3000;13;
3;FRA;Rhône-Alpes;Haute-Savoie;Bonneville 74042;E6.4167;N46.0833;13;
3;FRA;Rhône-Alpes;Haute-Savoie;Bons-en-Chablais 74043;E6.3706;N46.2647;13;
3;FRA;Rhône-Alpes;Haute-Savoie;Bossey 74044;E6.1667;N46.1500;13;
3;FRA;Rhône-Alpes;Haute-Savoie;Boussy 74046;E5.9833;N45.8500;13;
3;FRA;Rhône-Alpes;Haute-Savoie;Brens 74047=74043;E6.3435;N46.2663;13;
3;FRA;Rhône-Alpes;Haute-Savoie;Brenthonne 74048;E6.4000;N46.2833;13;
3;FRA;Rhône-Alpes;Haute-Savoie;Brizon 74049;E6.4500;N46.0500;13;
3;FRA;Rhône-Alpes;Haute-Savoie;Burdignin 74050;E6.4333;N46.2167;13;
3;FRA;Rhône-Alpes;Haute-Savoie;Cercier 74051;E6.0667;N46.0333;13;
3;FRA;Rhône-Alpes;Haute-Savoie;Cernex 74052;E6.0500;N46.0667;13;
3;FRA;Rhône-Alpes;Haute-Savoie;Cervens 74053;E6.4333;N46.2833;13;
3;FRA;Rhône-Alpes;Haute-Savoie;Chainaz-les-Frasses 74054;E6.0000;N45.7667;13;
3;FRA;Rhône-Alpes;Haute-Savoie;Challonges 74055;E5.8333;N46.0167;13;
3;FRA;Rhône-Alpes;Haute-Savoie;Chamonix-Mont-Blanc 74056;E6.8667;N45.9167;13;
3;FRA;Rhône-Alpes;Haute-Savoie;Champanges 74057;E6.5500;N46.3667;13;
3;FRA;Rhône-Alpes;Haute-Savoie;Chapeiry 74061;E6.0372;N45.8453;13;
3;FRA;Rhône-Alpes;Haute-Savoie;Charvonnex 74062;E6.1500;N45.9667;13;
3;FRA;Rhône-Alpes;Haute-Savoie;Châtel 74063;E6.8333;N46.2833;13;
3;FRA;Rhône-Alpes;Haute-Savoie;Châtillon-sur-Cluses 74064;E6.5833;N46.0833;13;
3;FRA;Rhône-Alpes;Haute-Savoie;Chaumont 74065;E6.0167;N46.0500;13;
3;FRA;Rhône-Alpes;Haute-Savoie;Chavannaz 74066;E6.0500;N45.8833;13;
3;FRA;Rhône-Alpes;Haute-Savoie;Chavanod 74067;E6.7167;N45.9333;13;
3;FRA;Rhône-Alpes;Haute-Savoie;Chêne-en-Semine 74068;E5.8500;N46.0500;13;
3;FRA;Rhône-Alpes;Haute-Savoie;Chênex 74069;E6.0000;N46.1167;13;
3;FRA;Rhône-Alpes;Haute-Savoie;Chens-sur-Léman 74070;E6.2667;N46.3333;13;
3;FRA;Rhône-Alpes;Haute-Savoie;Chessenaz 74071;E5.9000;N46.0333;13;
3;FRA;Rhône-Alpes;Haute-Savoie;Chevaline 74072;E6.2167;N45.7667;13;
3;FRA;Rhône-Alpes;Haute-Savoie;Chevenoz 74073;E6.6500;N46.3333;13;
3;FRA;Rhône-Alpes;Haute-Savoie;Chevrier 74074;E5.9167;N46.1167;13;
3;FRA;Rhône-Alpes;Haute-Savoie;Chilly 74075;E5.9500;N45.9833;13;
3;FRA;Rhône-Alpes;Haute-Savoie;Choisy 74076;E6.0500;N45.9833;13;
3;FRA;Rhône-Alpes;Haute-Savoie;Clarafond 74077;E6.9015;N46.0628;13;
3;FRA;Rhône-Alpes;Haute-Savoie;Clermont 74078;E5.9000;N45.9667;13;
3;FRA;Rhône-Alpes;Haute-Savoie;Cluses 74081;E6.6000;N46.0667;13;
3;FRA;Rhône-Alpes;Haute-Savoie;Collonges-sous-Salève 74082;E6.1448;N46.1414;13;
3;FRA;Rhône-Alpes;Haute-Savoie;Combloux 74083;E6.6500;N45.9000;13;
3;FRA;Rhône-Alpes;Haute-Savoie;Cons-Sainte-Colombe 74084;E6.3333;N45.7500;13;
3;FRA;Rhône-Alpes;Haute-Savoie;Contamine-Sarzin 74086;E5.9833;N46.0333;13;
3;FRA;Rhône-Alpes;Haute-Savoie;Contamine-sur-Arve 74087;E6.3333;N46.1333;13;
3;FRA;Rhône-Alpes;Haute-Savoie;Copponex 74088;E6.0667;N46.0500;13;
3;FRA;Rhône-Alpes;Haute-Savoie;Cordon 74089;E6.6112;N45.9224;13;
3;FRA;Rhône-Alpes;Haute-Savoie;Cornier 74090;E6.3000;N46.1000;13;
3;FRA;Rhône-Alpes;Haute-Savoie;Cran-Gevrier 74093;E6.1000;N45.9000;13;
3;FRA;Rhône-Alpes;Haute-Savoie;Cranves-Sales 74094;E6.3000;N46.1833;13;
3;FRA;Rhône-Alpes;Haute-Savoie;Crempigny-Bonneguête 74095;E5.9031;N45.9518;13;
3;FRA;Rhône-Alpes;Haute-Savoie;Cruseilles 74096;E6.1167;N46.0333;13;
3;FRA;Rhône-Alpes;Haute-Savoie;Cusy 74097;E6.0333;N45.7667;13;
3;FRA;Rhône-Alpes;Haute-Savoie;Cuvat 74098;E6.1167;N45.9667;13;
3;FRA;Rhône-Alpes;Haute-Savoie;Demi-Quartier 74099;E6.6287;N45.8697;13;
3;FRA;Rhône-Alpes;Haute-Savoie;Desingy 74100;E5.8833;N46.0000;13;
3;FRA;Rhône-Alpes;Haute-Savoie;Dingy-en-Vuache 74101;E5.9333;N46.1000;13;
3;FRA;Rhône-Alpes;Haute-Savoie;Dingy-Saint-Clair 74102;E6.2167;N45.9000;13;
3;FRA;Rhône-Alpes;Haute-Savoie;Domancy 74103;E6.6500;N45.9167;13;
3;FRA;Rhône-Alpes;Haute-Savoie;Doussard 74104;E6.2167;N45.7667;13;
3;FRA;Rhône-Alpes;Haute-Savoie;Douvaine 74105;E6.3000;N46.3167;13;
3;FRA;Rhône-Alpes;Haute-Savoie;Draillant 74106;E6.4500;N46.3000;13;
3;FRA;Rhône-Alpes;Haute-Savoie;Droisy 74107;E5.8833;N45.9667;13;
3;FRA;Rhône-Alpes;Haute-Savoie;Duingt 74108;E6.2000;N45.8333;13;
3;FRA;Rhône-Alpes;Haute-Savoie;Éloise 74109;E5.8667;N46.0833;13;
3;FRA;Rhône-Alpes;Haute-Savoie;Entremont 74110;E6.3833;N45.9500;13;
3;FRA;Rhône-Alpes;Haute-Savoie;Entrevernes 74111;E6.1833;N45.8000;13;
3;FRA;Rhône-Alpes;Haute-Savoie;Épagny 74112;E6.1000;N45.9333;13;
3;FRA;Rhône-Alpes;Haute-Savoie;Ésery 74113=74220;E6.2500;N46.1500;13;
3;FRA;Rhône-Alpes;Haute-Savoie;Essert-Romand 74114;E6.6667;N46.2000;13;
3;FRA;Rhône-Alpes;Haute-Savoie;Esserts-Salève 74115=74185;E6.2167;N46.1500;13;
3;FRA;Rhône-Alpes;Haute-Savoie;Etaux 74116;E6.3000;N46.0667;13;
3;FRA;Rhône-Alpes;Haute-Savoie;Étercy 74117;E6.0000;N45.8833;13;
3;FRA;Rhône-Alpes;Haute-Savoie;Étrembières 74118;E6.2333;N46.1833;13;
3;FRA;Rhône-Alpes;Haute-Savoie;Évian-les-Bains 74119;E6.5833;N46.3833;13;
3;FRA;Rhône-Alpes;Haute-Savoie;Évires 74120;E6.2333;N46.0333;13;
3;FRA;Rhône-Alpes;Haute-Savoie;Excenevex 74121;E6.3500;N46.3500;13;
3;FRA;Rhône-Alpes;Haute-Savoie;Faucigny 74122;E6.3667;N46.1167;13;
3;FRA;Rhône-Alpes;Haute-Savoie;Faverges 74123;E6.3000;N45.7500;13;
3;FRA;Rhône-Alpes;Haute-Savoie;Feigères 74124;E6.0833;N46.1167;13;
3;FRA;Rhône-Alpes;Haute-Savoie;Ferrières 74125=74217;E6.1000;N45.9667;13;
3;FRA;Rhône-Alpes;Haute-Savoie;Fessy 74126;E6.4167;N46.2667;13;
3;FRA;Rhône-Alpes;Haute-Savoie;Féternes 74127;E6.5667;N46.3500;13;
3;FRA;Rhône-Alpes;Haute-Savoie;Fillinges 74128;E6.3333;N46.1667;13;
3;FRA;Rhône-Alpes;Haute-Savoie;Franclens 74130;E5.8167;N46.0333;13;
3;FRA;Rhône-Alpes;Haute-Savoie;Frangy 74131;E5.9333;N46.0167;13;
3;FRA;Rhône-Alpes;Haute-Savoie;Gaillard 74133;E6.2167;N46.1833;13;
3;FRA;Rhône-Alpes;Haute-Savoie;Giez 74135;E6.2500;N45.7500;13;
3;FRA;Rhône-Alpes;Haute-Savoie;Groisy 74137;E6.1833;N46.0167;13;
3;FRA;Rhône-Alpes;Haute-Savoie;Gruffy 74138;E6.0500;N45.7833;13;
3;FRA;Rhône-Alpes;Haute-Savoie;Habère-Lullin 74139;E6.4667;N46.2333;13;
3;FRA;Rhône-Alpes;Haute-Savoie;Habère-Poche 74140;E6.4833;N46.2500;13;
3;FRA;Rhône-Alpes;Haute-Savoie;Hauteville-sur-Fier 74141;E5.9833;N45.9000;13;
3;FRA;Rhône-Alpes;Haute-Savoie;Héry-sur-Alby 74142;E6.0000;N45.8000;13;
3;FRA;Rhône-Alpes;Haute-Savoie;Jonzier-Épagny 74144;E5.9833;N46.0667;13;
3;FRA;Rhône-Alpes;Haute-Savoie;Juvigny 74145;E6.2833;N46.2167;13;
3;FRA;Rhône-Alpes;Haute-Savoie;La Balme-de-Sillingy 74026;E6.0333;N45.9667;13;
3;FRA;Rhône-Alpes;Haute-Savoie;La Balme-de-Thuy 74027;E6.2833;N45.9000;13;
3;FRA;Rhône-Alpes;Haute-Savoie;La Baume 74030;E6.6167;N46.2833;13;
3;FRA;Rhône-Alpes;Haute-Savoie;La Chapelle-d'Abondance 74058;E6.7833;N46.3000;13;
3;FRA;Rhône-Alpes;Haute-Savoie;La Chapelle-Rambaud 74059;E6.2500;N46.0667;13;
3;FRA;Rhône-Alpes;Haute-Savoie;La Chapelle-Saint-Maurice 74060;E6.1500;N45.7833;13;
3;FRA;Rhône-Alpes;Haute-Savoie;La Clusaz 74080;E6.4167;N45.9000;13;
3;FRA;Rhône-Alpes;Haute-Savoie;La Côte-d'Arbroz 74091;E6.6667;N46.1833;13;
3;FRA;Rhône-Alpes;Haute-Savoie;La Côte-d'Hyot 74092=74042;E6.3764;N46.0926;13;
3;FRA;Rhône-Alpes;Haute-Savoie;La Forclaz 74129;E6.6167;N46.3167;13;
3;FRA;Rhône-Alpes;Haute-Savoie;La Frasse 74132=74014;E6.6333;N46.0583;13;
3;FRA;Rhône-Alpes;Haute-Savoie;La Muraz 74193;E6.2000;N46.1167;13;
3;FRA;Rhône-Alpes;Haute-Savoie;La Rivière-Enverse 74223;E6.6333;N46.1000;13;
3;FRA;Rhône-Alpes;Haute-Savoie;La Roche-sur-Foron 74224;E6.3167;N46.0667;13;
3;FRA;Rhône-Alpes;Haute-Savoie;La Tour 74284;E6.4333;N46.1333;13;
3;FRA;Rhône-Alpes;Haute-Savoie;La Vernaz 74295;E6.6000;N46.3167;13;
3;FRA;Rhône-Alpes;Haute-Savoie;Larringes 74146;E6.5833;N46.3667;13;
3;FRA;Rhône-Alpes;Haute-Savoie;Lathuile 74147;E6.2000;N45.7833;13;
3;FRA;Rhône-Alpes;Haute-Savoie;Le Biot 74034;E6.6333;N46.2667;13;
3;FRA;Rhône-Alpes;Haute-Savoie;Le Bouchet 74045;E6.3640;N45.7975;13;
3;FRA;Rhône-Alpes;Haute-Savoie;Le Grand-Bornand 74136;E6.4333;N45.9500;13;
3;FRA;Rhône-Alpes;Haute-Savoie;Le Petit-Bornand-les-Glières 74212;E6.3962;N46.0011;13;
3;FRA;Rhône-Alpes;Haute-Savoie;Le Reposoir 74221;E6.5373;N46.0124;13;
3;FRA;Rhône-Alpes;Haute-Savoie;Le Sappey 74259;E6.1667;N46.0833;13;
3;FRA;Rhône-Alpes;Haute-Savoie;Les Clefs 74079;E6.3333;N45.8667;13;
3;FRA;Rhône-Alpes;Haute-Savoie;Les Contamines-Montjoie 74085;E6.7333;N45.8333;13;
3;FRA;Rhône-Alpes;Haute-Savoie;Les Gets 74134;E6.6667;N46.1500;13;
3;FRA;Rhône-Alpes;Haute-Savoie;Les Houches 74143;E6.8000;N45.8833;13;
3;FRA;Rhône-Alpes;Haute-Savoie;Les Ollières 74204;E6.1833;N45.9667;13;
3;FRA;Rhône-Alpes;Haute-Savoie;Les Villards-sur-Thônes 74302;E6.8667;N45.9333;13;
3;FRA;Rhône-Alpes;Haute-Savoie;Leschaux 74148;E6.3667;N45.9167;13;
3;FRA;Rhône-Alpes;Haute-Savoie;Loëx 74149=74040;E6.3000;N46.1667;13;
3;FRA;Rhône-Alpes;Haute-Savoie;Loisin 74150;E6.3000;N46.3000;13;
3;FRA;Rhône-Alpes;Haute-Savoie;Lornay 74151;E5.9000;N45.9167;13;
3;FRA;Rhône-Alpes;Haute-Savoie;Lovagny 74152;E6.0333;N45.9000;13;
3;FRA;Rhône-Alpes;Haute-Savoie;Lucinges 74153;E6.3167;N46.2000;13;
3;FRA;Rhône-Alpes;Haute-Savoie;Lugrin 74154;E6.6833;N46.4000;13;
3;FRA;Rhône-Alpes;Haute-Savoie;Lullin 74155;E6.5333;N46.2833;13;
3;FRA;Rhône-Alpes;Haute-Savoie;Lully 74156;E6.4167;N46.2833;13;
3;FRA;Rhône-Alpes;Haute-Savoie;Lyaud 74157;E6.5333;N46.3333;13;
3;FRA;Rhône-Alpes;Haute-Savoie;Machilly 74158;E6.3333;N46.2500;13;
3;FRA;Rhône-Alpes;Haute-Savoie;Magland 74159;E6.6167;N46.0167;13;
3;FRA;Rhône-Alpes;Haute-Savoie;Manigod 74160;E6.3667;N45.8667;13;
3;FRA;Rhône-Alpes;Haute-Savoie;Marcellaz 74162;E6.3500;N46.1500;13;
3;FRA;Rhône-Alpes;Haute-Savoie;Marcellaz-Albanais 74161;E6.0000;N45.8667;13;
3;FRA;Rhône-Alpes;Haute-Savoie;Margencel 74163;E6.4333;N46.3333;13;
3;FRA;Rhône-Alpes;Haute-Savoie;Marignier 74164;E6.5167;N46.1000;13;
3;FRA;Rhône-Alpes;Haute-Savoie;Marigny-Saint-Marcel 74165;E5.9833;N45.8333;13;
3;FRA;Rhône-Alpes;Haute-Savoie;Marin 74166;E6.5333;N46.3833;13;
3;FRA;Rhône-Alpes;Haute-Savoie;Marlens 74167;E6.3500;N45.7667;13;
3;FRA;Rhône-Alpes;Haute-Savoie;Marlioz 74168;E6.0000;N46.0333;13;
3;FRA;Rhône-Alpes;Haute-Savoie;Marnaz 74169;E6.5333;N46.0667;13;
3;FRA;Rhône-Alpes;Haute-Savoie;Massingy 74170;E5.9333;N45.8333;13;
3;FRA;Rhône-Alpes;Haute-Savoie;Massongy 74171;E6.3333;N46.3167;13;
3;FRA;Rhône-Alpes;Haute-Savoie;Maxilly-sur-Léman 74172;E6.6500;N46.4000;13;
3;FRA;Rhône-Alpes;Haute-Savoie;Megève 74173;E6.6167;N45.8667;13;
3;FRA;Rhône-Alpes;Haute-Savoie;Mégevette 74174;E6.5000;N46.2000;13;
3;FRA;Rhône-Alpes;Haute-Savoie;Meillerie 74175;E6.7167;N46.4000;13;
3;FRA;Rhône-Alpes;Haute-Savoie;Menthon-Saint-Bernard 74176;E6.2000;N45.8500;13;
3;FRA;Rhône-Alpes;Haute-Savoie;Menthonnex-en-Bornes 74177;E6.1833;N46.0500;13;
3;FRA;Rhône-Alpes;Haute-Savoie;Menthonnex-sous-Clermont 74178;E5.9333;N45.9667;13;
3;FRA;Rhône-Alpes;Haute-Savoie;Mésigny 74179;E6.0000;N45.9833;13;
3;FRA;Rhône-Alpes;Haute-Savoie;Messery 74180;E6.3000;N46.3500;13;
3;FRA;Rhône-Alpes;Haute-Savoie;Metz-Tessy 74181;E6.1000;N45.9333;13;
3;FRA;Rhône-Alpes;Haute-Savoie;Meythet 74182;E6.1000;N45.9333;13;
3;FRA;Rhône-Alpes;Haute-Savoie;Mieussy 74183;E6.5333;N46.1500;13;
3;FRA;Rhône-Alpes;Haute-Savoie;Minzier 74184;E5.9833;N46.0500;13;
3;FRA;Rhône-Alpes;Haute-Savoie;Monnetier-Mornex 74185;E6.2000;N46.1667;13;
3;FRA;Rhône-Alpes;Haute-Savoie;Mont-Saxonnex 74189;E6.4833;N46.0500;13;
3;FRA;Rhône-Alpes;Haute-Savoie;Montagny-les-Lanches 74186;E6.0333;N45.8667;13;
3;FRA;Rhône-Alpes;Haute-Savoie;Montmin 74187;E6.2667;N45.8000;13;
3;FRA;Rhône-Alpes;Haute-Savoie;Montriond 74188;E6.6833;N46.2000;13;
3;FRA;Rhône-Alpes;Haute-Savoie;Morillon 74190;E6.6833;N46.0833;13;
3;FRA;Rhône-Alpes;Haute-Savoie;Morzine 74191;E6.7167;N46.1833;13;
3;FRA;Rhône-Alpes;Haute-Savoie;Moye 74192;E5.9167;N45.8667;13;
3;FRA;Rhône-Alpes;Haute-Savoie;Mûres 74194;E6.0333;N45.8000;13;
3;FRA;Rhône-Alpes;Haute-Savoie;Musièges 74195;E5.9500;N46.0167;13;
3;FRA;Rhône-Alpes;Haute-Savoie;Nancy-sur-Cluses 74196;E6.5833;N46.0333;13;
3;FRA;Rhône-Alpes;Haute-Savoie;Nangy 74197;E6.3000;N46.1500;13;
3;FRA;Rhône-Alpes;Haute-Savoie;Nâves-Parmelan 74198;E6.1833;N45.9333;13;
3;FRA;Rhône-Alpes;Haute-Savoie;Nernier 74199;E6.3000;N46.3667;13;
3;FRA;Rhône-Alpes;Haute-Savoie;Neuvecelle 74200;E6.6000;N46.4000;13;
3;FRA;Rhône-Alpes;Haute-Savoie;Neydens 74201;E6.1000;N46.1167;13;
3;FRA;Rhône-Alpes;Haute-Savoie;Nonglard 74202;E6.0333;N45.9167;13;
3;FRA;Rhône-Alpes;Haute-Savoie;Novel 74203;E6.7917;N46.3667;13;
3;FRA;Rhône-Alpes;Haute-Savoie;Onnion 74205;E6.4833;N46.1833;13;
3;FRA;Rhône-Alpes;Haute-Savoie;Orcier 74206;E6.5000;N46.3167;13;
3;FRA;Rhône-Alpes;Haute-Savoie;Passeirier 74207=74250;E6.3569;N46.0704;13;
3;FRA;Rhône-Alpes;Haute-Savoie;Passy 74208;E6.6833;N45.9167;13;
3;FRA;Rhône-Alpes;Haute-Savoie;Peillonnex 74209;E6.3833;N46.1333;13;
3;FRA;Rhône-Alpes;Haute-Savoie;Perrignier 74210;E6.4500;N46.3000;13;
3;FRA;Rhône-Alpes;Haute-Savoie;Pers-Jussy 74211;E6.2833;N46.1167;13;
3;FRA;Rhône-Alpes;Haute-Savoie;Poisy 74213;E6.0667;N45.9167;13;
3;FRA;Rhône-Alpes;Haute-Savoie;Pontchy 74214=74042;E6.4067;N46.0683;13;
3;FRA;Rhône-Alpes;Haute-Savoie;Praz-sur-Arly 74215;E6.5667;N45.8333;13;
3;FRA;Rhône-Alpes;Haute-Savoie;Présilly 74216;E6.0833;N46.1000;13;
3;FRA;Rhône-Alpes;Haute-Savoie;Pringy 74217;E6.1167;N45.9500;13;
3;FRA;Rhône-Alpes;Haute-Savoie;Publier 74218;E6.5500;N46.3833;13;
3;FRA;Rhône-Alpes;Haute-Savoie;Quintal 74219;E6.0833;N45.8333;13;
3;FRA;Rhône-Alpes;Haute-Savoie;Reignier 74220;E6.2667;N46.1333;13;
3;FRA;Rhône-Alpes;Haute-Savoie;Reyvroz 74222;E6.5667;N46.3333;13;
3;FRA;Rhône-Alpes;Haute-Savoie;Rumilly 74225;E5.9500;N45.8667;13;
3;FRA;Rhône-Alpes;Haute-Savoie;Saint-André-de-Boëge 74226;E6.4000;N46.2000;13;
3;FRA;Rhône-Alpes;Haute-Savoie;Saint-André-Val-de-Fier 74227=74274;E5.9000;N45.9333;13;
3;FRA;Rhône-Alpes;Haute-Savoie;Saint-Blaise 74228;E6.0833;N46.0667;13;
3;FRA;Rhône-Alpes;Haute-Savoie;Saint-Cergues 74229;E6.3167;N46.2333;13;
3;FRA;Rhône-Alpes;Haute-Savoie;Saint-Didier-en-Chablais 74230=74043;E6.3662;N46.2690;13;
3;FRA;Rhône-Alpes;Haute-Savoie;Saint-Eusèbe 74231;E5.9667;N45.9333;13;
3;FRA;Rhône-Alpes;Haute-Savoie;Saint-Eustache 74232;E6.1500;N45.8000;13;
3;FRA;Rhône-Alpes;Haute-Savoie;Saint-Félix 74233;E5.9667;N45.8000;13;
3;FRA;Rhône-Alpes;Haute-Savoie;Saint-Ferréol 74234;E6.3000;N45.7667;13;
3;FRA;Rhône-Alpes;Haute-Savoie;Saint-Germain-sur-Rhône 74235;E5.8167;N46.0667;13;
3;FRA;Rhône-Alpes;Haute-Savoie;Saint-Gervais-les-Bains 74236;E6.7167;N45.9000;13;
3;FRA;Rhône-Alpes;Haute-Savoie;Saint-Gingolph 74237;E6.6667;N46.3833;13;
3;FRA;Rhône-Alpes;Haute-Savoie;Saint-Jean-d'Aulps 74238;E6.6500;N46.2333;13;
3;FRA;Rhône-Alpes;Haute-Savoie;Saint-Jean-de-Sixt 74239;E6.4000;N45.9167;13;
3;FRA;Rhône-Alpes;Haute-Savoie;Saint-Jean-de-Tholome 74240;E6.4000;N46.1167;13;
3;FRA;Rhône-Alpes;Haute-Savoie;Saint-Jeoire 74241;E6.4667;N46.1500;13;
3;FRA;Rhône-Alpes;Haute-Savoie;Saint-Jorioz 74242;E6.1667;N45.8333;13;
3;FRA;Rhône-Alpes;Haute-Savoie;Saint-Julien-en-Genevois 74243;E6.0833;N46.1333;13;
3;FRA;Rhône-Alpes;Haute-Savoie;Saint-Laurent 74244;E6.3667;N46.0500;13;
3;FRA;Rhône-Alpes;Haute-Savoie;Saint-Martin-Bellevue 74245;E6.1333;N45.9500;13;
3;FRA;Rhône-Alpes;Haute-Savoie;Saint-Martin-sur-Arve 74246=74256;E6.6429;N45.9412;13;
3;FRA;Rhône-Alpes;Haute-Savoie;Saint-Maurice-de-Rumilly 74247=74250;E6.3631;N46.0598;13;
3;FRA;Rhône-Alpes;Haute-Savoie;Saint-Nicolas-de-Véroce 74248=74236;E6.7333;N45.8500;13;
3;FRA;Rhône-Alpes;Haute-Savoie;Saint-Paul-en-Chablais 74249;E6.6333;N46.3833;13;
3;FRA;Rhône-Alpes;Haute-Savoie;Saint-Pierre-en-Faucigny 74250;E6.3672;N46.0597;13;
3;FRA;Rhône-Alpes;Haute-Savoie;Saint-Roch 74251=74256;E6.6242;N45.9386;13;
3;FRA;Rhône-Alpes;Haute-Savoie;Saint-Sigismond 74252;E6.6157;N46.0719;13;
3;FRA;Rhône-Alpes;Haute-Savoie;Saint-Sixt 74253;E6.3333;N46.0500;13;
3;FRA;Rhône-Alpes;Haute-Savoie;Saint-Sylvestre 74254;E6.0192;N45.8393;13;
3;FRA;Rhône-Alpes;Haute-Savoie;Sales 74255;E5.9500;N45.8667;13;
3;FRA;Rhône-Alpes;Haute-Savoie;Sallanches 74256;E6.6333;N45.9333;13;
3;FRA;Rhône-Alpes;Haute-Savoie;Sallenôves 74257;E6.0000;N46.0000;13;
3;FRA;Rhône-Alpes;Haute-Savoie;Samoëns 74258;E6.7333;N46.0833;13;
3;FRA;Rhône-Alpes;Haute-Savoie;Savigny 74260;E5.9612;N46.0674;13;
3;FRA;Rhône-Alpes;Haute-Savoie;Saxel 74261;E6.4000;N46.2500;13;
3;FRA;Rhône-Alpes;Haute-Savoie;Scientrier 74262;E6.3333;N46.1167;13;
3;FRA;Rhône-Alpes;Haute-Savoie;Sciez 74263;E6.3833;N46.3333;13;
3;FRA;Rhône-Alpes;Haute-Savoie;Scionzier 74264;E6.5667;N46.0500;13;
3;FRA;Rhône-Alpes;Haute-Savoie;Serraval 74265;E6.3500;N45.8000;13;
3;FRA;Rhône-Alpes;Haute-Savoie;Servoz 74266;E6.7667;N45.9333;13;
3;FRA;Rhône-Alpes;Haute-Savoie;Sévrier 74267;E6.1333;N45.8667;13;
3;FRA;Rhône-Alpes;Haute-Savoie;Seynod 74268;E6.0833;N45.8833;13;
3;FRA;Rhône-Alpes;Haute-Savoie;Seyssel 74269;E5.8372;N45.9597;13;
3;FRA;Rhône-Alpes;Haute-Savoie;Seythenex 74270;E6.3000;N45.7167;13;
3;FRA;Rhône-Alpes;Haute-Savoie;Seytroux 74271;E6.6333;N46.2500;13;
3;FRA;Rhône-Alpes;Haute-Savoie;Sillingy 74272;E6.0333;N45.9500;13;
3;FRA;Rhône-Alpes;Haute-Savoie;Sixt-Fer-à-Cheval 74273;E5.9167;N45.9167;13;
3;FRA;Rhône-Alpes;Haute-Savoie;Talloires 74275;E6.2167;N45.8500;13;
3;FRA;Rhône-Alpes;Haute-Savoie;Taninges 74276;E6.6000;N46.1167;13;
3;FRA;Rhône-Alpes;Haute-Savoie;Thairy 74277=74243;E6.0623;N46.1432;13;
3;FRA;Rhône-Alpes;Haute-Savoie;Thollon-les-Mémises 74279;E6.7135;N46.3902;13;
3;FRA;Rhône-Alpes;Haute-Savoie;Thônes 74280;E6.3333;N45.8833;13;
3;FRA;Rhône-Alpes;Haute-Savoie;Thonon-les-Bains 74281;E6.4833;N46.3667;13;
3;FRA;Rhône-Alpes;Haute-Savoie;Thorens-Glières 74282;E6.2500;N45.9833;13;
3;FRA;Rhône-Alpes;Haute-Savoie;Thusy 74283;E5.9500;N45.9500;13;
3;FRA;Rhône-Alpes;Haute-Savoie;Thyez 74278;E6.5333;N46.0833;13;
3;FRA;Rhône-Alpes;Haute-Savoie;Usinens 74285;E5.8333;N46.0000;13;
3;FRA;Rhône-Alpes;Haute-Savoie;Vacheresse 74286;E6.6833;N46.3333;13;
3;FRA;Rhône-Alpes;Haute-Savoie;Vailly 74287;E6.5500;N46.3167;13;
3;FRA;Rhône-Alpes;Haute-Savoie;Val-de-Fier 74274;E5.9046;N45.9250;13;
3;FRA;Rhône-Alpes;Haute-Savoie;Valleiry 74288;E5.9667;N46.1167;13;
3;FRA;Rhône-Alpes;Haute-Savoie;Vallières 74289;E5.9333;N45.9000;13;
3;FRA;Rhône-Alpes;Haute-Savoie;Vallorcine 74290;E6.9333;N46.0333;13;
3;FRA;Rhône-Alpes;Haute-Savoie;Vanzy 74291;E5.8833;N46.0500;13;
3;FRA;Rhône-Alpes;Haute-Savoie;Vaulx 74292;E6.0000;N45.9333;13;
3;FRA;Rhône-Alpes;Haute-Savoie;Veigy-Foncenex 74293;E6.2500;N46.2667;13;
3;FRA;Rhône-Alpes;Haute-Savoie;Verchaix 74294;E6.6833;N46.1000;13;
3;FRA;Rhône-Alpes;Haute-Savoie;Vers 74296;E6.0333;N46.1000;13;
3;FRA;Rhône-Alpes;Haute-Savoie;Versonnex 74297;E5.9275;N45.9281;13;
3;FRA;Rhône-Alpes;Haute-Savoie;Vétraz-Monthoux 74298;E6.2667;N46.1667;13;
3;FRA;Rhône-Alpes;Haute-Savoie;Veyrier-du-Lac 74299;E6.1667;N45.8833;13;
3;FRA;Rhône-Alpes;Haute-Savoie;Vieugy 74300=74268;E6.0833;N45.8667;13;
3;FRA;Rhône-Alpes;Haute-Savoie;Villard 74301;E6.4417;N46.2167;13;
3;FRA;Rhône-Alpes;Haute-Savoie;Villaz 74303;E6.1833;N45.9500;13;
3;FRA;Rhône-Alpes;Haute-Savoie;Ville-en-Sallaz 74304;E6.4167;N46.1500;13;
3;FRA;Rhône-Alpes;Haute-Savoie;Ville-la-Grand 74305;E6.2500;N46.2000;13;
3;FRA;Rhône-Alpes;Haute-Savoie;Villy-le-Bouveret 74306;E6.1667;N46.0333;13;
3;FRA;Rhône-Alpes;Haute-Savoie;Villy-le-Pelloux 74307;E6.1333;N46.0000;13;
3;FRA;Rhône-Alpes;Haute-Savoie;Vinzier 74308;E6.6333;N46.3500;13;
3;FRA;Rhône-Alpes;Haute-Savoie;Viry 74309;E6.0333;N46.1167;13;
3;FRA;Rhône-Alpes;Haute-Savoie;Viuz-en-Sallaz 74311;E6.4167;N46.1500;13;
3;FRA;Rhône-Alpes;Haute-Savoie;Viuz-la-Chiésaz 74310;E6.0667;N45.8000;13;
3;FRA;Rhône-Alpes;Haute-Savoie;Vougy 74312;E6.5000;N46.0667;13;
3;FRA;Rhône-Alpes;Haute-Savoie;Vovray-en-Bornes 74313;E6.1500;N46.0667;13;
3;FRA;Rhône-Alpes;Haute-Savoie;Vulbens 74314;E5.9333;N46.1000;13;
3;FRA;Rhône-Alpes;Haute-Savoie;Yvoire 74315;E6.3333;N46.3667;13;
2;FRA;Rhône-Alpes;Isère;;E5.50;N45.29;9;
3;FRA;Rhône-Alpes;Isère;Agnin 38003;E4.8667;N45.3333;13;
3;FRA;Rhône-Alpes;Isère;Allemond 38005;E6.0364;N45.1306;13;
3;FRA;Rhône-Alpes;Isère;Allevard 38006;E6.0667;N45.4000;13;
3;FRA;Rhône-Alpes;Isère;Allières-et-Risset 38007=38524;E5.6724;N45.1068;13;
3;FRA;Rhône-Alpes;Isère;Ambel 38008;E5.9333;N44.8167;13;
3;FRA;Rhône-Alpes;Isère;Anjou 38009;E4.8833;N45.3500;13;
3;FRA;Rhône-Alpes;Isère;Annoisin-Chatelans 38010;E5.2925;N45.7569;13;
3;FRA;Rhône-Alpes;Isère;Anthon 38011;E5.1667;N45.8000;13;
3;FRA;Rhône-Alpes;Isère;Aoste 38012;E5.6000;N45.5833;13;
3;FRA;Rhône-Alpes;Isère;Apprieu 38013;E5.5000;N45.4000;13;
3;FRA;Rhône-Alpes;Isère;Arandon 38014;E5.4333;N45.7167;13;
3;FRA;Rhône-Alpes;Isère;Artas 38015;E5.1667;N45.5333;13;
3;FRA;Rhône-Alpes;Isère;Arzay 38016;E5.1667;N45.4333;13;
3;FRA;Rhône-Alpes;Isère;Assieu 38017;E4.8667;N45.4167;13;
3;FRA;Rhône-Alpes;Isère;Auberives-en-Royans 38018;E5.3000;N45.0667;13;
3;FRA;Rhône-Alpes;Isère;Auberives-sur-Varèze 38019;E4.8333;N45.4333;13;
3;FRA;Rhône-Alpes;Isère;Auris 38020;E6.0833;N45.0500;13;
3;FRA;Rhône-Alpes;Isère;Autrans 38021;E5.5500;N45.1667;13;
3;FRA;Rhône-Alpes;Isère;Avignonet 38023;E5.6833;N44.9500;13;
3;FRA;Rhône-Alpes;Isère;Badinières 38024;E5.3000;N45.5000;13;
3;FRA;Rhône-Alpes;Isère;Balbins 38025;E5.2167;N45.3833;13;
3;FRA;Rhône-Alpes;Isère;Barraux 38027;E5.9833;N45.4333;13;
3;FRA;Rhône-Alpes;Isère;Beaucroissant 38030;E5.1167;N45.6833;13;
3;FRA;Rhône-Alpes;Isère;Beaufin 38031;E5.4667;N45.3333;13;
3;FRA;Rhône-Alpes;Isère;Beaufort 38032;E5.1211;N45.3260;13;
3;FRA;Rhône-Alpes;Isère;Beaulieu 38033;E5.9500;N44.7833;13;
3;FRA;Rhône-Alpes;Isère;Beaurepaire 38034;E5.3833;N45.2000;13;
3;FRA;Rhône-Alpes;Isère;Beauvoir-de-Marc 38035;E5.0500;N45.3333;13;
3;FRA;Rhône-Alpes;Isère;Beauvoir-en-Royans 38036;E5.0833;N45.5167;13;
3;FRA;Rhône-Alpes;Isère;Bellegarde-Poussieu 38037;E4.9500;N45.3833;13;
3;FRA;Rhône-Alpes;Isère;Belmont 38038;E5.3651;N45.4734;13;
3;FRA;Rhône-Alpes;Isère;Bernin 38039;E5.8667;N45.2667;13;
3;FRA;Rhône-Alpes;Isère;Besse 38040;E6.1667;N45.0667;13;
3;FRA;Rhône-Alpes;Isère;Bessins 38041;E5.2667;N45.2000;13;
3;FRA;Rhône-Alpes;Isère;Bévenais 38042;E5.3833;N45.4000;13;
3;FRA;Rhône-Alpes;Isère;Bilieu 38043;E5.5500;N45.4500;13;
3;FRA;Rhône-Alpes;Isère;Biol 38044;E5.3845;N45.4922;13;
3;FRA;Rhône-Alpes;Isère;Biviers 38045;E5.8000;N45.2333;13;
3;FRA;Rhône-Alpes;Isère;Bizonnes 38046;E5.3667;N45.4500;13;
3;FRA;Rhône-Alpes;Isère;Blandin 38047;E5.4500;N45.4667;13;
3;FRA;Rhône-Alpes;Isère;Bonnefamille 38048;E5.1167;N45.6000;13;
3;FRA;Rhône-Alpes;Isère;Bossieu 38049;E5.1500;N45.4167;13;
3;FRA;Rhône-Alpes;Isère;Bougé-Chambalud 38051;E4.9000;N45.3333;13;
3;FRA;Rhône-Alpes;Isère;Bourgoin-Jallieu 38053;E5.2797;N45.5917;13;
3;FRA;Rhône-Alpes;Isère;Bouvesse-Quirieu 38054;E5.4000;N45.8000;13;
3;FRA;Rhône-Alpes;Isère;Brangues 38055;E5.5333;N45.7000;13;
3;FRA;Rhône-Alpes;Isère;Bressieux 38056;E5.2833;N45.3167;13;
3;FRA;Rhône-Alpes;Isère;Bresson 38057;E5.7500;N45.1333;13;
3;FRA;Rhône-Alpes;Isère;Brézins 38058;E5.3167;N45.3500;13;
3;FRA;Rhône-Alpes;Isère;Brié-et-Angonnes 38059;E5.8000;N45.1167;13;
3;FRA;Rhône-Alpes;Isère;Brion 38060;E5.3333;N45.3000;13;
3;FRA;Rhône-Alpes;Isère;Burcin 38063;E5.4333;N45.4333;13;
3;FRA;Rhône-Alpes;Isère;Cessieu 38064;E5.3667;N45.5667;13;
3;FRA;Rhône-Alpes;Isère;Châbons 38065;E5.4333;N45.4167;13;
3;FRA;Rhône-Alpes;Isère;Châlons 38066;E4.9333;N45.4500;13;
3;FRA;Rhône-Alpes;Isère;Chamagnieu 38067;E5.1667;N45.6833;13;
3;FRA;Rhône-Alpes;Isère;Champ-sur-Drac 38071;E5.7333;N45.0667;13;
3;FRA;Rhône-Alpes;Isère;Champagnier 38068;E5.7167;N45.1000;13;
3;FRA;Rhône-Alpes;Isère;Champier 38069;E5.2833;N45.4500;13;
3;FRA;Rhône-Alpes;Isère;Chamrousse 38567;E5.9000;N45.1333;13;
3;FRA;Rhône-Alpes;Isère;Chanas 38072;E4.8167;N45.3000;13;
3;FRA;Rhône-Alpes;Isère;Chantelouve 38073;E5.9636;N44.9814;13;
3;FRA;Rhône-Alpes;Isère;Chantesse 38074;E5.4500;N45.2333;13;
3;FRA;Rhône-Alpes;Isère;Chapareillan 38075;E5.9667;N45.4667;13;
3;FRA;Rhône-Alpes;Isère;Chaponnay 38079=69270;E5.5667;N45.5167;13;
3;FRA;Rhône-Alpes;Isère;Charancieu 38080;E5.5796;N45.5239;13;
3;FRA;Rhône-Alpes;Isère;Charantonnay 38081;E5.1000;N45.5333;13;
3;FRA;Rhône-Alpes;Isère;Charavines 38082;E5.5167;N45.4333;13;
3;FRA;Rhône-Alpes;Isère;Charette 38083;E5.3667;N45.8167;13;
3;FRA;Rhône-Alpes;Isère;Charnècles 38084;E5.5333;N45.3500;13;
3;FRA;Rhône-Alpes;Isère;Charvieu-Chavagneux 38085;E5.1545;N45.7473;13;
3;FRA;Rhône-Alpes;Isère;Chasse-sur-Rhône 38087;E4.8167;N45.5667;13;
3;FRA;Rhône-Alpes;Isère;Chasselay 38086;E5.3333;N45.2500;13;
3;FRA;Rhône-Alpes;Isère;Chassieu 38088=69271;E4.9722;N45.7430;13;
3;FRA;Rhône-Alpes;Isère;Chassignieu 38089;E5.5000;N45.5000;13;
3;FRA;Rhône-Alpes;Isère;Château-Bernard 38090;E5.5833;N44.9833;13;
3;FRA;Rhône-Alpes;Isère;Châteauvilain 38091;E5.3296;N45.5173;13;
3;FRA;Rhône-Alpes;Isère;Châtelus 38092;E5.3667;N45.0500;13;
3;FRA;Rhône-Alpes;Isère;Châtenay 38093;E5.2333;N45.3167;13;
3;FRA;Rhône-Alpes;Isère;Châtonnay 38094;E5.2000;N45.4833;13;
3;FRA;Rhône-Alpes;Isère;Chatte 38095;E5.2833;N45.1500;13;
3;FRA;Rhône-Alpes;Isère;Chavagneux-Montbertand 38096=38085;E5.1667;N45.7417;13;
3;FRA;Rhône-Alpes;Isère;Chavanoz 38097;E5.1667;N45.7833;13;
3;FRA;Rhône-Alpes;Isère;Chélieu 38098;E5.4833;N45.5000;13;
3;FRA;Rhône-Alpes;Isère;Chevrières 38099;E5.3000;N45.1833;13;
3;FRA;Rhône-Alpes;Isère;Cheyssieu 38101;E4.8500;N45.4333;13;
3;FRA;Rhône-Alpes;Isère;Chèzeneuve 38102;E5.2167;N45.5667;13;
3;FRA;Rhône-Alpes;Isère;Chichilianne 38103;E5.5667;N44.8167;13;
3;FRA;Rhône-Alpes;Isère;Chimilin 38104;E5.6000;N45.5833;13;
3;FRA;Rhône-Alpes;Isère;Chirens 38105;E5.5500;N45.4167;13;
3;FRA;Rhône-Alpes;Isère;Cholonge 38106;E5.8000;N45.0000;13;
3;FRA;Rhône-Alpes;Isère;Chonas-l'Amballan 38107;E4.8167;N45.4667;13;
3;FRA;Rhône-Alpes;Isère;Choranche 38108;E5.4000;N45.0667;13;
3;FRA;Rhône-Alpes;Isère;Chozeau 38109;E5.2167;N45.7000;13;
3;FRA;Rhône-Alpes;Isère;Chuzelles 38110;E4.8833;N45.5833;13;
3;FRA;Rhône-Alpes;Isère;Claix 38111;E5.6667;N45.1167;13;
3;FRA;Rhône-Alpes;Isère;Clavans-en-Haut-Oisans 38112;E6.1500;N45.0667;13;
3;FRA;Rhône-Alpes;Isère;Clelles 38113;E5.6167;N44.8333;13;
3;FRA;Rhône-Alpes;Isère;Clonas-sur-Varèze 38114;E4.8000;N45.4167;13;
3;FRA;Rhône-Alpes;Isère;Cognet 38116;E5.7833;N44.8833;13;
3;FRA;Rhône-Alpes;Isère;Cognin-les-Gorges 38117;E5.4167;N45.1667;13;
3;FRA;Rhône-Alpes;Isère;Colombe 38118;E5.4500;N45.4000;13;
3;FRA;Rhône-Alpes;Isère;Colombier-Saugnieu 38119=69299;E5.1167;N45.5833;13;
3;FRA;Rhône-Alpes;Isère;Commelle 38121;E5.2167;N45.4167;13;
3;FRA;Rhône-Alpes;Isère;Communay 38122=69272;E4.8329;N45.6065;13;
3;FRA;Rhône-Alpes;Isère;Corbas 38123=69273;E4.8987;N45.6712;13;
3;FRA;Rhône-Alpes;Isère;Corbelin 38124;E5.5500;N45.6000;13;
3;FRA;Rhône-Alpes;Isère;Cordéac 38125;E5.8500;N44.8333;13;
3;FRA;Rhône-Alpes;Isère;Corenc 38126;E5.7667;N45.2167;13;
3;FRA;Rhône-Alpes;Isère;Cornillon-en-Trièves 38127;E5.7000;N44.8333;13;
3;FRA;Rhône-Alpes;Isère;Corps 38128;E5.9500;N44.8167;13;
3;FRA;Rhône-Alpes;Isère;Corrençon-en-Vercors 38129;E5.5333;N45.0333;13;
3;FRA;Rhône-Alpes;Isère;Coublevie 38133;E5.6167;N45.3500;13;
3;FRA;Rhône-Alpes;Isère;Cour-et-Buis 38134;E5.0000;N45.4333;13;
3;FRA;Rhône-Alpes;Isère;Courtenay 38135;E5.3833;N45.7333;13;
3;FRA;Rhône-Alpes;Isère;Crachier 38136;E5.2333;N45.5500;13;
3;FRA;Rhône-Alpes;Isère;Cras 38137;E5.4500;N45.2667;13;
3;FRA;Rhône-Alpes;Isère;Crémieu 38138;E5.2500;N45.7167;13;
3;FRA;Rhône-Alpes;Isère;Creys-Mépieu 38139;E5.4886;N45.7281;13;
3;FRA;Rhône-Alpes;Isère;Crolles 38140;E5.8833;N45.2833;13;
3;FRA;Rhône-Alpes;Isère;Culin 38141;E5.2500;N45.5167;13;
3;FRA;Rhône-Alpes;Isère;Curtin 38142=38543;E5.4833;N45.6500;13;
3;FRA;Rhône-Alpes;Isère;Décines-Charpieu 38143=69275;E4.9659;N45.7633;13;
3;FRA;Rhône-Alpes;Isère;Diémoz 38144;E5.1000;N45.5833;13;
3;FRA;Rhône-Alpes;Isère;Dionay 38145;E5.2167;N45.2000;13;
3;FRA;Rhône-Alpes;Isère;Dizimieu 38146;E5.3000;N45.7167;13;
3;FRA;Rhône-Alpes;Isère;Doissin 38147;E5.4167;N45.5000;13;
3;FRA;Rhône-Alpes;Isère;Dolomieu 38148;E5.5000;N45.6167;13;
3;FRA;Rhône-Alpes;Isère;Domarin 38149;E5.2500;N45.5833;13;
3;FRA;Rhône-Alpes;Isère;Domène 38150;E5.8333;N45.2000;13;
3;FRA;Rhône-Alpes;Isère;Échirolles 38151;E5.7167;N45.1333;13;
3;FRA;Rhône-Alpes;Isère;Eclose 38152;E5.3000;N45.5000;13;
3;FRA;Rhône-Alpes;Isère;Engins 38153;E5.6167;N45.1833;13;
3;FRA;Rhône-Alpes;Isère;Entraigues 38154;E5.9484;N44.9017;13;
3;FRA;Rhône-Alpes;Isère;Entre-deux-Guiers 38155;E5.7500;N45.4333;13;
3;FRA;Rhône-Alpes;Isère;Estrablin 38157;E4.9667;N45.5167;13;
3;FRA;Rhône-Alpes;Isère;Eybens 38158;E5.7500;N45.1500;13;
3;FRA;Rhône-Alpes;Isère;Eydoche 38159;E5.3333;N45.4333;13;
3;FRA;Rhône-Alpes;Isère;Eyzin-Pinet 38160;E4.9833;N45.4667;13;
3;FRA;Rhône-Alpes;Isère;Faramans 38161;E5.1667;N45.3833;13;
3;FRA;Rhône-Alpes;Isère;Faverges-de-la-Tour 38162;E5.5167;N45.5833;13;
3;FRA;Rhône-Alpes;Isère;Feyzin 38164=69276;E4.8567;N45.6700;13;
3;FRA;Rhône-Alpes;Isère;Fitilieu 38165;E5.5667;N45.5500;13;
3;FRA;Rhône-Alpes;Isère;Flachères 38167;E5.3167;N45.4667;13;
3;FRA;Rhône-Alpes;Isère;Fontaine 38169;E5.6667;N45.1833;13;
3;FRA;Rhône-Alpes;Isère;Fontanil-Cornillon 38170;E5.6667;N45.2500;13;
3;FRA;Rhône-Alpes;Isère;Four 38172;E5.1833;N45.5833;13;
3;FRA;Rhône-Alpes;Isère;Froges 38175;E5.9167;N45.2667;13;
3;FRA;Rhône-Alpes;Isère;Frontonas 38176;E5.1833;N45.6500;13;
3;FRA;Rhône-Alpes;Isère;Genas 38178=69277;E4.9969;N45.7322;13;
3;FRA;Rhône-Alpes;Isère;Gières 38179;E5.7833;N45.1833;13;
3;FRA;Rhône-Alpes;Isère;Gillonnay 38180;E5.2833;N45.3833;13;
3;FRA;Rhône-Alpes;Isère;Goncelin 38181;E5.9833;N45.3333;13;
3;FRA;Rhône-Alpes;Isère;Granieu 38183;E5.5833;N45.6000;13;
3;FRA;Rhône-Alpes;Isère;Grenay 38184;E5.0833;N45.6667;13;
3;FRA;Rhône-Alpes;Isère;Grenoble 38185;E5.7167;N45.1667;13;
3;FRA;Rhône-Alpes;Isère;Gresse-en-Vercors 38186;E5.5667;N44.9000;13;
3;FRA;Rhône-Alpes;Isère;Herbeys 38188;E5.7833;N45.1333;13;
3;FRA;Rhône-Alpes;Isère;Heyrieux 38189;E5.0500;N45.6333;13;
3;FRA;Rhône-Alpes;Isère;Hières-sur-Amby 38190;E5.2833;N45.8000;13;
3;FRA;Rhône-Alpes;Isère;Huez 38191;E6.0500;N45.0833;13;
3;FRA;Rhône-Alpes;Isère;Hurtières 38192;E5.9667;N45.2833;13;
3;FRA;Rhône-Alpes;Isère;Izeaux 38194;E5.4167;N45.3333;13;
3;FRA;Rhône-Alpes;Isère;Izeron 38195;E5.3833;N45.1500;13;
3;FRA;Rhône-Alpes;Isère;Jallieu 38196=38053;E5.2667;N45.5833;13;
3;FRA;Rhône-Alpes;Isère;Janneyrias 38197;E5.1000;N45.7500;13;
3;FRA;Rhône-Alpes;Isère;Jarcieu 38198;E4.9500;N45.3333;13;
3;FRA;Rhône-Alpes;Isère;Jardin 38199;E4.9167;N45.5000;13;
3;FRA;Rhône-Alpes;Isère;Jarrie 38200;E5.7667;N45.1167;13;
3;FRA;Rhône-Alpes;Isère;Jonage 38201=69279;E5.0464;N45.7962;13;
3;FRA;Rhône-Alpes;Isère;Jons 38202=69280;E5.0783;N45.8075;13;
3;FRA;Rhône-Alpes;Isère;L'Albenc 38004;E5.4333;N45.2167;13;
3;FRA;Rhône-Alpes;Isère;L'Isle-d'Abeau 38193;E5.2333;N45.6167;13;
3;FRA;Rhône-Alpes;Isère;La Balme-les-Grottes 38026;E5.3333;N45.8500;13;
3;FRA;Rhône-Alpes;Isère;La Bâtie-Divisin 38028;E5.6000;N45.5000;13;
3;FRA;Rhône-Alpes;Isère;La Bâtie-Montgascon 38029;E5.5333;N45.5833;13;
3;FRA;Rhône-Alpes;Isère;La Buisse 38061;E5.6167;N45.3333;13;
3;FRA;Rhône-Alpes;Isère;La Buissière 38062;E5.9833;N45.4000;13;
3;FRA;Rhône-Alpes;Isère;La Chapelle-de-la-Tour 38076;E5.4667;N45.5833;13;
3;FRA;Rhône-Alpes;Isère;La Chapelle-de-Surieu 38077;E4.9000;N45.4000;13;
3;FRA;Rhône-Alpes;Isère;La Chapelle-du-Bard 38078;E6.1000;N45.4167;13;
3;FRA;Rhône-Alpes;Isère;La Combe-de-Lancey 38120;E5.9000;N45.2333;13;
3;FRA;Rhône-Alpes;Isère;La Côte-Saint-André 38130;E5.2500;N45.3833;13;
3;FRA;Rhône-Alpes;Isère;La Ferrière 38163;E6.0833;N45.3167;13;
3;FRA;Rhône-Alpes;Isère;La Flachère 38166;E5.9627;N45.3988;13;
3;FRA;Rhône-Alpes;Isère;La Folatière 38168=38315;E5.6540;N45.5373;13;
3;FRA;Rhône-Alpes;Isère;La Forteresse 38171;E5.4000;N45.3000;13;
3;FRA;Rhône-Alpes;Isère;La Frette 38174;E5.3500;N45.3833;13;
3;FRA;Rhône-Alpes;Isère;La Garde 38177;E6.0486;N45.0667;13;
3;FRA;Rhône-Alpes;Isère;La Morte 38264;E5.8500;N45.0333;13;
3;FRA;Rhône-Alpes;Isère;La Motte-d'Aveillans 38265;E5.7500;N44.9500;13;
3;FRA;Rhône-Alpes;Isère;La Motte-Saint-Martin 38266;E5.7167;N44.9500;13;
3;FRA;Rhône-Alpes;Isère;La Mure 38269;E5.7870;N44.9057;13;
3;FRA;Rhône-Alpes;Isère;La Murette 38270;E5.5333;N45.3667;13;
3;FRA;Rhône-Alpes;Isère;La Pierre 38303;E5.9500;N45.2917;13;
3;FRA;Rhône-Alpes;Isère;La Rivière 38338;E5.5167;N45.2333;13;
3;FRA;Rhône-Alpes;Isère;La Salette-Fallavaux 38469;E5.9833;N44.8500;13;
3;FRA;Rhône-Alpes;Isère;La Salle-en-Beaumont 38470;E5.8667;N44.8667;13;
3;FRA;Rhône-Alpes;Isère;La Sône 38495;E5.2833;N45.1167;13;
3;FRA;Rhône-Alpes;Isère;La Terrasse 38503;E5.9333;N45.3333;13;
3;FRA;Rhône-Alpes;Isère;La Tour-du-Pin 38509;E5.4500;N45.5667;13;
3;FRA;Rhône-Alpes;Isère;La Tronche 38516;E5.7333;N45.2000;13;
3;FRA;Rhône-Alpes;Isère;La Valette 38521;E5.8561;N44.9421;13;
3;FRA;Rhône-Alpes;Isère;La Verpillière 38537;E5.1500;N45.6333;13;
3;FRA;Rhône-Alpes;Isère;Laffrey 38203;E5.7667;N45.0333;13;
3;FRA;Rhône-Alpes;Isère;Lalley 38204;E5.6833;N44.7500;13;
3;FRA;Rhône-Alpes;Isère;Lans-en-Vercors 38205;E5.5833;N45.1167;13;
3;FRA;Rhône-Alpes;Isère;Laval 38206;E5.9333;N45.2500;13;
3;FRA;Rhône-Alpes;Isère;Lavaldens 38207;E5.8833;N44.9833;13;
3;FRA;Rhône-Alpes;Isère;Lavars 38208;E5.6667;N44.8500;13;
3;FRA;Rhône-Alpes;Isère;Le Bouchage 38050;E5.5333;N45.6667;13;
3;FRA;Rhône-Alpes;Isère;Le Bourg-d'Oisans 38052;E6.0333;N45.0500;13;
3;FRA;Rhône-Alpes;Isère;Le Champ-près-Froges 38070;E5.9333;N45.2833;13;
3;FRA;Rhône-Alpes;Isère;Le Cheylas 38100;E6.0000;N45.3667;13;
3;FRA;Rhône-Alpes;Isère;Le Freney-d'Oisans 38173;E6.1167;N45.0333;13;
3;FRA;Rhône-Alpes;Isère;Le Grand-Lemps 38182;E5.4167;N45.3833;13;
3;FRA;Rhône-Alpes;Isère;Le Gua 38187;E5.6167;N45.0167;13;
3;FRA;Rhône-Alpes;Isère;Le Monestier-du-Percy 38243;E5.6500;N44.8000;13;
3;FRA;Rhône-Alpes;Isère;Le Moutaret 38268;E6.0833;N45.4333;13;
3;FRA;Rhône-Alpes;Isère;Le Passage 38296;E5.5000;N45.5167;13;
3;FRA;Rhône-Alpes;Isère;Le Péage-de-Roussillon 38298;E4.8000;N45.3667;13;
3;FRA;Rhône-Alpes;Isère;Le Périer 38302;E5.9667;N44.9333;13;
3;FRA;Rhône-Alpes;Isère;Le Pin 38305;E5.5000;N45.4500;13;
3;FRA;Rhône-Alpes;Isère;Le Pont-de-Beauvoisin 38315;E5.6667;N45.5333;13;
3;FRA;Rhône-Alpes;Isère;Le Pont-de-Claix 38317;E5.7000;N45.1167;13;
3;FRA;Rhône-Alpes;Isère;Le Sappey-en-Chartreuse 38471;E5.7833;N45.2667;13;
3;FRA;Rhône-Alpes;Isère;Le Touvet 38511;E5.9500;N45.3500;13;
3;FRA;Rhône-Alpes;Isère;Le Versoud 38538;E5.8667;N45.2000;13;
3;FRA;Rhône-Alpes;Isère;Lentiol 38209;E5.1167;N45.3000;13;
3;FRA;Rhône-Alpes;Isère;Les Abrets 38001;E5.5833;N45.5333;13;
3;FRA;Rhône-Alpes;Isère;Les Adrets 38002;E5.9667;N45.2667;13;
3;FRA;Rhône-Alpes;Isère;Les Avenières 38022;E5.5667;N45.6333;13;
3;FRA;Rhône-Alpes;Isère;Les Côtes-d'Arey 38131;E4.8690;N45.4567;13;
3;FRA;Rhône-Alpes;Isère;Les Côtes-de-Corps 38132;E5.9231;N44.8319;13;
3;FRA;Rhône-Alpes;Isère;Les Éparres 38156;E5.3000;N45.5333;13;
3;FRA;Rhône-Alpes;Isère;Les Roches-de-Condrieu 38340;E4.7667;N45.4500;13;
3;FRA;Rhône-Alpes;Isère;Leyrieu 38210;E5.2500;N45.7500;13;
3;FRA;Rhône-Alpes;Isère;Lieudieu 38211;E5.1833;N45.4667;13;
3;FRA;Rhône-Alpes;Isère;Livet-et-Gavet 38212;E5.9333;N45.1000;13;
3;FRA;Rhône-Alpes;Isère;Longechenal 38213;E5.3333;N45.4167;13;
3;FRA;Rhône-Alpes;Isère;Lumbin 38214;E5.9167;N45.3167;13;
3;FRA;Rhône-Alpes;Isère;Luzinay 38215;E4.9500;N45.5833;13;
3;FRA;Rhône-Alpes;Isère;Malleval 38216;E5.4370;N45.1468;13;
3;FRA;Rhône-Alpes;Isère;Marcieu 38217;E5.6833;N44.9167;13;
3;FRA;Rhône-Alpes;Isère;Marcilloles 38218;E5.1833;N45.3333;13;
3;FRA;Rhône-Alpes;Isère;Marcollin 38219;E5.0833;N45.3000;13;
3;FRA;Rhône-Alpes;Isère;Marennes 38220=69281;E4.9102;N45.6192;13;
3;FRA;Rhône-Alpes;Isère;Marnans 38221;E5.2333;N45.3000;13;
3;FRA;Rhône-Alpes;Isère;Massieu 38222;E5.5833;N45.4333;13;
3;FRA;Rhône-Alpes;Isère;Maubec 38223;E5.3000;N45.5667;13;
3;FRA;Rhône-Alpes;Isère;Mayres-Savel 38224;E5.7221;N44.8744;13;
3;FRA;Rhône-Alpes;Isère;Méaudre 38225;E5.5333;N45.1333;13;
3;FRA;Rhône-Alpes;Isère;Mens 38226;E5.7500;N44.8167;13;
3;FRA;Rhône-Alpes;Isère;Mépieu 38227=38139;E5.4500;N45.7500;13;
3;FRA;Rhône-Alpes;Isère;Merlas 38228;E5.6667;N45.4500;13;
3;FRA;Rhône-Alpes;Isère;Meylan 38229;E5.7833;N45.2333;13;
3;FRA;Rhône-Alpes;Isère;Meyrié 38230;E5.2833;N45.5667;13;
3;FRA;Rhône-Alpes;Isère;Meyrieu-les-Étangs 38231;E5.2013;N45.5150;13;
3;FRA;Rhône-Alpes;Isère;Meyssiès 38232;E5.0500;N45.4667;13;
3;FRA;Rhône-Alpes;Isère;Meyzieu 38233=69282;E5.0033;N45.7667;13;
3;FRA;Rhône-Alpes;Isère;Mions 38234=69283;E4.9559;N45.6629;13;
3;FRA;Rhône-Alpes;Isère;Miribel-Lanchâtre 38235;E5.6167;N44.9667;13;
3;FRA;Rhône-Alpes;Isère;Miribel-les-Échelles 38236;E5.7000;N45.4167;13;
3;FRA;Rhône-Alpes;Isère;Mizoën 38237;E6.1333;N45.0500;13;
3;FRA;Rhône-Alpes;Isère;Moidieu-Détourbe 38238;E5.0167;N45.5167;13;
3;FRA;Rhône-Alpes;Isère;Moirans 38239;E5.5667;N45.3333;13;
3;FRA;Rhône-Alpes;Isère;Moissieu-sur-Dolon 38240;E4.9833;N45.3833;13;
3;FRA;Rhône-Alpes;Isère;Monestier-d'Ambel 38241;E5.9333;N44.7833;13;
3;FRA;Rhône-Alpes;Isère;Monestier-de-Clermont 38242;E5.6333;N44.9000;13;
3;FRA;Rhône-Alpes;Isère;Monsteroux-Milieu 38244;E4.9500;N45.4333;13;
3;FRA;Rhône-Alpes;Isère;Mont-de-Lans 38253;E6.1333;N45.0333;13;
3;FRA;Rhône-Alpes;Isère;Mont-Saint-Martin 38258;E5.6667;N45.2667;13;
3;FRA;Rhône-Alpes;Isère;Montagne 38245;E5.2000;N45.1500;13;
3;FRA;Rhône-Alpes;Isère;Montagnieu 38246;E5.4500;N45.5167;13;
3;FRA;Rhône-Alpes;Isère;Montalieu-Vercieu 38247;E5.4000;N45.8167;13;
3;FRA;Rhône-Alpes;Isère;Montaud 38248;E5.5667;N45.2667;13;
3;FRA;Rhône-Alpes;Isère;Montbonnot-Saint-Martin 38249;E5.8000;N45.2333;13;
3;FRA;Rhône-Alpes;Isère;Montcarra 38250;E5.3833;N45.6167;13;
3;FRA;Rhône-Alpes;Isère;Montceau 38251=38348;E5.3833;N45.5833;13;
3;FRA;Rhône-Alpes;Isère;Montchaboud 38252;E5.7667;N45.1000;13;
3;FRA;Rhône-Alpes;Isère;Monteynard 38254;E5.7000;N44.9667;13;
3;FRA;Rhône-Alpes;Isère;Montfalcon 38255;E5.1667;N45.2500;13;
3;FRA;Rhône-Alpes;Isère;Montferrat 38256;E5.5833;N45.4833;13;
3;FRA;Rhône-Alpes;Isère;Montrevel 38257;E5.4000;N45.4667;13;
3;FRA;Rhône-Alpes;Isère;Montseveroux 38259;E4.9667;N45.4333;13;
3;FRA;Rhône-Alpes;Isère;Moras 38260;E5.2567;N45.6881;13;
3;FRA;Rhône-Alpes;Isère;Morestel 38261;E5.4667;N45.6667;13;
3;FRA;Rhône-Alpes;Isère;Morêtel-de-Mailles 38262;E6.0000;N45.3667;13;
3;FRA;Rhône-Alpes;Isère;Morette 38263;E5.4500;N45.2833;13;
3;FRA;Rhône-Alpes;Isère;Mottier 38267;E5.3167;N45.4167;13;
3;FRA;Rhône-Alpes;Isère;Murianette 38271;E5.8167;N45.1833;13;
3;FRA;Rhône-Alpes;Isère;Murinais 38272;E5.3167;N45.2167;13;
3;FRA;Rhône-Alpes;Isère;Nantes-en-Ratier 38273;E5.8247;N44.9346;13;
3;FRA;Rhône-Alpes;Isère;Nantoin 38274;E5.2667;N45.4333;13;
3;FRA;Rhône-Alpes;Isère;Nivolas-Vermelle 38276;E5.3000;N45.5500;13;
3;FRA;Rhône-Alpes;Isère;Notre-Dame-de-Commiers 38277;E5.4000;N45.2333;13;
3;FRA;Rhône-Alpes;Isère;Notre-Dame-de-l'Osier 38278;E5.6998;N45.0121;13;
3;FRA;Rhône-Alpes;Isère;Notre-Dame-de-Mésage 38279;E5.7667;N45.0667;13;
3;FRA;Rhône-Alpes;Isère;Notre-Dame-de-Vaulx 38280;E5.7500;N44.9833;13;
3;FRA;Rhône-Alpes;Isère;Noyarey 38281;E5.6333;N45.2500;13;
3;FRA;Rhône-Alpes;Isère;Optevoz 38282;E5.3333;N45.7500;13;
3;FRA;Rhône-Alpes;Isère;Oris-en-Rattier 38283;E5.8667;N44.9167;13;
3;FRA;Rhône-Alpes;Isère;Ornacieux 38284;E5.2167;N45.4000;13;
3;FRA;Rhône-Alpes;Isère;Ornon 38285;E5.9833;N45.0500;13;
3;FRA;Rhône-Alpes;Isère;Oulles 38286;E5.9833;N45.0833;13;
3;FRA;Rhône-Alpes;Isère;Oyeu 38287;E5.4667;N45.4167;13;
3;FRA;Rhône-Alpes;Isère;Oytier-Saint-Oblas 38288;E5.0167;N45.5667;13;
3;FRA;Rhône-Alpes;Isère;Oz 38289;E6.0500;N45.1333;13;
3;FRA;Rhône-Alpes;Isère;Pact 38290;E4.9833;N45.3500;13;
3;FRA;Rhône-Alpes;Isère;Pajay 38291;E5.1333;N45.3667;13;
3;FRA;Rhône-Alpes;Isère;Paladru 38292;E5.5500;N45.4667;13;
3;FRA;Rhône-Alpes;Isère;Panissage 38293;E5.4500;N45.4833;13;
3;FRA;Rhône-Alpes;Isère;Panossas 38294;E5.2000;N45.6833;13;
3;FRA;Rhône-Alpes;Isère;Parmilieu 38295;E5.3500;N45.8333;13;
3;FRA;Rhône-Alpes;Isère;Passins 38297;E5.4333;N45.6833;13;
3;FRA;Rhône-Alpes;Isère;Pellafol 38299;E5.9167;N44.8000;13;
3;FRA;Rhône-Alpes;Isère;Penol 38300;E5.2000;N45.3833;13;
3;FRA;Rhône-Alpes;Isère;Percy 38301;E5.6474;N44.8016;13;
3;FRA;Rhône-Alpes;Isère;Pierre-Châtel 38304;E5.7667;N44.9500;13;
3;FRA;Rhône-Alpes;Isère;Pinsot 38306;E6.1000;N45.3500;13;
3;FRA;Rhône-Alpes;Isère;Pisieu 38307;E5.0500;N45.3833;13;
3;FRA;Rhône-Alpes;Isère;Plan 38308;E5.4000;N45.3167;13;
3;FRA;Rhône-Alpes;Isère;Poisat 38309;E5.7667;N45.1500;13;
3;FRA;Rhône-Alpes;Isère;Poliénas 38310;E5.4667;N45.2500;13;
3;FRA;Rhône-Alpes;Isère;Pommier-de-Beaurepaire 38311;E5.1167;N45.4000;13;
3;FRA;Rhône-Alpes;Isère;Pommiers-la-Placette 38312;E5.6500;N45.3167;13;
3;FRA;Rhône-Alpes;Isère;Ponsonnas 38313;E5.8000;N44.8833;13;
3;FRA;Rhône-Alpes;Isère;Pont-de-Chéruy 38316;E5.1833;N45.7500;13;
3;FRA;Rhône-Alpes;Isère;Pont-en-Royans 38319;E5.3500;N45.0667;13;
3;FRA;Rhône-Alpes;Isère;Pont-Évêque 38318;E4.9167;N45.5333;13;
3;FRA;Rhône-Alpes;Isère;Pontcharra 38314;E6.0167;N45.4333;13;
3;FRA;Rhône-Alpes;Isère;Porcieu-Amblagnieu 38320;E5.4000;N45.8333;13;
3;FRA;Rhône-Alpes;Isère;Prébois 38321;E5.7000;N44.7833;13;
3;FRA;Rhône-Alpes;Isère;Presles 38322;E5.3833;N45.0833;13;
3;FRA;Rhône-Alpes;Isère;Pressins 38323;E5.6167;N45.5167;13;
3;FRA;Rhône-Alpes;Isère;Primarette 38324;E5.0333;N45.4000;13;
3;FRA;Rhône-Alpes;Isère;Proveysieux 38325;E5.7000;N45.2667;13;
3;FRA;Rhône-Alpes;Isère;Prunières 38326;E5.7667;N44.8833;13;
3;FRA;Rhône-Alpes;Isère;Pusignan 38327=69285;E5.0671;N45.7550;13;
3;FRA;Rhône-Alpes;Isère;Quaix-en-Chartreuse 38328;E5.7173;N45.2531;13;
3;FRA;Rhône-Alpes;Isère;Quet-en-Beaumont 38329;E5.8736;N44.8341;13;
3;FRA;Rhône-Alpes;Isère;Quincieu 38330;E5.3833;N45.2667;13;
3;FRA;Rhône-Alpes;Isère;Réaumont 38331;E5.5167;N45.3667;13;
3;FRA;Rhône-Alpes;Isère;Renage 38332;E5.4833;N45.3333;13;
3;FRA;Rhône-Alpes;Isère;Rencurel 38333;E5.4722;N45.1000;13;
3;FRA;Rhône-Alpes;Isère;Revel 38334;E5.8667;N45.1833;13;
3;FRA;Rhône-Alpes;Isère;Revel-Tourdan 38335;E5.0333;N45.3833;13;
3;FRA;Rhône-Alpes;Isère;Reventin-Vaugris 38336;E4.8333;N45.4667;13;
3;FRA;Rhône-Alpes;Isère;Rives 38337;E5.5000;N45.3500;13;
3;FRA;Rhône-Alpes;Isère;Roche 38339;E5.1588;N45.5890;13;
3;FRA;Rhône-Alpes;Isère;Rochetoirin 38341;E5.4167;N45.5833;13;
3;FRA;Rhône-Alpes;Isère;Roissard 38342;E5.6333;N44.8833;13;
3;FRA;Rhône-Alpes;Isère;Romagnieu 38343;E5.6333;N45.5667;13;
3;FRA;Rhône-Alpes;Isère;Roussillon 38344;E4.8167;N45.3667;13;
3;FRA;Rhône-Alpes;Isère;Rovon 38345;E5.4667;N45.2000;13;
3;FRA;Rhône-Alpes;Isère;Royas 38346;E5.1000;N45.5000;13;
3;FRA;Rhône-Alpes;Isère;Roybon 38347;E5.2500;N45.2500;13;
3;FRA;Rhône-Alpes;Isère;Ruy 38348;E5.3167;N45.5833;13;
3;FRA;Rhône-Alpes;Isère;Sablons 38349;E4.7667;N45.3167;13;
3;FRA;Rhône-Alpes;Isère;Saint-Agnin-sur-Bion 38351;E5.2500;N45.5333;13;
3;FRA;Rhône-Alpes;Isère;Saint-Alban-de-Roche 38352;E5.2333;N45.6000;13;
3;FRA;Rhône-Alpes;Isère;Saint-Alban-du-Rhône 38353;E4.7667;N45.4333;13;
3;FRA;Rhône-Alpes;Isère;Saint-Albin-de-Vaulserre 38354;E5.7000;N45.5000;13;
3;FRA;Rhône-Alpes;Isère;Saint-Andéol 38355;E5.5500;N44.9667;13;
3;FRA;Rhône-Alpes;Isère;Saint-André-en-Royans 38356;E5.3500;N45.0833;13;
3;FRA;Rhône-Alpes;Isère;Saint-André-le-Gaz 38357;E5.5333;N45.5500;13;
3;FRA;Rhône-Alpes;Isère;Saint-Antoine-l'Abbaye 38359;E5.2169;N45.1750;13;
3;FRA;Rhône-Alpes;Isère;Saint-Appolinard 38360;E5.2609;N45.1878;13;
3;FRA;Rhône-Alpes;Isère;Saint-Arey 38361;E5.7333;N44.8667;13;
3;FRA;Rhône-Alpes;Isère;Saint-Aupre 38362;E5.6667;N45.3833;13;
3;FRA;Rhône-Alpes;Isère;Saint-Barthélemy 38363;E5.0750;N45.3500;13;
3;FRA;Rhône-Alpes;Isère;Saint-Barthélemy-de-Séchilienne 38364;E5.8287;N45.0467;13;
3;FRA;Rhône-Alpes;Isère;Saint-Baudille-de-la-Tour 38365;E5.3333;N45.7833;13;
3;FRA;Rhône-Alpes;Isère;Saint-Baudille-et-Pipet 38366;E5.7667;N44.7833;13;
3;FRA;Rhône-Alpes;Isère;Saint-Bernard 38367;E5.9000;N45.3333;13;
3;FRA;Rhône-Alpes;Isère;Saint-Blaise-du-Buis 38368;E5.5167;N45.3667;13;
3;FRA;Rhône-Alpes;Isère;Saint-Bonnet-de-Chavagne 38370;E5.2333;N45.1333;13;
3;FRA;Rhône-Alpes;Isère;Saint-Bonnet-de-Mure 38371=69287;E5.0278;N45.6919;13;
3;FRA;Rhône-Alpes;Isère;Saint-Bueil 38372;E5.6833;N45.4667;13;
3;FRA;Rhône-Alpes;Isère;Saint-Cassien 38373;E5.5500;N45.3500;13;
3;FRA;Rhône-Alpes;Isère;Saint-Chef 38374;E5.3667;N45.6333;13;
3;FRA;Rhône-Alpes;Isère;Saint-Christophe-en-Oisans 38375;E6.1833;N44.9667;13;
3;FRA;Rhône-Alpes;Isère;Saint-Christophe-sur-Guiers 38376;E5.7667;N45.4333;13;
3;FRA;Rhône-Alpes;Isère;Saint-Clair-de-la-Tour 38377;E5.4833;N45.5667;13;
3;FRA;Rhône-Alpes;Isère;Saint-Clair-du-Rhône 38378;E4.7833;N45.4333;13;
3;FRA;Rhône-Alpes;Isère;Saint-Clair-sur-Galaure 38379;E5.1500;N45.2500;13;
3;FRA;Rhône-Alpes;Isère;Saint-Didier-de-Bizonnes 38380;E5.3500;N45.4500;13;
3;FRA;Rhône-Alpes;Isère;Saint-Didier-de-la-Tour 38381;E5.4833;N45.5500;13;
3;FRA;Rhône-Alpes;Isère;Saint-Égrève 38382;E5.6826;N45.2403;13;
3;FRA;Rhône-Alpes;Isère;Saint-Étienne-de-Crossey 38383;E5.6333;N45.3667;13;
3;FRA;Rhône-Alpes;Isère;Saint-Étienne-de-Saint-Geoirs 38384;E5.3500;N45.3333;13;
3;FRA;Rhône-Alpes;Isère;Saint-Genis 38385=38226;E5.7667;N44.8167;13;
3;FRA;Rhône-Alpes;Isère;Saint-Geoire-en-Valdaine 38386;E5.6333;N45.4500;13;
3;FRA;Rhône-Alpes;Isère;Saint-Geoirs 38387;E5.3500;N45.3167;13;
3;FRA;Rhône-Alpes;Isère;Saint-Georges-d'Espéranche 38389;E5.0667;N45.5500;13;
3;FRA;Rhône-Alpes;Isère;Saint-Georges-de-Commiers 38388;E5.7000;N45.0333;13;
3;FRA;Rhône-Alpes;Isère;Saint-Gervais 38390;E5.4833;N45.2000;13;
3;FRA;Rhône-Alpes;Isère;Saint-Guillaume 38391;E5.5833;N44.9500;13;
3;FRA;Rhône-Alpes;Isère;Saint-Hilaire 38395;E5.8833;N45.3000;13;
3;FRA;Rhône-Alpes;Isère;Saint-Hilaire-de-Brens 38392;E5.2833;N45.6667;13;
3;FRA;Rhône-Alpes;Isère;Saint-Hilaire-de-la-Côte 38393;E5.3167;N45.3833;13;
3;FRA;Rhône-Alpes;Isère;Saint-Hilaire-du-Rosier 38394;E5.2500;N45.1000;13;
3;FRA;Rhône-Alpes;Isère;Saint-Honoré 38396;E5.8167;N44.9333;13;
3;FRA;Rhône-Alpes;Isère;Saint-Ismier 38397;E5.8333;N45.2500;13;
3;FRA;Rhône-Alpes;Isère;Saint-Jean-d'Avelanne 38398;E5.6667;N45.5000;13;
3;FRA;Rhône-Alpes;Isère;Saint-Jean-d'Hérans 38403;E5.7667;N44.8500;13;
3;FRA;Rhône-Alpes;Isère;Saint-Jean-de-Bournay 38399;E5.1333;N45.4833;13;
3;FRA;Rhône-Alpes;Isère;Saint-Jean-de-Moirans 38400;E5.5833;N45.3333;13;
3;FRA;Rhône-Alpes;Isère;Saint-Jean-de-Soudain 38401;E5.4333;N45.5667;13;
3;FRA;Rhône-Alpes;Isère;Saint-Jean-de-Vaulx 38402;E5.7500;N45.0167;13;
3;FRA;Rhône-Alpes;Isère;Saint-Jean-le-Vieux 38404;E5.8833;N45.2083;13;
3;FRA;Rhône-Alpes;Isère;Saint-Joseph-de-Rivière 38405;E5.6833;N45.3667;13;
3;FRA;Rhône-Alpes;Isère;Saint-Julien-de-l'Herms 38406;E5.1000;N45.4333;13;
3;FRA;Rhône-Alpes;Isère;Saint-Julien-de-Raz 38407;E5.6622;N45.3504;13;
3;FRA;Rhône-Alpes;Isère;Saint-Just-Chaleyssin 38408;E5.0000;N45.5833;13;
3;FRA;Rhône-Alpes;Isère;Saint-Just-de-Claix 38409;E5.2833;N45.0667;13;
3;FRA;Rhône-Alpes;Isère;Saint-Lattier 38410;E5.2000;N45.0833;13;
3;FRA;Rhône-Alpes;Isère;Saint-Laurent-de-Mure 38411=69288;E5.0447;N45.6851;13;
3;FRA;Rhône-Alpes;Isère;Saint-Laurent-du-Pont 38412;E5.7333;N45.3833;13;
3;FRA;Rhône-Alpes;Isère;Saint-Laurent-en-Beaumont 38413;E5.8500;N44.8833;13;
3;FRA;Rhône-Alpes;Isère;Saint-Marcel-Bel-Accueil 38415;E5.2333;N45.6500;13;
3;FRA;Rhône-Alpes;Isère;Saint-Marcellin 38416;E5.3167;N45.1500;13;
3;FRA;Rhône-Alpes;Isère;Saint-Martin-d'Hères 38421;E5.7667;N45.1667;13;
3;FRA;Rhône-Alpes;Isère;Saint-Martin-d'Uriage 38422;E5.8333;N45.1500;13;
3;FRA;Rhône-Alpes;Isère;Saint-Martin-de-Clelles 38419;E5.6167;N44.8500;13;
3;FRA;Rhône-Alpes;Isère;Saint-Martin-de-la-Cluze 38115;E5.6585;N44.9829;13;
3;FRA;Rhône-Alpes;Isère;Saint-Martin-de-Vaulserre 38420;E5.6824;N45.4924;13;
3;FRA;Rhône-Alpes;Isère;Saint-Martin-le-Vinoux 38423;E5.7167;N45.2000;13;
3;FRA;Rhône-Alpes;Isère;Saint-Maurice-en-Trièves 38424;E5.6667;N44.7500;13;
3;FRA;Rhône-Alpes;Isère;Saint-Maurice-l'Exil 38425;E4.7833;N45.4000;13;
3;FRA;Rhône-Alpes;Isère;Saint-Maximin 38426;E6.0333;N45.4167;13;
3;FRA;Rhône-Alpes;Isère;Saint-Michel-de-Saint-Geoirs 38427;E5.3667;N45.3000;13;
3;FRA;Rhône-Alpes;Isère;Saint-Michel-en-Beaumont 38428;E5.9000;N44.8667;13;
3;FRA;Rhône-Alpes;Isère;Saint-Michel-les-Portes 38429;E5.6000;N44.8667;13;
3;FRA;Rhône-Alpes;Isère;Saint-Mury-Monteymond 38430;E5.9333;N45.2167;13;
3;FRA;Rhône-Alpes;Isère;Saint-Nazaire-les-Eymes 38431;E5.8494;N45.2453;13;
3;FRA;Rhône-Alpes;Isère;Saint-Nicolas-de-Macherin 38432;E5.6000;N45.3833;13;
3;FRA;Rhône-Alpes;Isère;Saint-Nizier-du-Moucherotte 38433;E5.6333;N45.1667;13;
3;FRA;Rhône-Alpes;Isère;Saint-Ondras 38434;E5.5333;N45.5167;13;
3;FRA;Rhône-Alpes;Isère;Saint-Pancrasse 38435;E5.8667;N45.2833;13;
3;FRA;Rhône-Alpes;Isère;Saint-Paul-d'Izeaux 38437;E5.4333;N45.3167;13;
3;FRA;Rhône-Alpes;Isère;Saint-Paul-de-Varces 38436;E5.6333;N45.0667;13;
3;FRA;Rhône-Alpes;Isère;Saint-Paul-lès-Monestier 38438;E5.6333;N44.9333;13;
3;FRA;Rhône-Alpes;Isère;Saint-Pierre-d'Allevard 38439;E6.0500;N45.3667;13;
3;FRA;Rhône-Alpes;Isère;Saint-Pierre-d'Entremont 38446;E5.8563;N45.4178;13;
3;FRA;Rhône-Alpes;Isère;Saint-Pierre-de-Bressieux 38440;E5.2833;N45.3167;13;
3;FRA;Rhône-Alpes;Isère;Saint-Pierre-de-Chandieu 38441=69289;E5.0116;N45.6448;13;
3;FRA;Rhône-Alpes;Isère;Saint-Pierre-de-Chartreuse 38442;E5.8167;N45.3333;13;
3;FRA;Rhône-Alpes;Isère;Saint-Pierre-de-Chérennes 38443;E5.3667;N45.1167;13;
3;FRA;Rhône-Alpes;Isère;Saint-Pierre-de-Méaroz 38444;E5.8167;N44.8833;13;
3;FRA;Rhône-Alpes;Isère;Saint-Pierre-de-Mésage 38445;E5.7667;N45.0500;13;
3;FRA;Rhône-Alpes;Isère;Saint-Priest 38447=69290;E4.9351;N45.6940;13;
3;FRA;Rhône-Alpes;Isère;Saint-Prim 38448;E4.8000;N45.4500;13;
3;FRA;Rhône-Alpes;Isère;Saint-Quentin-Fallavier 38449;E5.1167;N45.6333;13;
3;FRA;Rhône-Alpes;Isère;Saint-Quentin-sur-Isère 38450;E5.5500;N45.2833;13;
3;FRA;Rhône-Alpes;Isère;Saint-Romain-de-Jalionas 38451;E5.2167;N45.7500;13;
3;FRA;Rhône-Alpes;Isère;Saint-Romain-de-Surieu 38452;E4.8833;N45.3833;13;
3;FRA;Rhône-Alpes;Isère;Saint-Romans 38453;E5.3167;N45.1167;13;
3;FRA;Rhône-Alpes;Isère;Saint-Sauveur 38454;E5.3500;N45.1500;13;
3;FRA;Rhône-Alpes;Isère;Saint-Savin 38455;E5.3000;N45.6333;13;
3;FRA;Rhône-Alpes;Isère;Saint-Sébastien 38456;E5.8000;N44.8500;13;
3;FRA;Rhône-Alpes;Isère;Saint-Siméon-de-Bressieux 38457;E5.2500;N45.3333;13;
3;FRA;Rhône-Alpes;Isère;Saint-Sorlin-de-Morestel 38458;E5.4833;N45.6333;13;
3;FRA;Rhône-Alpes;Isère;Saint-Sorlin-de-Vienne 38459;E4.9439;N45.4676;13;
3;FRA;Rhône-Alpes;Isère;Saint-Sulpice-des-Rivoires 38460;E5.6000;N45.4667;13;
3;FRA;Rhône-Alpes;Isère;Saint-Symphorien-d'Ozon 38461=69291;E4.8566;N45.6325;13;
3;FRA;Rhône-Alpes;Isère;Saint-Théoffrey 38462;E5.7667;N44.9833;13;
3;FRA;Rhône-Alpes;Isère;Saint-Vérand 38463;E5.3324;N45.1743;13;
3;FRA;Rhône-Alpes;Isère;Saint-Victor-de-Cessieu 38464;E5.4000;N45.5500;13;
3;FRA;Rhône-Alpes;Isère;Saint-Victor-de-Morestel 38465;E5.5000;N45.7000;13;
3;FRA;Rhône-Alpes;Isère;Saint-Vincent-de-Mercuze 38466;E5.9500;N45.3667;13;
3;FRA;Rhône-Alpes;Isère;Sainte-Agnès 38350;E5.9167;N45.2333;13;
3;FRA;Rhône-Alpes;Isère;Sainte-Anne-sur-Gervonde 38358;E5.2333;N45.5000;13;
3;FRA;Rhône-Alpes;Isère;Sainte-Blandine 38369;E5.4333;N45.5500;13;
3;FRA;Rhône-Alpes;Isère;Sainte-Luce 38414;E5.9167;N44.8500;13;
3;FRA;Rhône-Alpes;Isère;Sainte-Marie-d'Alloix 38417;E5.9667;N45.3833;13;
3;FRA;Rhône-Alpes;Isère;Sainte-Marie-du-Mont 38418;E5.9333;N45.4000;13;
3;FRA;Rhône-Alpes;Isère;Salagnon 38467;E5.3500;N45.6667;13;
3;FRA;Rhône-Alpes;Isère;Salaise-sur-Sanne 38468;E4.8167;N45.3333;13;
3;FRA;Rhône-Alpes;Isère;Sarcenas 38472;E5.7500;N45.2667;13;
3;FRA;Rhône-Alpes;Isère;Sardieu 38473;E5.2000;N45.3667;13;
3;FRA;Rhône-Alpes;Isère;Sassenage 38474;E5.6667;N45.2000;13;
3;FRA;Rhône-Alpes;Isère;Satolas-et-Bonce 38475;E5.1333;N45.7000;13;
3;FRA;Rhône-Alpes;Isère;Savas-Mépin 38476;E5.0500;N45.5000;13;
3;FRA;Rhône-Alpes;Isère;Savel 38477=38224;E5.6910;N44.8778;13;
3;FRA;Rhône-Alpes;Isère;Séchilienne 38478;E5.8333;N45.0667;13;
3;FRA;Rhône-Alpes;Isère;Semons 38479;E5.2000;N45.4333;13;
3;FRA;Rhône-Alpes;Isère;Septème 38480;E5.0167;N45.5500;13;
3;FRA;Rhône-Alpes;Isère;Sérézin-de-la-Tour 38481;E5.3500;N45.5500;13;
3;FRA;Rhône-Alpes;Isère;Sérézin-du-Rhône 38482=69294;E4.8278;N45.6292;13;
3;FRA;Rhône-Alpes;Isère;Sermérieu 38483;E5.4167;N45.6667;13;
3;FRA;Rhône-Alpes;Isère;Serpaize 38484;E4.9167;N45.5667;13;
3;FRA;Rhône-Alpes;Isère;Serre-Nerpol 38275;E5.3792;N45.2499;13;
3;FRA;Rhône-Alpes;Isère;Seyssinet-Pariset 38485;E5.6500;N45.1667;13;
3;FRA;Rhône-Alpes;Isère;Seyssins 38486;E5.6833;N45.1500;13;
3;FRA;Rhône-Alpes;Isère;Seyssuel 38487;E4.8500;N45.5667;13;
3;FRA;Rhône-Alpes;Isère;Siccieu-Saint-Julien-et-Carisieu 38488;E5.3187;N45.7186;13;
3;FRA;Rhône-Alpes;Isère;Siévoz 38489;E5.8333;N44.9000;13;
3;FRA;Rhône-Alpes;Isère;Sillans 38490;E5.3833;N45.3333;13;
3;FRA;Rhône-Alpes;Isère;Simandres 38491=69295;E4.8720;N45.6208;13;
3;FRA;Rhône-Alpes;Isère;Sinard 38492;E5.6500;N44.9500;13;
3;FRA;Rhône-Alpes;Isère;Solaize 38493=69296;E4.8400;N45.6397;13;
3;FRA;Rhône-Alpes;Isère;Soleymieu 38494;E5.3500;N45.7167;13;
3;FRA;Rhône-Alpes;Isère;Sonnay 38496;E4.9000;N45.3500;13;
3;FRA;Rhône-Alpes;Isère;Sousville 38497;E5.8100;N44.9086;13;
3;FRA;Rhône-Alpes;Isère;Succieu 38498;E5.3333;N45.5333;13;
3;FRA;Rhône-Alpes;Isère;Susville 38499;E5.7752;N44.9289;13;
3;FRA;Rhône-Alpes;Isère;Têche 38500;E5.3833;N45.1833;13;
3;FRA;Rhône-Alpes;Isère;Tencin 38501;E5.9667;N45.3167;13;
3;FRA;Rhône-Alpes;Isère;Ternay 38502=69297;E4.8101;N45.6068;13;
3;FRA;Rhône-Alpes;Isère;Theys 38504;E6.0000;N45.3000;13;
3;FRA;Rhône-Alpes;Isère;Thodure 38505;E5.1667;N45.3167;13;
3;FRA;Rhône-Alpes;Isère;Thuellin 38506=38541;E5.5000;N45.6333;13;
3;FRA;Rhône-Alpes;Isère;Tignieu-Jameyzieu 38507;E5.1833;N45.7333;13;
3;FRA;Rhône-Alpes;Isère;Torchefelon 38508;E5.4000;N45.5167;13;
3;FRA;Rhône-Alpes;Isère;Toussieu 38510=69298;E4.9847;N45.6544;13;
3;FRA;Rhône-Alpes;Isère;Tramolé 38512;E5.2667;N45.5167;13;
3;FRA;Rhône-Alpes;Isère;Treffort 38513;E5.6577;N44.9155;13;
3;FRA;Rhône-Alpes;Isère;Tréminis 38514;E5.7667;N44.7500;13;
3;FRA;Rhône-Alpes;Isère;Trept 38515;E5.3167;N45.6833;13;
3;FRA;Rhône-Alpes;Isère;Tullins 38517;E5.4833;N45.3000;13;
3;FRA;Rhône-Alpes;Isère;Valbonnais 38518;E5.9000;N44.9000;13;
3;FRA;Rhône-Alpes;Isère;Valencin 38519;E5.0167;N45.6167;13;
3;FRA;Rhône-Alpes;Isère;Valencogne 38520;E5.5333;N45.5000;13;
3;FRA;Rhône-Alpes;Isère;Valjouffrey 38522;E6.0181;N44.8805;13;
3;FRA;Rhône-Alpes;Isère;Varacieux 38523;E5.3333;N45.2333;13;
3;FRA;Rhône-Alpes;Isère;Varces-Allières-et-Risset 38524;E5.6725;N45.1068;13;
3;FRA;Rhône-Alpes;Isère;Vasselin 38525;E5.4500;N45.6333;13;
3;FRA;Rhône-Alpes;Isère;Vatilieu 38526;E5.4167;N45.2500;13;
3;FRA;Rhône-Alpes;Isère;Vaujany 38527;E6.0833;N45.1500;13;
3;FRA;Rhône-Alpes;Isère;Vaulnaveys-le-Bas 38528;E5.8167;N45.1000;13;
3;FRA;Rhône-Alpes;Isère;Vaulnaveys-le-Haut 38529;E5.8000;N45.1167;13;
3;FRA;Rhône-Alpes;Isère;Vaulx-Milieu 38530;E5.1833;N45.6167;13;
3;FRA;Rhône-Alpes;Isère;Velanne 38531;E5.6333;N45.4833;13;
3;FRA;Rhône-Alpes;Isère;Vénérieu 38532;E5.2833;N45.6667;13;
3;FRA;Rhône-Alpes;Isère;Venon 38533;E5.8000;N45.1667;13;
3;FRA;Rhône-Alpes;Isère;Vénosc 38534;E6.1167;N44.9833;13;
3;FRA;Rhône-Alpes;Isère;Vernas 38535;E5.2809;N45.7761;13;
3;FRA;Rhône-Alpes;Isère;Vernioz 38536;E4.8833;N45.4333;13;
3;FRA;Rhône-Alpes;Isère;Vertrieu 38539;E5.3667;N45.8667;13;
3;FRA;Rhône-Alpes;Isère;Veurey-Voroize 38540;E5.6167;N45.2667;13;
3;FRA;Rhône-Alpes;Isère;Veyrins-Thuellin 38541;E5.5388;N45.6253;13;
3;FRA;Rhône-Alpes;Isère;Veyssilieu 38542;E5.2167;N45.6833;13;
3;FRA;Rhône-Alpes;Isère;Vézeronce-Curtin 38543;E5.4705;N45.6506;13;
3;FRA;Rhône-Alpes;Isère;Vienne 38544;E4.8784;N45.5235;13;
3;FRA;Rhône-Alpes;Isère;Vif 38545;E5.6667;N45.0500;13;
3;FRA;Rhône-Alpes;Isère;Vignieu 38546;E5.4167;N45.6333;13;
3;FRA;Rhône-Alpes;Isère;Villard-Bonnot 38547;E5.8833;N45.2333;13;
3;FRA;Rhône-Alpes;Isère;Villard-de-Lans 38548;E5.5500;N45.0667;13;
3;FRA;Rhône-Alpes;Isère;Villard-Notre-Dame 38549;E6.0500;N45.0167;13;
3;FRA;Rhône-Alpes;Isère;Villard-Reculas 38550;E6.0333;N45.1000;13;
3;FRA;Rhône-Alpes;Isère;Villard-Reymond 38551;E6.0167;N45.0333;13;
3;FRA;Rhône-Alpes;Isère;Villard-Saint-Christophe 38552;E5.8000;N44.9667;13;
3;FRA;Rhône-Alpes;Isère;Ville-sous-Anjou 38556;E4.8500;N45.3667;13;
3;FRA;Rhône-Alpes;Isère;Villefontaine 38553;E5.1500;N45.6167;13;
3;FRA;Rhône-Alpes;Isère;Villemoirieu 38554;E5.2167;N45.7167;13;
3;FRA;Rhône-Alpes;Isère;Villeneuve-de-Marc 38555;E5.1000;N45.4833;13;
3;FRA;Rhône-Alpes;Isère;Villette-d'Anthon 38557;E5.1167;N45.8000;13;
3;FRA;Rhône-Alpes;Isère;Villette-de-Vienne 38558;E4.9000;N45.5833;13;
3;FRA;Rhône-Alpes;Isère;Vinay 38559;E5.4000;N45.2167;13;
3;FRA;Rhône-Alpes;Isère;Virieu 38560;E5.4667;N45.4833;13;
3;FRA;Rhône-Alpes;Isère;Viriville 38561;E5.2000;N45.3167;13;
3;FRA;Rhône-Alpes;Isère;Vizille 38562;E5.7667;N45.0833;13;
3;FRA;Rhône-Alpes;Isère;Voiron 38563;E5.5833;N45.3667;13;
3;FRA;Rhône-Alpes;Isère;Voissant 38564;E5.7000;N45.4833;13;
3;FRA;Rhône-Alpes;Isère;Voreppe 38565;E5.6333;N45.3000;13;
3;FRA;Rhône-Alpes;Isère;Vourey 38566;E5.5167;N45.3167;13;
2;FRA;Rhône-Alpes;Loire;;E4.13;N45.77;9;
3;FRA;Rhône-Alpes;Loire;Aboën 42001;E4.1333;N45.4167;13;
3;FRA;Rhône-Alpes;Loire;Ailleux 42002;E3.9500;N45.8000;13;
3;FRA;Rhône-Alpes;Loire;Ambierle 42003;E3.9000;N46.1000;13;
3;FRA;Rhône-Alpes;Loire;Amions 42004;E4.0333;N45.8833;13;
3;FRA;Rhône-Alpes;Loire;Andrézieux-Bouthéon 42005;E4.2567;N45.5253;13;
3;FRA;Rhône-Alpes;Loire;Apinac 42006;E4.0000;N45.3833;13;
3;FRA;Rhône-Alpes;Loire;Arcinges 42007;E4.2833;N46.1333;13;
3;FRA;Rhône-Alpes;Loire;Arcon 42008;E3.9000;N46.0000;13;
3;FRA;Rhône-Alpes;Loire;Arthun 42009;E4.0333;N45.7667;13;
3;FRA;Rhône-Alpes;Loire;Aveizieux 42010;E4.3833;N45.5667;13;
3;FRA;Rhône-Alpes;Loire;Balbigny 42011;E4.1833;N45.8167;13;
3;FRA;Rhône-Alpes;Loire;Bard 42012;E4.0167;N45.5833;13;
3;FRA;Rhône-Alpes;Loire;Bellegarde-en-Forez 42013;E4.3000;N45.6500;13;
3;FRA;Rhône-Alpes;Loire;Belleroche 42014;E4.4167;N46.1667;13;
3;FRA;Rhône-Alpes;Loire;Belmont-de-la-Loire 42015;E4.3500;N46.1667;13;
3;FRA;Rhône-Alpes;Loire;Bessey 42018;E4.7000;N45.3833;13;
3;FRA;Rhône-Alpes;Loire;Boën 42019;E3.9833;N45.7333;13;
3;FRA;Rhône-Alpes;Loire;Boisset-lès-Montrond 42020;E4.2000;N45.6167;13;
3;FRA;Rhône-Alpes;Loire;Boisset-Saint-Priest 42021;E4.1167;N45.5167;13;
3;FRA;Rhône-Alpes;Loire;Bonson 42022;E4.2333;N45.5167;13;
3;FRA;Rhône-Alpes;Loire;Bourg-Argental 42023;E4.5500;N45.3000;13;
3;FRA;Rhône-Alpes;Loire;Bouthéon 42024=42005;E4.2648;N45.5433;13;
3;FRA;Rhône-Alpes;Loire;Boyer 42025;E4.2167;N46.1000;13;
3;FRA;Rhône-Alpes;Loire;Briennon 42026;E4.0833;N46.1500;13;
3;FRA;Rhône-Alpes;Loire;Bully 42027;E4.0000;N45.9333;13;
3;FRA;Rhône-Alpes;Loire;Burdignes 42028;E4.5667;N45.2667;13;
3;FRA;Rhône-Alpes;Loire;Bussières 42029;E4.2667;N45.8333;13;
3;FRA;Rhône-Alpes;Loire;Bussy-Albieux 42030;E4.0333;N45.8000;13;
3;FRA;Rhône-Alpes;Loire;Caloire 42031;E4.2333;N45.4167;13;
3;FRA;Rhône-Alpes;Loire;Cellieu 42032;E4.5333;N45.5167;13;
3;FRA;Rhône-Alpes;Loire;Cervières 42034;E3.7833;N45.8500;13;
3;FRA;Rhône-Alpes;Loire;Cezay 42035;E3.9667;N45.8000;13;
3;FRA;Rhône-Alpes;Loire;Chagnon 42036;E4.5500;N45.5333;13;
3;FRA;Rhône-Alpes;Loire;Chalain-d'Uzore 42037;E4.0833;N45.6667;13;
3;FRA;Rhône-Alpes;Loire;Chalain-le-Comtal 42038;E4.1667;N45.6500;13;
3;FRA;Rhône-Alpes;Loire;Chalmazel 42039;E3.8500;N45.7000;13;
3;FRA;Rhône-Alpes;Loire;Chambéon 42041;E4.1833;N45.7000;13;
3;FRA;Rhône-Alpes;Loire;Chambles 42042;E4.2333;N45.4500;13;
3;FRA;Rhône-Alpes;Loire;Chamboeuf 42043;E4.3167;N45.5833;13;
3;FRA;Rhône-Alpes;Loire;Champdieu 42046;E4.0500;N45.6500;13;
3;FRA;Rhône-Alpes;Loire;Champoly 42047;E3.8333;N45.8500;13;
3;FRA;Rhône-Alpes;Loire;Chandon 42048;E4.2167;N46.1500;13;
3;FRA;Rhône-Alpes;Loire;Changy 42049;E3.9000;N46.1500;13;
3;FRA;Rhône-Alpes;Loire;Charlieu 42052;E4.1833;N46.1500;13;
3;FRA;Rhône-Alpes;Loire;Châteauneuf 42053;E4.6408;N45.5241;13;
3;FRA;Rhône-Alpes;Loire;Châtelneuf 42054;E4.0000;N45.6333;13;
3;FRA;Rhône-Alpes;Loire;Châtelus 42055;E4.4667;N45.6000;13;
3;FRA;Rhône-Alpes;Loire;Chausseterre 42339;E3.7833;N45.9000;13;
3;FRA;Rhône-Alpes;Loire;Chavanay 42056;E4.7333;N45.4167;13;
3;FRA;Rhône-Alpes;Loire;Chazeau 42057=42095;E4.2767;N45.3690;13;
3;FRA;Rhône-Alpes;Loire;Chazelles-sur-Lavieu 42058;E4.0000;N45.5333;13;
3;FRA;Rhône-Alpes;Loire;Chazelles-sur-Lyon 42059;E4.3833;N45.6333;13;
3;FRA;Rhône-Alpes;Loire;Chenereilles 42060;E4.0833;N45.4833;13;
3;FRA;Rhône-Alpes;Loire;Cherier 42061;E3.9167;N45.9667;13;
3;FRA;Rhône-Alpes;Loire;Chevrières 42062;E4.4000;N45.5833;13;
3;FRA;Rhône-Alpes;Loire;Chirassimont 42063;E4.2833;N45.9167;13;
3;FRA;Rhône-Alpes;Loire;Chuyer 42064;E4.7000;N45.4500;13;
3;FRA;Rhône-Alpes;Loire;Civens 42065;E4.2500;N45.7833;13;
3;FRA;Rhône-Alpes;Loire;Cleppé 42066;E4.1833;N45.7667;13;
3;FRA;Rhône-Alpes;Loire;Colombier 42067;E4.6015;N45.3381;13;
3;FRA;Rhône-Alpes;Loire;Combre 42068;E4.2667;N46.0333;13;
3;FRA;Rhône-Alpes;Loire;Commelle-Vernay 42069;E4.0667;N46.0000;13;
3;FRA;Rhône-Alpes;Loire;Cordelle 42070;E4.0667;N45.9500;13;
3;FRA;Rhône-Alpes;Loire;Cottance 42073;E4.3000;N45.8000;13;
3;FRA;Rhône-Alpes;Loire;Coutouvre 42074;E4.2167;N46.0667;13;
3;FRA;Rhône-Alpes;Loire;Craintilleux 42075;E4.2333;N45.5833;13;
3;FRA;Rhône-Alpes;Loire;Cremeaux 42076;E3.9333;N45.9000;13;
3;FRA;Rhône-Alpes;Loire;Croizet-sur-Gand 42077;E4.2333;N45.9167;13;
3;FRA;Rhône-Alpes;Loire;Cuinzier 42079;E4.2833;N46.1333;13;
3;FRA;Rhône-Alpes;Loire;Cuzieu 42081;E4.2667;N45.6167;13;
3;FRA;Rhône-Alpes;Loire;Dancé 42082;E4.0333;N45.9000;13;
3;FRA;Rhône-Alpes;Loire;Dargoire 42083;E4.6680;N45.5607;13;
3;FRA;Rhône-Alpes;Loire;Débats-Rivière-d'Orpra 42084;E3.9390;N45.7604;13;
3;FRA;Rhône-Alpes;Loire;Doizieux 42085;E4.5833;N45.4167;13;
3;FRA;Rhône-Alpes;Loire;Écoche 42086;E4.3000;N46.1500;13;
3;FRA;Rhône-Alpes;Loire;Écotay-l'Olme 42087;E4.0500;N45.5833;13;
3;FRA;Rhône-Alpes;Loire;Épercieux-Saint-Paul 42088;E4.2167;N45.8000;13;
3;FRA;Rhône-Alpes;Loire;Essertines-en-Châtelneuf 42089;E4.0000;N45.6167;13;
3;FRA;Rhône-Alpes;Loire;Essertines-en-Donzy 42090;E4.3500;N45.7500;13;
3;FRA;Rhône-Alpes;Loire;Estivareilles 42091;E4.0167;N45.4167;13;
3;FRA;Rhône-Alpes;Loire;Farnay 42093;E4.6000;N45.5000;13;
3;FRA;Rhône-Alpes;Loire;Feurs 42094;E4.2333;N45.7500;13;
3;FRA;Rhône-Alpes;Loire;Firminy 42095;E4.3000;N45.3833;13;
3;FRA;Rhône-Alpes;Loire;Fontanès 42096;E4.4333;N45.5500;13;
3;FRA;Rhône-Alpes;Loire;Fourneaux 42098;E4.2687;N45.9369;13;
3;FRA;Rhône-Alpes;Loire;Fraisses 42099;E4.2672;N45.3894;13;
3;FRA;Rhône-Alpes;Loire;Genilac 42225;E4.5809;N45.5317;13;
3;FRA;Rhône-Alpes;Loire;Graix 42101;E4.5667;N45.3500;13;
3;FRA;Rhône-Alpes;Loire;Grammond 42102;E4.4333;N45.5667;13;
3;FRA;Rhône-Alpes;Loire;Grézieux-le-Fromental 42105;E4.1500;N45.6167;13;
3;FRA;Rhône-Alpes;Loire;Grézolles 42106;E3.9507;N45.8634;13;
3;FRA;Rhône-Alpes;Loire;Gumières 42107;E3.9833;N45.5333;13;
3;FRA;Rhône-Alpes;Loire;Izieux 42111=42207;E4.5040;N45.4638;13;
3;FRA;Rhône-Alpes;Loire;Jarnosse 42112;E4.2333;N46.1000;13;
3;FRA;Rhône-Alpes;Loire;Jas 42113;E4.3167;N45.7500;13;
3;FRA;Rhône-Alpes;Loire;Jeansagnière 42114;E3.8333;N45.7333;13;
3;FRA;Rhône-Alpes;Loire;Jonzieux 42115;E4.3667;N45.3167;13;
3;FRA;Rhône-Alpes;Loire;Juré 42116;E3.8833;N45.8833;13;
3;FRA;Rhône-Alpes;Loire;L'Étrat 42092;E4.3833;N45.4833;13;
3;FRA;Rhône-Alpes;Loire;L'Hôpital-le-Grand 42108;E4.2000;N45.6000;13;
3;FRA;Rhône-Alpes;Loire;L'Hôpital-sous-Rochefort 42109;E3.9342;N45.7735;13;
3;FRA;Rhône-Alpes;Loire;L'Horme 42110;E4.5500;N45.4833;13;
3;FRA;Rhône-Alpes;Loire;La Bénisson-Dieu 42016;E4.0488;N45.1515;13;
3;FRA;Rhône-Alpes;Loire;La Chamba 42040;E3.7667;N45.7500;13;
3;FRA;Rhône-Alpes;Loire;La Chambonie 42045;E3.7500;N45.7500;13;
3;FRA;Rhône-Alpes;Loire;La Chapelle-en-Lafaye 42050;E3.9833;N45.4667;13;
3;FRA;Rhône-Alpes;Loire;La Chapelle-Villars 42051;E4.7167;N45.4667;13;
3;FRA;Rhône-Alpes;Loire;La Côte-en-Couzan 42072;E3.8167;N45.7833;13;
3;FRA;Rhône-Alpes;Loire;La Cula 42080=42225;E4.5667;N45.5500;13;
3;FRA;Rhône-Alpes;Loire;La Fouillouse 42097;E4.3167;N45.5000;13;
3;FRA;Rhône-Alpes;Loire;La Gimond 42100;E4.4167;N45.5500;13;
3;FRA;Rhône-Alpes;Loire;La Grand-Croix 42103;E4.5500;N45.5000;13;
3;FRA;Rhône-Alpes;Loire;La Gresle 42104;E4.2833;N46.0667;13;
3;FRA;Rhône-Alpes;Loire;La Pacaudière 42163;E3.8667;N46.1833;13;
3;FRA;Rhône-Alpes;Loire;La Ricamarie 42183;E4.3667;N45.4000;13;
3;FRA;Rhône-Alpes;Loire;La Talaudière 42305;E4.4333;N45.4833;13;
3;FRA;Rhône-Alpes;Loire;La Terrasse-sur-Dorlay 42308;E4.5833;N45.4500;13;
3;FRA;Rhône-Alpes;Loire;La Tour-en-Jarez 42311;E4.4000;N45.4833;13;
3;FRA;Rhône-Alpes;Loire;La Tourette 42312;E4.0840;N45.4148;13;
3;FRA;Rhône-Alpes;Loire;La Tuilière 42314;E3.8000;N45.9417;13;
3;FRA;Rhône-Alpes;Loire;La Valla-en-Gier 42322;E4.5167;N45.4167;13;
3;FRA;Rhône-Alpes;Loire;La Valla-sur-Rochefort 42321;E3.8517;N45.7598;13;
3;FRA;Rhône-Alpes;Loire;La Versanne 42329;E4.5333;N45.3167;13;
3;FRA;Rhône-Alpes;Loire;Lavieu 42117;E4.0333;N45.5333;13;
3;FRA;Rhône-Alpes;Loire;Lay 42118;E4.2167;N45.9500;13;
3;FRA;Rhône-Alpes;Loire;Le Bessat 42017;E4.5167;N45.3667;13;
3;FRA;Rhône-Alpes;Loire;Le Cergne 42033;E4.3167;N46.1167;13;
3;FRA;Rhône-Alpes;Loire;Le Chambon-Feugerolles 42044;E4.3167;N45.4000;13;
3;FRA;Rhône-Alpes;Loire;Le Coteau 42071;E4.0833;N46.0333;13;
3;FRA;Rhône-Alpes;Loire;Le Crozet 42078;E3.8554;N46.1699;13;
3;FRA;Rhône-Alpes;Loire;Leigneux 42119;E3.9833;N45.7500;13;
3;FRA;Rhône-Alpes;Loire;Lentigny 42120;E3.9833;N46.0000;13;
3;FRA;Rhône-Alpes;Loire;Lérigneux 42121;E3.9667;N45.6000;13;
3;FRA;Rhône-Alpes;Loire;Les Noës 42158;E3.8515;N46.0418;13;
3;FRA;Rhône-Alpes;Loire;Les Salles 42295;E3.7955;N45.8481;13;
3;FRA;Rhône-Alpes;Loire;Lézigneux 42122;E4.0667;N45.5667;13;
3;FRA;Rhône-Alpes;Loire;Lorette 42123;E4.5833;N45.5167;13;
3;FRA;Rhône-Alpes;Loire;Lupé 42124;E4.7167;N45.3667;13;
3;FRA;Rhône-Alpes;Loire;Luré 42125;E3.9333;N45.8833;13;
3;FRA;Rhône-Alpes;Loire;Luriecq 42126;E4.0667;N45.4500;13;
3;FRA;Rhône-Alpes;Loire;Mably 42127;E4.0667;N46.0833;13;
3;FRA;Rhône-Alpes;Loire;Machézal 42128;E4.3167;N45.9167;13;
3;FRA;Rhône-Alpes;Loire;Maclas 42129;E4.6833;N45.3500;13;
3;FRA;Rhône-Alpes;Loire;Magneux-Haute-Rive 42130;E4.1667;N45.6667;13;
3;FRA;Rhône-Alpes;Loire;Maizilly 42131;E4.2500;N46.1833;13;
3;FRA;Rhône-Alpes;Loire;Malleval 42132;E4.7250;N45.3833;13;
3;FRA;Rhône-Alpes;Loire;Marcenod 42133;E4.5000;N45.5667;13;
3;FRA;Rhône-Alpes;Loire;Marcilly-le-Châtel 42134;E4.0364;N45.6946;13;
3;FRA;Rhône-Alpes;Loire;Marclopt 42135;E4.2000;N45.6667;13;
3;FRA;Rhône-Alpes;Loire;Marcoux 42136;E4.0167;N45.7167;13;
3;FRA;Rhône-Alpes;Loire;Margerie-Chantagret 42137;E4.0667;N45.5333;13;
3;FRA;Rhône-Alpes;Loire;Maringes 42138;E4.3500;N45.6500;13;
3;FRA;Rhône-Alpes;Loire;Marlhes 42139;E4.4000;N45.2833;13;
3;FRA;Rhône-Alpes;Loire;Marols 42140;E4.0500;N45.4833;13;
3;FRA;Rhône-Alpes;Loire;Mars 42141;E4.2465;N46.1527;13;
3;FRA;Rhône-Alpes;Loire;Merle-Leignec 42142;E4.0258;N45.3962;13;
3;FRA;Rhône-Alpes;Loire;Mizérieux 42143;E4.1667;N45.8000;13;
3;FRA;Rhône-Alpes;Loire;Moingt 42144=42147;E4.0667;N45.5833;13;
3;FRA;Rhône-Alpes;Loire;Montagny 42145;E4.2333;N46.0321;13;
3;FRA;Rhône-Alpes;Loire;Montarcher 42146;E4.0000;N45.4500;13;
3;FRA;Rhône-Alpes;Loire;Montbrison 42147;E4.0500;N45.6000;13;
3;FRA;Rhône-Alpes;Loire;Montchal 42148;E4.3137;N45.8254;13;
3;FRA;Rhône-Alpes;Loire;Montrond-les-Bains 42149;E4.2333;N45.6333;13;
3;FRA;Rhône-Alpes;Loire;Montverdun 42150;E4.0667;N45.7167;13;
3;FRA;Rhône-Alpes;Loire;Mornand-en-Forez 42151;E4.1333;N45.6833;13;
3;FRA;Rhône-Alpes;Loire;Nandax 42152;E4.1667;N46.1000;13;
3;FRA;Rhône-Alpes;Loire;Neaux 42153;E4.1833;N45.9667;13;
3;FRA;Rhône-Alpes;Loire;Néronde 42154;E4.2333;N45.8333;13;
3;FRA;Rhône-Alpes;Loire;Nervieux 42155;E4.1500;N45.8000;13;
3;FRA;Rhône-Alpes;Loire;Neulise 42156;E4.1833;N45.9000;13;
3;FRA;Rhône-Alpes;Loire;Noailly 42157;E4.0167;N46.1333;13;
3;FRA;Rhône-Alpes;Loire;Noirétable 42159;E3.7667;N45.8167;13;
3;FRA;Rhône-Alpes;Loire;Nollieux 42160;E4.0000;N45.8167;13;
3;FRA;Rhône-Alpes;Loire;Notre-Dame-de-Boisset 42161;E4.1333;N46.0000;13;
3;FRA;Rhône-Alpes;Loire;Ouches 42162;E3.9833;N46.0167;13;
3;FRA;Rhône-Alpes;Loire;Palogneux 42164;E3.9167;N45.7500;13;
3;FRA;Rhône-Alpes;Loire;Panissières 42165;E4.3333;N45.7833;13;
3;FRA;Rhône-Alpes;Loire;Parigny 42166;E4.1000;N45.9833;13;
3;FRA;Rhône-Alpes;Loire;Pavezin 42167;E4.6667;N45.4667;13;
3;FRA;Rhône-Alpes;Loire;Pélussin 42168;E4.6833;N45.4167;13;
3;FRA;Rhône-Alpes;Loire;Périgneux 42169;E4.1667;N45.4333;13;
3;FRA;Rhône-Alpes;Loire;Perreux 42170;E4.1167;N46.0333;13;
3;FRA;Rhône-Alpes;Loire;Pinay 42171;E4.1500;N45.8667;13;
3;FRA;Rhône-Alpes;Loire;Planfoy 42172;E4.4500;N45.3833;13;
3;FRA;Rhône-Alpes;Loire;Pommiers 42173;E4.0667;N45.8333;13;
3;FRA;Rhône-Alpes;Loire;Poncins 42174;E4.1667;N45.7333;13;
3;FRA;Rhône-Alpes;Loire;Pouilly-lès-Feurs 42175;E4.2333;N45.8000;13;
3;FRA;Rhône-Alpes;Loire;Pouilly-les-Nonains 42176;E3.9833;N46.0333;13;
3;FRA;Rhône-Alpes;Loire;Pouilly-sous-Charlieu 42177;E4.1167;N46.1500;13;
3;FRA;Rhône-Alpes;Loire;Pradines 42178;E4.1833;N46.0000;13;
3;FRA;Rhône-Alpes;Loire;Pralong 42179;E4.0333;N45.6667;13;
3;FRA;Rhône-Alpes;Loire;Précieux 42180;E4.1512;N45.5860;13;
3;FRA;Rhône-Alpes;Loire;Régny 42181;E4.2167;N45.9833;13;
3;FRA;Rhône-Alpes;Loire;Renaison 42182;E3.9333;N46.0500;13;
3;FRA;Rhône-Alpes;Loire;Riorges 42184;E4.0333;N46.0333;13;
3;FRA;Rhône-Alpes;Loire;Rivas 42185;E4.2500;N45.5833;13;
3;FRA;Rhône-Alpes;Loire;Rive-de-Gier 42186;E4.6167;N45.5333;13;
3;FRA;Rhône-Alpes;Loire;Roanne 42187;E4.0689;N46.0367;13;
3;FRA;Rhône-Alpes;Loire;Roche 42188;E3.9500;N45.6167;13;
3;FRA;Rhône-Alpes;Loire;Roche-la-Molière 42189;E4.3167;N45.4333;13;
3;FRA;Rhône-Alpes;Loire;Rochetaillée 42190=42218;E4.4453;N45.4106;13;
3;FRA;Rhône-Alpes;Loire;Roisey 42191;E4.6717;N45.3879;13;
3;FRA;Rhône-Alpes;Loire;Rozier-Côtes-d'Aurec 42192;E4.1167;N45.3667;13;
3;FRA;Rhône-Alpes;Loire;Rozier-en-Donzy 42193;E4.2833;N45.8000;13;
3;FRA;Rhône-Alpes;Loire;Sail-les-Bains 42194;E3.8500;N46.2333;13;
3;FRA;Rhône-Alpes;Loire;Sail-sous-Couzan 42195;E3.9500;N45.7333;13;
3;FRA;Rhône-Alpes;Loire;Saint-Alban-les-Eaux 42198;E3.9333;N46.0000;13;
3;FRA;Rhône-Alpes;Loire;Saint-André-d'Apchon 42199;E3.9333;N46.0333;13;
3;FRA;Rhône-Alpes;Loire;Saint-André-le-Puy 42200;E4.2667;N45.6500;13;
3;FRA;Rhône-Alpes;Loire;Saint-Appolinard 42201;E4.6500;N45.3417;13;
3;FRA;Rhône-Alpes;Loire;Saint-Barthélemy-Lestra 42202;E4.3333;N45.7167;13;
3;FRA;Rhône-Alpes;Loire;Saint-Bonnet-des-Quarts 42203;E3.8500;N46.1333;13;
3;FRA;Rhône-Alpes;Loire;Saint-Bonnet-le-Château 42204;E4.0667;N45.4167;13;
3;FRA;Rhône-Alpes;Loire;Saint-Bonnet-le-Courreau 42205;E3.9500;N45.6667;13;
3;FRA;Rhône-Alpes;Loire;Saint-Bonnet-les-Oules 42206;E4.3333;N45.5500;13;
3;FRA;Rhône-Alpes;Loire;Saint-Chamond 42207;E4.5000;N45.4667;13;
3;FRA;Rhône-Alpes;Loire;Saint-Christo-en-Jarez 42208;E4.4833;N45.5500;13;
3;FRA;Rhône-Alpes;Loire;Saint-Cyprien 42211;E4.2333;N45.5333;13;
3;FRA;Rhône-Alpes;Loire;Saint-Cyr-de-Favières 42212;E4.1000;N45.9667;13;
3;FRA;Rhône-Alpes;Loire;Saint-Cyr-de-Valorges 42213;E4.3083;N45.8917;13;
3;FRA;Rhône-Alpes;Loire;Saint-Cyr-les-Vignes 42214;E4.3000;N45.6833;13;
3;FRA;Rhône-Alpes;Loire;Saint-Denis-de-Cabanne 42215;E4.2167;N46.1667;13;
3;FRA;Rhône-Alpes;Loire;Saint-Denis-sur-Coise 42216;E4.4333;N45.6167;13;
3;FRA;Rhône-Alpes;Loire;Saint-Didier-sur-Rochefort 42217;E3.8500;N45.7833;13;
3;FRA;Rhône-Alpes;Loire;Saint-Étienne 42218;E4.4000;N45.4333;13;
3;FRA;Rhône-Alpes;Loire;Saint-Étienne-le-Molard 42219;E4.0833;N45.7333;13;
3;FRA;Rhône-Alpes;Loire;Saint-Forgeux-Lespinasse 42220;E3.9333;N46.1167;13;
3;FRA;Rhône-Alpes;Loire;Saint-Galmier 42222;E4.3167;N45.5833;13;
3;FRA;Rhône-Alpes;Loire;Saint-Genest-Lerpt 42223;E4.3333;N45.4500;13;
3;FRA;Rhône-Alpes;Loire;Saint-Genest-Malifaux 42224;E4.4167;N45.3333;13;
3;FRA;Rhône-Alpes;Loire;Saint-Georges-de-Baroille 42226;E4.1333;N45.8500;13;
3;FRA;Rhône-Alpes;Loire;Saint-Georges-en-Couzan 42227;E3.9333;N45.7000;13;
3;FRA;Rhône-Alpes;Loire;Saint-Georges-Haute-Ville 42228;E4.1000;N45.5500;13;
3;FRA;Rhône-Alpes;Loire;Saint-Germain-la-Montagne 42229;E4.3833;N46.2000;13;
3;FRA;Rhône-Alpes;Loire;Saint-Germain-Laval 42230;E4.0167;N45.8333;13;
3;FRA;Rhône-Alpes;Loire;Saint-Germain-Lespinasse 42231;E3.9639;N46.1038;13;
3;FRA;Rhône-Alpes;Loire;Saint-Haon-le-Châtel 42232;E3.9167;N46.0667;13;
3;FRA;Rhône-Alpes;Loire;Saint-Haon-le-Vieux 42233;E3.9167;N46.0667;13;
3;FRA;Rhône-Alpes;Loire;Saint-Héand 42234;E4.3667;N45.5167;13;
3;FRA;Rhône-Alpes;Loire;Saint-Hilaire-Cusson-la-Valmitte 42235;E4.0403;N45.3686;13;
3;FRA;Rhône-Alpes;Loire;Saint-Hilaire-sous-Charlieu 42236;E4.2000;N46.1167;13;
3;FRA;Rhône-Alpes;Loire;Saint-Jean-Bonnefonds 42237;E4.4500;N45.4500;13;
3;FRA;Rhône-Alpes;Loire;Saint-Jean-la-Vêtre 42238;E3.8000;N45.7833;13;
3;FRA;Rhône-Alpes;Loire;Saint-Jean-Soleymieux 42240;E4.0333;N45.5000;13;
3;FRA;Rhône-Alpes;Loire;Saint-Jodard 42241;E4.1333;N45.8833;13;
3;FRA;Rhône-Alpes;Loire;Saint-Joseph 42242;E4.6167;N45.5500;13;
3;FRA;Rhône-Alpes;Loire;Saint-Julien-d'Oddes 42243;E4.0000;N45.8500;13;
3;FRA;Rhône-Alpes;Loire;Saint-Julien-en-Jarez 42244=42207;E4.5250;N45.4788;13;
3;FRA;Rhône-Alpes;Loire;Saint-Julien-la-Vêtre 42245;E3.8167;N45.8167;13;
3;FRA;Rhône-Alpes;Loire;Saint-Julien-Molin-Molette 42246;E4.6167;N45.3167;13;
3;FRA;Rhône-Alpes;Loire;Saint-Just-en-Bas 42247;E3.8833;N45.7333;13;
3;FRA;Rhône-Alpes;Loire;Saint-Just-en-Chevalet 42248;E3.8500;N45.9167;13;
3;FRA;Rhône-Alpes;Loire;Saint-Just-la-Pendue 42249;E4.2500;N45.9000;13;
3;FRA;Rhône-Alpes;Loire;Saint-Just-Saint-Rambert 42279;E4.2645;N45.5035;13;
3;FRA;Rhône-Alpes;Loire;Saint-Just-sur-Loire 42250=42279;E4.2667;N45.4833;13;
3;FRA;Rhône-Alpes;Loire;Saint-Laurent-la-Conche 42251;E4.2000;N45.6833;13;
3;FRA;Rhône-Alpes;Loire;Saint-Laurent-Rochefort 42252;E3.9167;N45.7667;13;
3;FRA;Rhône-Alpes;Loire;Saint-Léger-sur-Roanne 42253;E4.0000;N46.0333;13;
3;FRA;Rhône-Alpes;Loire;Saint-Marcel-d'Urfé 42255;E3.8833;N45.8667;13;
3;FRA;Rhône-Alpes;Loire;Saint-Marcel-de-Félines 42254;E4.1833;N45.8667;13;
3;FRA;Rhône-Alpes;Loire;Saint-Marcellin-en-Forez 42256;E4.1667;N45.4833;13;
3;FRA;Rhône-Alpes;Loire;Saint-Martin-d'Estréaux 42257;E3.8000;N46.2000;13;
3;FRA;Rhône-Alpes;Loire;Saint-Martin-en-Coailleux 42258=42207;E4.5209;N45.4615;13;
3;FRA;Rhône-Alpes;Loire;Saint-Martin-la-Plaine 42259;E4.6000;N45.5333;13;
3;FRA;Rhône-Alpes;Loire;Saint-Martin-la-Sauveté 42260;E3.9167;N45.8333;13;
3;FRA;Rhône-Alpes;Loire;Saint-Martin-Lestra 42261;E4.3500;N45.7167;13;
3;FRA;Rhône-Alpes;Loire;Saint-Maurice-en-Gourgois 42262;E4.1833;N45.4000;13;
3;FRA;Rhône-Alpes;Loire;Saint-Maurice-sur-Loire 42263=42239;E4.0167;N45.9667;13;
3;FRA;Rhône-Alpes;Loire;Saint-Médard-en-Forez 42264;E4.3667;N45.6000;13;
3;FRA;Rhône-Alpes;Loire;Saint-Michel-sur-Rhône 42265;E4.7500;N45.4500;13;
3;FRA;Rhône-Alpes;Loire;Saint-Nizier-de-Fornas 42266;E4.0833;N45.4000;13;
3;FRA;Rhône-Alpes;Loire;Saint-Nizier-sous-Charlieu 42267;E4.1333;N46.1500;13;
3;FRA;Rhône-Alpes;Loire;Saint-Paul-d'Uzore 42269;E4.0833;N45.6667;13;
3;FRA;Rhône-Alpes;Loire;Saint-Paul-de-Vézelin 42268;E4.0833;N45.8833;13;
3;FRA;Rhône-Alpes;Loire;Saint-Paul-en-Cornillon 42270;E4.2333;N45.4000;13;
3;FRA;Rhône-Alpes;Loire;Saint-Paul-en-Jarez 42271;E4.5833;N45.4833;13;
3;FRA;Rhône-Alpes;Loire;Saint-Pierre-de-Boeuf 42272;E4.7500;N45.3667;13;
3;FRA;Rhône-Alpes;Loire;Saint-Pierre-la-Noaille 42273;E4.1000;N46.1833;13;
3;FRA;Rhône-Alpes;Loire;Saint-Polgues 42274;E3.9833;N45.9167;13;
3;FRA;Rhône-Alpes;Loire;Saint-Priest-en-Jarez 42275;E4.3667;N45.4667;13;
3;FRA;Rhône-Alpes;Loire;Saint-Priest-la-Prugne 42276;E3.7500;N45.9667;13;
3;FRA;Rhône-Alpes;Loire;Saint-Priest-la-Roche 42277;E4.1000;N45.9167;13;
3;FRA;Rhône-Alpes;Loire;Saint-Priest-la-Vêtre 42278;E3.8000;N45.8000;13;
3;FRA;Rhône-Alpes;Loire;Saint-Régis-du-Coin 42280;E4.4500;N45.2833;13;
3;FRA;Rhône-Alpes;Loire;Saint-Rirand 42281;E3.8500;N46.0667;13;
3;FRA;Rhône-Alpes;Loire;Saint-Romain-d'Urfé 42282;E3.8333;N45.8833;13;
3;FRA;Rhône-Alpes;Loire;Saint-Romain-en-Jarez 42283;E4.5167;N45.5500;13;
3;FRA;Rhône-Alpes;Loire;Saint-Romain-la-Motte 42284;E3.9833;N46.0833;13;
3;FRA;Rhône-Alpes;Loire;Saint-Romain-le-Puy 42285;E4.1167;N45.5500;13;
3;FRA;Rhône-Alpes;Loire;Saint-Romain-les-Atheux 42286;E4.3833;N45.3500;13;
3;FRA;Rhône-Alpes;Loire;Saint-Sauveur-en-Rue 42287;E4.5000;N45.2667;13;
3;FRA;Rhône-Alpes;Loire;Saint-Sixte 42288;E3.9833;N45.7833;13;
3;FRA;Rhône-Alpes;Loire;Saint-Symphorien-de-Lay 42289;E4.2167;N45.9500;13;
3;FRA;Rhône-Alpes;Loire;Saint-Thomas-la-Garde 42290;E4.0833;N45.5667;13;
3;FRA;Rhône-Alpes;Loire;Saint-Thurin 42291;E3.8667;N45.8167;13;
3;FRA;Rhône-Alpes;Loire;Saint-Victor-sur-Loire 42292=42218;E4.2500;N45.4500;13;
3;FRA;Rhône-Alpes;Loire;Saint-Victor-sur-Rhins 42293;E4.2833;N46.0000;13;
3;FRA;Rhône-Alpes;Loire;Saint-Vincent-de-Boisset 42294;E4.1167;N46.0000;13;
3;FRA;Rhône-Alpes;Loire;Sainte-Agathe-en-Donzy 42196;E4.3167;N45.8333;13;
3;FRA;Rhône-Alpes;Loire;Sainte-Agathe-la-Bouteresse 42197;E4.0564;N45.7333;13;
3;FRA;Rhône-Alpes;Loire;Sainte-Colombe-sur-Gand 42209;E4.2667;N45.8833;13;
3;FRA;Rhône-Alpes;Loire;Sainte-Croix-en-Jarez 42210;E4.6500;N45.4833;13;
3;FRA;Rhône-Alpes;Loire;Sainte-Foy-Saint-Sulpice 42221;E4.1333;N45.7667;13;
3;FRA;Rhône-Alpes;Loire;Salt-en-Donzy 42296;E4.2833;N45.7333;13;
3;FRA;Rhône-Alpes;Loire;Salvizinet 42297;E4.2667;N45.7667;13;
3;FRA;Rhône-Alpes;Loire;Sauvain 42298;E3.9000;N45.6667;13;
3;FRA;Rhône-Alpes;Loire;Savigneux 42299;E4.0833;N45.6167;13;
3;FRA;Rhône-Alpes;Loire;Sevelinges 42300;E4.3000;N46.1000;13;
3;FRA;Rhône-Alpes;Loire;Soleymieux 42301;E4.0500;N45.5167;13;
3;FRA;Rhône-Alpes;Loire;Sorbiers 42302;E4.4500;N45.4833;13;
3;FRA;Rhône-Alpes;Loire;Souternon 42303;E4.0000;N45.8667;13;
3;FRA;Rhône-Alpes;Loire;Sury-le-Comtal 42304;E4.1667;N45.5333;13;
3;FRA;Rhône-Alpes;Loire;Tarentaise 42306;E4.5000;N45.3667;13;
3;FRA;Rhône-Alpes;Loire;Tartaras 42307;E4.6667;N45.5500;13;
3;FRA;Rhône-Alpes;Loire;Terrenoire 42309=42218;E4.4333;N45.4333;13;
3;FRA;Rhône-Alpes;Loire;Thélis-la-Combe 42310;E4.5500;N45.3167;13;
3;FRA;Rhône-Alpes;Loire;Trelins 42313;E4.0167;N45.7333;13;
3;FRA;Rhône-Alpes;Loire;Unias 42315;E4.2167;N45.6000;13;
3;FRA;Rhône-Alpes;Loire;Unieux 42316;E4.2667;N45.4000;13;
3;FRA;Rhône-Alpes;Loire;Urbise 42317;E3.9000;N46.2500;13;
3;FRA;Rhône-Alpes;Loire;Usson-en-Forez 42318;E3.9333;N45.3833;13;
3;FRA;Rhône-Alpes;Loire;Valeille 42319;E4.3064;N45.7075;13;
3;FRA;Rhône-Alpes;Loire;Valfleury 42320;E4.5000;N45.5167;13;
3;FRA;Rhône-Alpes;Loire;Veauche 42323;E4.2833;N45.5500;13;
3;FRA;Rhône-Alpes;Loire;Veauchette 42324;E4.2667;N45.5667;13;
3;FRA;Rhône-Alpes;Loire;Vendranges 42325;E4.1333;N45.9333;13;
3;FRA;Rhône-Alpes;Loire;Véranne 42326;E4.6667;N45.3667;13;
3;FRA;Rhône-Alpes;Loire;Vérin 42327;E4.7500;N45.4500;13;
3;FRA;Rhône-Alpes;Loire;Verrières-en-Forez 42328;E4.0000;N45.5667;13;
3;FRA;Rhône-Alpes;Loire;Villars 42330;E4.3500;N45.4667;13;
3;FRA;Rhône-Alpes;Loire;Villemontais 42331;E3.9500;N45.9833;13;
3;FRA;Rhône-Alpes;Loire;Villerest 42332;E4.0384;N45.9942;13;
3;FRA;Rhône-Alpes;Loire;Villers 42333;E4.2333;N46.1167;13;
3;FRA;Rhône-Alpes;Loire;Violay 42334;E4.3500;N45.8500;13;
3;FRA;Rhône-Alpes;Loire;Viricelles 42335;E4.3833;N45.6500;13;
3;FRA;Rhône-Alpes;Loire;Virigneux 42336;E4.3500;N45.6833;13;
3;FRA;Rhône-Alpes;Loire;Vivans 42337;E3.9500;N46.1833;13;
3;FRA;Rhône-Alpes;Loire;Vougy 42338;E4.1189;N46.1018;13;
2;FRA;Rhône-Alpes;Rhône;;E4.64;N45.91;9;
3;FRA;Rhône-Alpes;Rhône;Affoux 69001;E4.4000;N45.8333;13;
3;FRA;Rhône-Alpes;Rhône;Aigueperse 69002;E4.4333;N46.2833;13;
3;FRA;Rhône-Alpes;Rhône;Albigny-sur-Saône 69003;E4.4500;N45.8167;13;
3;FRA;Rhône-Alpes;Rhône;Alix 69004;E4.6532;N45.9134;13;
3;FRA;Rhône-Alpes;Rhône;Ambérieux 69005;E4.7372;N45.9277;13;
3;FRA;Rhône-Alpes;Rhône;Amplepuis 69006;E4.3333;N45.9833;13;
3;FRA;Rhône-Alpes;Rhône;Ampuis 69007;E4.8091;N45.4869;13;
3;FRA;Rhône-Alpes;Rhône;Ancy 69008;E4.5167;N45.8333;13;
3;FRA;Rhône-Alpes;Rhône;Anse 69009;E4.7167;N45.9333;13;
3;FRA;Rhône-Alpes;Rhône;Arbuissonnas 69011=69172;E4.6333;N46.0500;13;
3;FRA;Rhône-Alpes;Rhône;Arnas 69013;E4.7068;N46.0233;13;
3;FRA;Rhône-Alpes;Rhône;Aveize 69014;E4.4833;N45.6833;13;
3;FRA;Rhône-Alpes;Rhône;Avenas 69015;E4.6167;N46.2000;13;
3;FRA;Rhône-Alpes;Rhône;Azolette 69016;E4.4167;N46.2000;13;
3;FRA;Rhône-Alpes;Rhône;Bagnols 69017;E4.6167;N45.9167;13;
3;FRA;Rhône-Alpes;Rhône;Beaujeu 69018;E4.6000;N46.1500;13;
3;FRA;Rhône-Alpes;Rhône;Belleville 69019;E4.7500;N46.1083;13;
3;FRA;Rhône-Alpes;Rhône;Belmont-d'Azergues 69020;E4.6697;N45.8684;13;
3;FRA;Rhône-Alpes;Rhône;Bessenay 69021;E4.5500;N45.7833;13;
3;FRA;Rhône-Alpes;Rhône;Bibost 69022;E4.5500;N45.8000;13;
3;FRA;Rhône-Alpes;Rhône;Blacé 69023;E4.6500;N46.0333;13;
3;FRA;Rhône-Alpes;Rhône;Bourg-de-Thizy 69025;E4.3000;N46.0333;13;
3;FRA;Rhône-Alpes;Rhône;Brignais 69027;E4.7500;N45.6667;13;
3;FRA;Rhône-Alpes;Rhône;Brindas 69028;E4.6833;N45.7167;13;
3;FRA;Rhône-Alpes;Rhône;Bron 69029;E4.9167;N45.7333;13;
3;FRA;Rhône-Alpes;Rhône;Brullioles 69030;E4.5000;N45.7667;13;
3;FRA;Rhône-Alpes;Rhône;Brussieu 69031;E4.5167;N45.7500;13;
3;FRA;Rhône-Alpes;Rhône;Bully 69032;E4.5833;N45.8500;13;
3;FRA;Rhône-Alpes;Rhône;Cailloux-sur-Fontaines 69033;E4.8667;N45.8500;13;
3;FRA;Rhône-Alpes;Rhône;Caluire-et-Cuire 69034;E4.8500;N45.8000;13;
3;FRA;Rhône-Alpes;Rhône;Cenves 69035;E4.6500;N46.2667;13;
3;FRA;Rhône-Alpes;Rhône;Cercié 69036;E4.6667;N46.1167;13;
3;FRA;Rhône-Alpes;Rhône;Chambost-Allières 69037;E4.5000;N46.0167;13;
3;FRA;Rhône-Alpes;Rhône;Chambost-Longessaigne 69038;E4.3667;N45.7667;13;
3;FRA;Rhône-Alpes;Rhône;Chamelet 69039;E4.5167;N45.9833;13;
3;FRA;Rhône-Alpes;Rhône;Champagne-au-Mont-d'Or 69040;E4.7833;N45.8000;13;
3;FRA;Rhône-Alpes;Rhône;Chaponnay 69270;E4.9333;N45.6167;13;
3;FRA;Rhône-Alpes;Rhône;Chaponost 69043;E4.7500;N45.7000;13;
3;FRA;Rhône-Alpes;Rhône;Charbonnières-les-Bains 69044;E4.7333;N45.7833;13;
3;FRA;Rhône-Alpes;Rhône;Charentay 69045;E4.6833;N46.0833;13;
3;FRA;Rhône-Alpes;Rhône;Charly 69046;E4.8000;N45.6500;13;
3;FRA;Rhône-Alpes;Rhône;Charnay 69047;E4.6667;N45.9000;13;
3;FRA;Rhône-Alpes;Rhône;Chassagny 69048;E4.7333;N45.6000;13;
3;FRA;Rhône-Alpes;Rhône;Chasselay 69049;E4.7833;N45.8667;13;
3;FRA;Rhône-Alpes;Rhône;Chassieu 69271;E4.9667;N45.7500;13;
3;FRA;Rhône-Alpes;Rhône;Châtillon 69050;E4.6500;N45.8750;13;
3;FRA;Rhône-Alpes;Rhône;Chaussan 69051;E4.6333;N45.6333;13;
3;FRA;Rhône-Alpes;Rhône;Chazay-d'Azergues 69052;E4.7167;N45.8667;13;
3;FRA;Rhône-Alpes;Rhône;Chénas 69053;E4.7167;N46.2167;13;
3;FRA;Rhône-Alpes;Rhône;Chénelette 69054;E4.4833;N46.1667;13;
3;FRA;Rhône-Alpes;Rhône;Chessy 69056;E4.6167;N45.9000;13;
3;FRA;Rhône-Alpes;Rhône;Chevinay 69057;E4.6000;N45.7667;13;
3;FRA;Rhône-Alpes;Rhône;Chiroubles 69058;E4.6667;N46.1833;13;
3;FRA;Rhône-Alpes;Rhône;Civrieux-d'Azergues 69059;E4.7167;N45.8500;13;
3;FRA;Rhône-Alpes;Rhône;Claveisolles 69060;E4.5000;N46.1000;13;
3;FRA;Rhône-Alpes;Rhône;Cogny 69061;E4.6333;N45.9833;13;
3;FRA;Rhône-Alpes;Rhône;Coise 69062;E4.4833;N45.6167;13;
3;FRA;Rhône-Alpes;Rhône;Collonges-au-Mont-d'Or 69063;E4.8333;N45.8167;13;
3;FRA;Rhône-Alpes;Rhône;Colombier-Saugnieu 69299;E5.1116;N45.7124;13;
3;FRA;Rhône-Alpes;Rhône;Communay 69272;E4.8333;N45.6000;13;
3;FRA;Rhône-Alpes;Rhône;Condrieu 69064;E4.7670;N45.4622;13;
3;FRA;Rhône-Alpes;Rhône;Corbas 69273;E4.9000;N45.6667;13;
3;FRA;Rhône-Alpes;Rhône;Corcelles-en-Beaujolais 69065;E4.7167;N46.1500;13;
3;FRA;Rhône-Alpes;Rhône;Cours-la-Ville 69066;E4.3214;N46.1003;13;
3;FRA;Rhône-Alpes;Rhône;Courzieu 69067;E4.5667;N45.7333;13;
3;FRA;Rhône-Alpes;Rhône;Couzon-au-Mont-d'Or 69068;E4.8333;N45.8333;13;
3;FRA;Rhône-Alpes;Rhône;Craponne 69069;E4.7167;N45.7333;13;
3;FRA;Rhône-Alpes;Rhône;Crépieux-la-Pape 69274=69286;E4.8667;N45.8000;13;
3;FRA;Rhône-Alpes;Rhône;Cublize 69070;E4.3833;N46.0167;13;
3;FRA;Rhône-Alpes;Rhône;Curis-au-Mont-d'Or 69071;E4.8199;N45.8698;13;
3;FRA;Rhône-Alpes;Rhône;Dardilly 69072;E4.7333;N45.8000;13;
3;FRA;Rhône-Alpes;Rhône;Dareizé 69073;E4.5000;N45.9000;13;
3;FRA;Rhône-Alpes;Rhône;Décines-Charpieu 69275;E4.9667;N45.7500;13;
3;FRA;Rhône-Alpes;Rhône;Denicé 69074;E4.6500;N46.0000;13;
3;FRA;Rhône-Alpes;Rhône;Dième 69075;E4.4667;N45.9667;13;
3;FRA;Rhône-Alpes;Rhône;Dommartin 69076;E4.7167;N45.8333;13;
3;FRA;Rhône-Alpes;Rhône;Dracé 69077;E4.7667;N46.1500;13;
3;FRA;Rhône-Alpes;Rhône;Duerne 69078;E4.5333;N45.6833;13;
3;FRA;Rhône-Alpes;Rhône;Durette 69079=69165;E4.6333;N46.1333;13;
3;FRA;Rhône-Alpes;Rhône;Échalas 69080;E4.7167;N45.5500;13;
3;FRA;Rhône-Alpes;Rhône;Écully 69081;E4.7667;N45.7667;13;
3;FRA;Rhône-Alpes;Rhône;Émeringes 69082;E4.6667;N46.2167;13;
3;FRA;Rhône-Alpes;Rhône;Éveux 69083;E4.6167;N45.8333;13;
3;FRA;Rhône-Alpes;Rhône;Feyzin 69276;E4.8500;N45.6667;13;
3;FRA;Rhône-Alpes;Rhône;Fleurie 69084;E4.7000;N46.1833;13;
3;FRA;Rhône-Alpes;Rhône;Fleurieu-sur-Saône 69085;E4.8500;N45.8667;13;
3;FRA;Rhône-Alpes;Rhône;Fleurieux-sur-l'Arbresle 69086;E4.6500;N45.8333;13;
3;FRA;Rhône-Alpes;Rhône;Fontaines-Saint-Martin 69087;E4.8667;N45.8500;13;
3;FRA;Rhône-Alpes;Rhône;Fontaines-sur-Saône 69088;E4.8500;N45.8333;13;
3;FRA;Rhône-Alpes;Rhône;Francheville 69089;E4.7667;N45.7333;13;
3;FRA;Rhône-Alpes;Rhône;Frontenas 69090;E4.6167;N45.9333;13;
3;FRA;Rhône-Alpes;Rhône;Genas 69277;E5.0000;N45.7333;13;
3;FRA;Rhône-Alpes;Rhône;Genay 69278;E4.8333;N45.9000;13;
3;FRA;Rhône-Alpes;Rhône;Givors 69091;E4.7667;N45.5833;13;
3;FRA;Rhône-Alpes;Rhône;Gleizé 69092;E4.6833;N45.9833;13;
3;FRA;Rhône-Alpes;Rhône;Grandris 69093;E4.4833;N46.0333;13;
3;FRA;Rhône-Alpes;Rhône;Grézieu-la-Varenne 69094;E4.7000;N45.7500;13;
3;FRA;Rhône-Alpes;Rhône;Grézieu-le-Marché 69095;E4.4192;N45.6564;13;
3;FRA;Rhône-Alpes;Rhône;Grigny 69096;E4.7833;N45.6167;13;
3;FRA;Rhône-Alpes;Rhône;Haute-Rivoire 69099;E4.4000;N45.7167;13;
3;FRA;Rhône-Alpes;Rhône;Irigny 69100;E4.8167;N45.6667;13;
3;FRA;Rhône-Alpes;Rhône;Jarnioux 69101;E4.6333;N45.9667;13;
3;FRA;Rhône-Alpes;Rhône;Jonage 69279;E5.0333;N45.8000;13;
3;FRA;Rhône-Alpes;Rhône;Jons 69280;E5.0792;N45.8077;13;
3;FRA;Rhône-Alpes;Rhône;Joux 69102;E4.3667;N45.9000;13;
3;FRA;Rhône-Alpes;Rhône;Juliénas 69103;E4.7167;N46.2333;13;
3;FRA;Rhône-Alpes;Rhône;Jullié 69104;E4.6833;N46.2333;13;
3;FRA;Rhône-Alpes;Rhône;L'Arbresle 69010;E4.6167;N45.8333;13;
3;FRA;Rhône-Alpes;Rhône;La Chapelle-de-Mardore 69041;E4.3500;N46.0500;13;
3;FRA;Rhône-Alpes;Rhône;La Chapelle-sur-Coise 69042;E4.5000;N45.6500;13;
3;FRA;Rhône-Alpes;Rhône;La Mulatière 69142;E4.8083;N45.5833;13;
3;FRA;Rhône-Alpes;Rhône;La Tour-de-Salvagny 69250;E4.8000;N45.7333;13;
3;FRA;Rhône-Alpes;Rhône;La Ville 69262=69066;E4.7167;N45.8167;13;
3;FRA;Rhône-Alpes;Rhône;Lacenas 69105;E4.6500;N46.0000;13;
3;FRA;Rhône-Alpes;Rhône;Lachassagne 69106;E4.6833;N45.9333;13;
3;FRA;Rhône-Alpes;Rhône;Lamure-sur-Azergues 69107;E4.5000;N46.0667;13;
3;FRA;Rhône-Alpes;Rhône;Lancié 69108;E4.7167;N46.1667;13;
3;FRA;Rhône-Alpes;Rhône;Lantignié 69109;E4.6333;N46.1500;13;
3;FRA;Rhône-Alpes;Rhône;Larajasse 69110;E4.5000;N45.6167;13;
3;FRA;Rhône-Alpes;Rhône;Le Bois-d'Oingt 69024;E4.5833;N45.9167;13;
3;FRA;Rhône-Alpes;Rhône;Le Breuil 69026;E4.5667;N45.9000;13;
3;FRA;Rhône-Alpes;Rhône;Le Perréon 69151;E4.6000;N46.0667;13;
3;FRA;Rhône-Alpes;Rhône;Légny 69111;E4.5833;N45.9167;13;
3;FRA;Rhône-Alpes;Rhône;Lentilly 69112;E4.6667;N45.8167;13;
3;FRA;Rhône-Alpes;Rhône;Les Ardillats 69012;E4.5500;N46.1833;13;
3;FRA;Rhône-Alpes;Rhône;Les Chères 69055;E4.7333;N45.8833;13;
3;FRA;Rhône-Alpes;Rhône;Les Haies 69097;E4.7500;N45.5000;13;
3;FRA;Rhône-Alpes;Rhône;Les Halles 69098;E4.4333;N45.7167;13;
3;FRA;Rhône-Alpes;Rhône;Les Olmes 69147;E4.5000;N45.8833;13;
3;FRA;Rhône-Alpes;Rhône;Les Sauvages 69174;E4.3764;N45.9251;13;
3;FRA;Rhône-Alpes;Rhône;Létra 69113;E4.5333;N45.9667;13;
3;FRA;Rhône-Alpes;Rhône;Liergues 69114;E4.6667;N45.9667;13;
3;FRA;Rhône-Alpes;Rhône;Limas 69115;E4.7000;N45.9667;13;
3;FRA;Rhône-Alpes;Rhône;Limonest 69116;E4.7667;N45.8333;13;
3;FRA;Rhône-Alpes;Rhône;Lissieu 69117;E4.7500;N45.8667;13;
3;FRA;Rhône-Alpes;Rhône;Loire-sur-Rhône 69118;E4.8061;N45.5600;13;
3;FRA;Rhône-Alpes;Rhône;Longes 69119;E4.6833;N45.5000;13;
3;FRA;Rhône-Alpes;Rhône;Longessaigne 69120;E4.4333;N45.8000;13;
3;FRA;Rhône-Alpes;Rhône;Lozanne 69121;E4.6833;N45.8667;13;
3;FRA;Rhône-Alpes;Rhône;Lucenay 69122;E4.7000;N45.9167;13;
3;FRA;Rhône-Alpes;Rhône;Lyon 69123;E4.8500;N45.7500;13;
3;FRA;Rhône-Alpes;Rhône;Lyon-1er 69381;E4.8343;N45.7674;13;
3;FRA;Rhône-Alpes;Rhône;Lyon-2e 69382;E4.8296;N45.7548;13;
3;FRA;Rhône-Alpes;Rhône;Lyon-3e 69383;E4.8488;N45.7604;13;
3;FRA;Rhône-Alpes;Rhône;Lyon-4e 69384;E4.8278;N45.7744;13;
3;FRA;Rhône-Alpes;Rhône;Lyon-5e 69385;E4.8272;N45.7616;13;
3;FRA;Rhône-Alpes;Rhône;Lyon-6e 69386;E4.8504;N45.7685;13;
3;FRA;Rhône-Alpes;Rhône;Lyon-7e 69387;E4.8417;N45.7452;13;
3;FRA;Rhône-Alpes;Rhône;Lyon-8e 69388;E4.8696;N45.7363;13;
3;FRA;Rhône-Alpes;Rhône;Lyon-9e 69389;E4.8052;N45.7743;13;
3;FRA;Rhône-Alpes;Rhône;Marchampt 69124;E4.5833;N46.1167;13;
3;FRA;Rhône-Alpes;Rhône;Marcilly-d'Azergues 69125;E4.7333;N45.8667;13;
3;FRA;Rhône-Alpes;Rhône;Marcy 69126;E4.6833;N45.9167;13;
3;FRA;Rhône-Alpes;Rhône;Marcy-l'Étoile 69127;E4.7167;N45.7833;13;
3;FRA;Rhône-Alpes;Rhône;Mardore 69128;E4.3333;N46.0667;13;
3;FRA;Rhône-Alpes;Rhône;Marennes 69281;E4.9000;N45.6167;13;
3;FRA;Rhône-Alpes;Rhône;Marnand 69129;E4.3333;N46.0333;13;
3;FRA;Rhône-Alpes;Rhône;Meaux-la-Montagne 69130;E4.4333;N46.0500;13;
3;FRA;Rhône-Alpes;Rhône;Messimy 69131;E4.6737;N45.6972;13;
3;FRA;Rhône-Alpes;Rhône;Meys 69132;E4.3833;N45.6833;13;
3;FRA;Rhône-Alpes;Rhône;Meyzieu 69282;E5.0033;N45.7672;13;
3;FRA;Rhône-Alpes;Rhône;Millery 69133;E4.7667;N45.6333;13;
3;FRA;Rhône-Alpes;Rhône;Mions 69283;E4.9500;N45.6667;13;
3;FRA;Rhône-Alpes;Rhône;Moiré 69134;E4.6000;N45.9333;13;
3;FRA;Rhône-Alpes;Rhône;Monsols 69135;E4.5167;N46.2167;13;
3;FRA;Rhône-Alpes;Rhône;Montagny 69136;E4.7500;N45.6167;13;
3;FRA;Rhône-Alpes;Rhône;Montanay 69284;E4.8500;N45.8833;13;
3;FRA;Rhône-Alpes;Rhône;Montmelas-Saint-Sorlin 69137;E4.6167;N46.0167;13;
3;FRA;Rhône-Alpes;Rhône;Montromant 69138;E4.5167;N45.7000;13;
3;FRA;Rhône-Alpes;Rhône;Montrottier 69139;E4.4667;N45.7833;13;
3;FRA;Rhône-Alpes;Rhône;Morancé 69140;E4.7000;N45.9000;13;
3;FRA;Rhône-Alpes;Rhône;Mornant 69141;E4.6667;N45.6167;13;
3;FRA;Rhône-Alpes;Rhône;Neuville-sur-Saône 69143;E4.8500;N45.8667;13;
3;FRA;Rhône-Alpes;Rhône;Nuelles 69144;E4.6167;N45.8500;13;
3;FRA;Rhône-Alpes;Rhône;Odenas 69145;E4.6500;N46.0833;13;
3;FRA;Rhône-Alpes;Rhône;Oingt 69146;E4.5833;N45.9500;13;
3;FRA;Rhône-Alpes;Rhône;Orliénas 69148;E4.7167;N45.6667;13;
3;FRA;Rhône-Alpes;Rhône;Oullins 69149;E4.8000;N45.7167;13;
3;FRA;Rhône-Alpes;Rhône;Ouroux 69150;E4.6000;N46.2333;13;
3;FRA;Rhône-Alpes;Rhône;Pierre-Bénite 69152;E4.8167;N45.7000;13;
3;FRA;Rhône-Alpes;Rhône;Poleymieux-au-Mont-d'Or 69153;E4.8167;N45.8667;13;
3;FRA;Rhône-Alpes;Rhône;Pollionnay 69154;E4.6500;N45.7667;13;
3;FRA;Rhône-Alpes;Rhône;Pomeys 69155;E4.4500;N45.6500;13;
3;FRA;Rhône-Alpes;Rhône;Pommiers 69156;E4.6833;N45.9500;13;
3;FRA;Rhône-Alpes;Rhône;Pont-Trambouze 69158;E4.3167;N46.0667;13;
3;FRA;Rhône-Alpes;Rhône;Pontcharra-sur-Turdine 69157;E4.4833;N45.8667;13;
3;FRA;Rhône-Alpes;Rhône;Pouilly-le-Monial 69159;E4.6500;N45.9667;13;
3;FRA;Rhône-Alpes;Rhône;Poule-les-Écharmeaux 69160;E4.4667;N46.1500;13;
3;FRA;Rhône-Alpes;Rhône;Propières 69161;E4.4333;N46.1833;13;
3;FRA;Rhône-Alpes;Rhône;Pusignan 69285;E5.0667;N45.7500;13;
3;FRA;Rhône-Alpes;Rhône;Quincié-en-Beaujolais 69162;E4.6000;N46.1167;13;
3;FRA;Rhône-Alpes;Rhône;Quincieux 69163;E4.7833;N45.9167;13;
3;FRA;Rhône-Alpes;Rhône;Ranchal 69164;E4.4000;N46.1333;13;
3;FRA;Rhône-Alpes;Rhône;Régnié-Durette 69165;E4.6409;N46.1382;13;
3;FRA;Rhône-Alpes;Rhône;Rillieux-la-Pape 69286;E4.8983;N45.8214;13;
3;FRA;Rhône-Alpes;Rhône;Riverie 69166;E4.6000;N45.6000;13;
3;FRA;Rhône-Alpes;Rhône;Rivolet 69167;E4.6000;N46.0000;13;
3;FRA;Rhône-Alpes;Rhône;Rochetaillée-sur-Saône 69168;E4.8357;N45.8396;13;
3;FRA;Rhône-Alpes;Rhône;Ronno 69169;E4.3833;N45.9833;13;
3;FRA;Rhône-Alpes;Rhône;Rontalon 69170;E4.6333;N45.6667;13;
3;FRA;Rhône-Alpes;Rhône;Sain-Bel 69171;E4.6000;N45.8167;13;
3;FRA;Rhône-Alpes;Rhône;Saint-Andéol-le-Château 69179;E4.7000;N45.5833;13;
3;FRA;Rhône-Alpes;Rhône;Saint-André-la-Côte 69180;E4.6000;N45.6333;13;
3;FRA;Rhône-Alpes;Rhône;Saint-Appolinaire 69181;E4.4167;N45.9833;13;
3;FRA;Rhône-Alpes;Rhône;Saint-Bonnet-de-Mure 69287;E5.0333;N45.6833;13;
3;FRA;Rhône-Alpes;Rhône;Saint-Bonnet-des-Bruyères 69182;E4.4667;N46.2667;13;
3;FRA;Rhône-Alpes;Rhône;Saint-Bonnet-le-Troncy 69183;E4.4333;N46.0833;13;
3;FRA;Rhône-Alpes;Rhône;Saint-Christophe 69185;E4.5425;N46.2623;13;
3;FRA;Rhône-Alpes;Rhône;Saint-Clément-de-Vers 69186;E4.4000;N46.2167;13;
3;FRA;Rhône-Alpes;Rhône;Saint-Clément-les-Places 69187;E4.4333;N45.7500;13;
3;FRA;Rhône-Alpes;Rhône;Saint-Clément-sur-Valsonne 69188;E4.4500;N45.9333;13;
3;FRA;Rhône-Alpes;Rhône;Saint-Cyr-au-Mont-d'Or 69191;E4.8167;N45.8000;13;
3;FRA;Rhône-Alpes;Rhône;Saint-Cyr-le-Chatoux 69192;E4.5667;N46.0333;13;
3;FRA;Rhône-Alpes;Rhône;Saint-Cyr-sur-le-Rhône 69193;E4.8500;N45.5167;13;
3;FRA;Rhône-Alpes;Rhône;Saint-Didier-au-Mont-d'Or 69194;E4.8000;N45.8000;13;
3;FRA;Rhône-Alpes;Rhône;Saint-Didier-sous-Riverie 69195;E4.6000;N45.6000;13;
3;FRA;Rhône-Alpes;Rhône;Saint-Didier-sur-Beaujeu 69196;E4.5500;N46.1500;13;
3;FRA;Rhône-Alpes;Rhône;Saint-Étienne-des-Oullières 69197;E4.6500;N46.0667;13;
3;FRA;Rhône-Alpes;Rhône;Saint-Étienne-la-Varenne 69198;E4.6333;N46.0833;13;
3;FRA;Rhône-Alpes;Rhône;Saint-Fons 69199;E4.8667;N45.7000;13;
3;FRA;Rhône-Alpes;Rhône;Saint-Forgeux 69200;E4.4833;N45.8500;13;
3;FRA;Rhône-Alpes;Rhône;Saint-Genis-l'Argentière 69203;E4.5000;N45.7167;13;
3;FRA;Rhône-Alpes;Rhône;Saint-Genis-Laval 69204;E4.8000;N45.6833;13;
3;FRA;Rhône-Alpes;Rhône;Saint-Genis-les-Ollières 69205;E4.7333;N45.7500;13;
3;FRA;Rhône-Alpes;Rhône;Saint-Georges-de-Reneins 69206;E4.7167;N46.0667;13;
3;FRA;Rhône-Alpes;Rhône;Saint-Germain-au-Mont-d'Or 69207;E4.8000;N45.8667;13;
3;FRA;Rhône-Alpes;Rhône;Saint-Germain-sur-l'Arbresle 69208;E4.6000;N45.8500;13;
3;FRA;Rhône-Alpes;Rhône;Saint-Igny-de-Vers 69209;E4.4333;N46.2333;13;
3;FRA;Rhône-Alpes;Rhône;Saint-Jacques-des-Arrêts 69210;E4.6000;N46.2500;13;
3;FRA;Rhône-Alpes;Rhône;Saint-Jean-d'Ardières 69211;E4.7333;N46.1167;13;
3;FRA;Rhône-Alpes;Rhône;Saint-Jean-de-Touslas 69213;E4.6667;N45.5833;13;
3;FRA;Rhône-Alpes;Rhône;Saint-Jean-des-Vignes 69212;E4.6833;N45.8667;13;
3;FRA;Rhône-Alpes;Rhône;Saint-Jean-la-Bussière 69214;E4.3333;N46.0000;13;
3;FRA;Rhône-Alpes;Rhône;Saint-Julien 69215;E4.6667;N46.0333;13;
3;FRA;Rhône-Alpes;Rhône;Saint-Julien-sur-Bibost 69216;E4.5167;N45.8000;13;
3;FRA;Rhône-Alpes;Rhône;Saint-Just-d'Avray 69217;E4.4500;N46.0000;13;
3;FRA;Rhône-Alpes;Rhône;Saint-Lager 69218;E4.6667;N46.1167;13;
3;FRA;Rhône-Alpes;Rhône;Saint-Laurent-d'Agny 69219;E4.6833;N45.6333;13;
3;FRA;Rhône-Alpes;Rhône;Saint-Laurent-d'Oingt 69222;E4.5667;N45.9500;13;
3;FRA;Rhône-Alpes;Rhône;Saint-Laurent-de-Chamousset 69220;E4.4667;N45.7333;13;
3;FRA;Rhône-Alpes;Rhône;Saint-Laurent-de-Mure 69288;E5.0333;N45.6833;13;
3;FRA;Rhône-Alpes;Rhône;Saint-Laurent-de-Vaux 69221;E4.6333;N45.7167;13;
3;FRA;Rhône-Alpes;Rhône;Saint-Loup 69223;E4.4667;N45.9000;13;
3;FRA;Rhône-Alpes;Rhône;Saint-Mamert 69224;E4.5833;N46.2500;13;
3;FRA;Rhône-Alpes;Rhône;Saint-Marcel-l'Éclairé 69225;E4.4333;N45.8667;13;
3;FRA;Rhône-Alpes;Rhône;Saint-Martin-de-Cornas 69226=69091;E4.7167;N45.5833;13;
3;FRA;Rhône-Alpes;Rhône;Saint-Martin-en-Haut 69227;E4.5500;N45.6500;13;
3;FRA;Rhône-Alpes;Rhône;Saint-Maurice-sur-Dargoire 69228;E4.6312;N45.5822;13;
3;FRA;Rhône-Alpes;Rhône;Saint-Nizier-d'Azergues 69229;E4.4667;N46.0833;13;
3;FRA;Rhône-Alpes;Rhône;Saint-Pierre-de-Chandieu 69289;E5.0167;N45.6500;13;
3;FRA;Rhône-Alpes;Rhône;Saint-Pierre-la-Palud 69231;E4.6167;N45.7833;13;
3;FRA;Rhône-Alpes;Rhône;Saint-Priest 69290;E4.9333;N45.6917;13;
3;FRA;Rhône-Alpes;Rhône;Saint-Rambert-l'Île-Barbe 69232=69123;E4.8301;N45.7978;13;
3;FRA;Rhône-Alpes;Rhône;Saint-Romain-au-Mont-d'Or 69233;E4.8333;N45.8333;13;
3;FRA;Rhône-Alpes;Rhône;Saint-Romain-de-Popey 69234;E4.5333;N45.8500;13;
3;FRA;Rhône-Alpes;Rhône;Saint-Romain-en-Gal 69235;E4.8667;N45.5333;13;
3;FRA;Rhône-Alpes;Rhône;Saint-Romain-en-Gier 69236;E4.7167;N45.5667;13;
3;FRA;Rhône-Alpes;Rhône;Saint-Sorlin 69237;E4.6333;N45.6167;13;
3;FRA;Rhône-Alpes;Rhône;Saint-Symphorien-d'Ozon 69291;E4.8667;N45.6333;13;
3;FRA;Rhône-Alpes;Rhône;Saint-Symphorien-sur-Coise 69238;E4.4500;N45.6333;13;
3;FRA;Rhône-Alpes;Rhône;Saint-Vérand 69239;E4.5333;N45.9167;13;
3;FRA;Rhône-Alpes;Rhône;Saint-Vincent-de-Reins 69240;E4.6667;N45.6500;13;
3;FRA;Rhône-Alpes;Rhône;Sainte-Catherine 69184;E4.4000;N46.0833;13;
3;FRA;Rhône-Alpes;Rhône;Sainte-Colombe 69189;E4.8667;N45.5167;13;
3;FRA;Rhône-Alpes;Rhône;Sainte-Consorce 69190;E4.7000;N45.7667;13;
3;FRA;Rhône-Alpes;Rhône;Sainte-Foy-l'Argentière 69201;E4.4667;N45.7000;13;
3;FRA;Rhône-Alpes;Rhône;Sainte-Foy-lès-Lyon 69202;E4.8000;N45.7333;13;
3;FRA;Rhône-Alpes;Rhône;Sainte-Paule 69230;E4.5667;N45.9667;13;
3;FRA;Rhône-Alpes;Rhône;Sarcey 69173;E4.5333;N45.8833;13;
3;FRA;Rhône-Alpes;Rhône;Sathonay-Camp 69292;E4.8667;N45.8167;13;
3;FRA;Rhône-Alpes;Rhône;Sathonay-Village 69293;E4.8833;N45.8333;13;
3;FRA;Rhône-Alpes;Rhône;Savigny 69175;E4.5667;N45.8167;13;
3;FRA;Rhône-Alpes;Rhône;Sérézin-du-Rhône 69294;E4.8333;N45.6333;13;
3;FRA;Rhône-Alpes;Rhône;Simandres 69295;E4.8667;N45.6167;13;
3;FRA;Rhône-Alpes;Rhône;Solaize 69296;E4.8400;N45.6397;13;
3;FRA;Rhône-Alpes;Rhône;Soucieu-en-Jarrest 69176;E4.7000;N45.6833;13;
3;FRA;Rhône-Alpes;Rhône;Sourcieux-les-Mines 69177;E4.6167;N45.8000;13;
3;FRA;Rhône-Alpes;Rhône;Souzy 69178;E4.4500;N45.7000;13;
3;FRA;Rhône-Alpes;Rhône;Taluyers 69241;E4.7333;N45.6500;13;
3;FRA;Rhône-Alpes;Rhône;Taponas 69242;E4.7667;N46.1167;13;
3;FRA;Rhône-Alpes;Rhône;Tarare 69243;E4.4333;N45.9000;13;
3;FRA;Rhône-Alpes;Rhône;Tassin-la-Demi-Lune 69244;E4.7833;N45.7667;13;
3;FRA;Rhône-Alpes;Rhône;Ternand 69245;E4.5333;N45.9500;13;
3;FRA;Rhône-Alpes;Rhône;Ternay 69297;E4.8167;N45.6167;13;
3;FRA;Rhône-Alpes;Rhône;Theizé 69246;E4.6167;N45.9333;13;
3;FRA;Rhône-Alpes;Rhône;Thel 69247;E4.3833;N46.1167;13;
3;FRA;Rhône-Alpes;Rhône;Thizy 69248;E4.3167;N46.0333;13;
3;FRA;Rhône-Alpes;Rhône;Thurins 69249;E4.6333;N45.6833;13;
3;FRA;Rhône-Alpes;Rhône;Toussieu 69298;E4.9833;N45.6500;13;
3;FRA;Rhône-Alpes;Rhône;Trades 69251;E4.5667;N46.2667;13;
3;FRA;Rhône-Alpes;Rhône;Trèves 69252;E4.6667;N45.5333;13;
3;FRA;Rhône-Alpes;Rhône;Tupin-et-Semons 69253;E4.8000;N45.4833;13;
3;FRA;Rhône-Alpes;Rhône;Valsonne 69254;E4.4333;N45.9500;13;
3;FRA;Rhône-Alpes;Rhône;Vaugneray 69255;E4.6500;N45.7333;13;
3;FRA;Rhône-Alpes;Rhône;Vaulx-en-Velin 69256;E4.9333;N45.7833;13;
3;FRA;Rhône-Alpes;Rhône;Vaux-en-Beaujolais 69257;E4.5833;N46.0500;13;
3;FRA;Rhône-Alpes;Rhône;Vauxrenard 69258;E4.6500;N46.2000;13;
3;FRA;Rhône-Alpes;Rhône;Vénissieux 69259;E4.8833;N45.6833;13;
3;FRA;Rhône-Alpes;Rhône;Vernaison 69260;E4.8167;N45.6500;13;
3;FRA;Rhône-Alpes;Rhône;Vernay 69261;E4.5333;N46.1500;13;
3;FRA;Rhône-Alpes;Rhône;Ville-sur-Jarnioux 69265;E4.6167;N45.9667;13;
3;FRA;Rhône-Alpes;Rhône;Villechenève 69263;E4.4167;N45.8167;13;
3;FRA;Rhône-Alpes;Rhône;Villefranche-sur-Saône 69264;E4.7167;N45.9833;13;
3;FRA;Rhône-Alpes;Rhône;Villeurbanne 69266;E4.8833;N45.7667;13;
3;FRA;Rhône-Alpes;Rhône;Villié-Morgon 69267;E4.6833;N46.1667;13;
3;FRA;Rhône-Alpes;Rhône;Vourles 69268;E4.7833;N45.6667;13;
3;FRA;Rhône-Alpes;Rhône;Yzeron 69269;E4.5833;N45.7000;13;
2;FRA;Rhône-Alpes;Savoie;;E6.25;N45.55;9;
3;FRA;Rhône-Alpes;Savoie;Aiguebelette-le-Lac 73001;E5.8167;N45.5333;13;
3;FRA;Rhône-Alpes;Savoie;Aiguebelle 73002;E6.3000;N45.5333;13;
3;FRA;Rhône-Alpes;Savoie;Aigueblanche 73003;E6.5000;N45.5000;13;
3;FRA;Rhône-Alpes;Savoie;Aillon-le-Jeune 73004;E6.0833;N45.6167;13;
3;FRA;Rhône-Alpes;Savoie;Aillon-le-Vieux 73005;E6.1000;N45.6500;13;
3;FRA;Rhône-Alpes;Savoie;Aime 73006;E6.6500;N45.5500;13;
3;FRA;Rhône-Alpes;Savoie;Aiton 73007;E6.2500;N45.5667;13;
3;FRA;Rhône-Alpes;Savoie;Aix-les-Bains 73008;E5.9167;N45.7000;13;
3;FRA;Rhône-Alpes;Savoie;Albanne 73009=73173;E6.4203;N45.2064;13;
3;FRA;Rhône-Alpes;Savoie;Albens 73010;E5.9500;N45.7833;13;
3;FRA;Rhône-Alpes;Savoie;Albertville 73011;E6.3833;N45.6833;13;
3;FRA;Rhône-Alpes;Savoie;Albiez-le-Jeune 73012;E6.3500;N45.2167;13;
3;FRA;Rhône-Alpes;Savoie;Albiez-Montrond 73013;E6.3333;N45.2167;13;
3;FRA;Rhône-Alpes;Savoie;Allondaz 73014;E6.3667;N45.7000;13;
3;FRA;Rhône-Alpes;Savoie;Ansigny 73016=73010;E5.9333;N45.8000;13;
3;FRA;Rhône-Alpes;Savoie;Apremont 73017;E5.9500;N45.5000;13;
3;FRA;Rhône-Alpes;Savoie;Arbin 73018;E6.0667;N45.5000;13;
3;FRA;Rhône-Alpes;Savoie;Argentine 73019;E6.3167;N45.5000;13;
3;FRA;Rhône-Alpes;Savoie;Arith 73020;E6.0833;N45.7167;13;
3;FRA;Rhône-Alpes;Savoie;Arvillard 73021;E6.1167;N45.4500;13;
3;FRA;Rhône-Alpes;Savoie;Attignat-Oncin 73022;E5.7833;N45.5000;13;
3;FRA;Rhône-Alpes;Savoie;Aussois 73023;E6.7500;N45.2333;13;
3;FRA;Rhône-Alpes;Savoie;Avressieux 73025;E5.7000;N45.5667;13;
3;FRA;Rhône-Alpes;Savoie;Avrieux 73026;E6.7167;N45.2167;13;
3;FRA;Rhône-Alpes;Savoie;Ayn 73027;E5.7500;N45.5667;13;
3;FRA;Rhône-Alpes;Savoie;Barberaz 73029;E5.9333;N45.5500;13;
3;FRA;Rhône-Alpes;Savoie;Barby 73030;E5.9833;N45.5667;13;
3;FRA;Rhône-Alpes;Savoie;Bassens 73031;E5.9333;N45.5833;13;
3;FRA;Rhône-Alpes;Savoie;Beaufort 73034;E6.5750;N45.7167;13;
3;FRA;Rhône-Alpes;Savoie;Beaune 73035=73261;E6.4667;N45.2500;13;
3;FRA;Rhône-Alpes;Savoie;Bellecombe 73037=73003;E6.4973;N45.5055;13;
3;FRA;Rhône-Alpes;Savoie;Bellecombe-en-Bauges 73036;E6.1418;N45.7384;13;
3;FRA;Rhône-Alpes;Savoie;Bellentre 73038;E6.7167;N45.5667;13;
3;FRA;Rhône-Alpes;Savoie;Belmont-Tramonet 73039;E5.6833;N45.5500;13;
3;FRA;Rhône-Alpes;Savoie;Bessans 73040;E6.9917;N45.3167;13;
3;FRA;Rhône-Alpes;Savoie;Betton-Bettonet 73041;E6.1833;N45.5333;13;
3;FRA;Rhône-Alpes;Savoie;Billième 73042;E5.8167;N45.7167;13;
3;FRA;Rhône-Alpes;Savoie;Bissy 73044=73065;E5.8918;N45.5803;13;
3;FRA;Rhône-Alpes;Savoie;Bonneval 73046;E6.4500;N45.5167;13;
3;FRA;Rhône-Alpes;Savoie;Bonneval-sur-Arc 73047;E7.0500;N45.3667;13;
3;FRA;Rhône-Alpes;Savoie;Bonvillard 73048;E6.3056;N45.5863;13;
3;FRA;Rhône-Alpes;Savoie;Bonvillaret 73049;E6.3000;N45.5667;13;
3;FRA;Rhône-Alpes;Savoie;Bourdeau 73050;E5.8500;N45.6833;13;
3;FRA;Rhône-Alpes;Savoie;Bourg-Saint-Maurice 73054;E6.7667;N45.6167;13;
3;FRA;Rhône-Alpes;Savoie;Bourget-en-Huile 73052;E6.2000;N45.4833;13;
3;FRA;Rhône-Alpes;Savoie;Bourgneuf 73053;E6.2167;N45.5500;13;
3;FRA;Rhône-Alpes;Savoie;Bozel 73055;E6.6500;N45.4500;13;
3;FRA;Rhône-Alpes;Savoie;Bramans 73056;E6.7667;N45.2167;13;
3;FRA;Rhône-Alpes;Savoie;Brides-les-Bains 73057;E6.5667;N45.4500;13;
3;FRA;Rhône-Alpes;Savoie;Brison-Saint-Innocent 73059;E5.8833;N45.7167;13;
3;FRA;Rhône-Alpes;Savoie;Celliers 73060=73187;E6.4167;N45.4667;13;
3;FRA;Rhône-Alpes;Savoie;Césarches 73061;E6.4167;N45.7000;13;
3;FRA;Rhône-Alpes;Savoie;Cessens 73062;E5.8833;N45.8000;13;
3;FRA;Rhône-Alpes;Savoie;Cevins 73063;E6.4667;N45.5833;13;
3;FRA;Rhône-Alpes;Savoie;Challes-les-Eaux 73064;E5.9833;N45.5500;13;
3;FRA;Rhône-Alpes;Savoie;Chambéry 73065;E5.9333;N45.5667;13;
3;FRA;Rhône-Alpes;Savoie;Chambéry-le-Vieux 73066=73065;E5.9033;N45.5964;13;
3;FRA;Rhône-Alpes;Savoie;Chamousset 73068;E6.2000;N45.5500;13;
3;FRA;Rhône-Alpes;Savoie;Chamoux-sur-Gelon 73069;E6.2167;N45.5333;13;
3;FRA;Rhône-Alpes;Savoie;Champ-Laurent 73072;E6.2145;N45.5079;13;
3;FRA;Rhône-Alpes;Savoie;Champagneux 73070;E5.6667;N45.6167;13;
3;FRA;Rhône-Alpes;Savoie;Champagny-en-Vanoise 73071;E6.6937;N45.4556;13;
3;FRA;Rhône-Alpes;Savoie;Chanaz 73073;E5.7833;N45.8000;13;
3;FRA;Rhône-Alpes;Savoie;Châteauneuf 73079;E6.1667;N45.5500;13;
3;FRA;Rhône-Alpes;Savoie;Chignin 73084;E6.0167;N45.5167;13;
3;FRA;Rhône-Alpes;Savoie;Chindrieux 73085;E5.8500;N45.8167;13;
3;FRA;Rhône-Alpes;Savoie;Cléry 73086;E6.2833;N45.6333;13;
3;FRA;Rhône-Alpes;Savoie;Cognin 73087;E5.9000;N45.5667;13;
3;FRA;Rhône-Alpes;Savoie;Cohennoz 73088;E6.4833;N45.7500;13;
3;FRA;Rhône-Alpes;Savoie;Coise-Saint-Jean-Pied-Gauthier 73089;E6.1333;N45.5333;13;
3;FRA;Rhône-Alpes;Savoie;Conjux 73091;E5.8167;N45.7833;13;
3;FRA;Rhône-Alpes;Savoie;Corbel 73092;E5.8167;N45.4333;13;
3;FRA;Rhône-Alpes;Savoie;Crest-Voland 73094;E6.5000;N45.8000;13;
3;FRA;Rhône-Alpes;Savoie;Cruet 73096;E6.0833;N45.5167;13;
3;FRA;Rhône-Alpes;Savoie;Curienne 73097;E6.0000;N45.5667;13;
3;FRA;Rhône-Alpes;Savoie;Détrier 73099;E6.1000;N45.4333;13;
3;FRA;Rhône-Alpes;Savoie;Domessin 73100;E5.7000;N45.5333;13;
3;FRA;Rhône-Alpes;Savoie;Doucy 73102=73187;E6.4667;N45.5000;13;
3;FRA;Rhône-Alpes;Savoie;Doucy-en-Bauges 73101;E6.1681;N45.6862;13;
3;FRA;Rhône-Alpes;Savoie;Drumettaz-Clarafond 73103;E5.9167;N45.6667;13;
3;FRA;Rhône-Alpes;Savoie;Dullin 73104;E5.7500;N45.5500;13;
3;FRA;Rhône-Alpes;Savoie;École 73106;E6.1667;N45.6500;13;
3;FRA;Rhône-Alpes;Savoie;Entremont-le-Vieux 73107;E5.8833;N45.4333;13;
3;FRA;Rhône-Alpes;Savoie;Épersy 73108;E5.9500;N45.7333;13;
3;FRA;Rhône-Alpes;Savoie;Épierre 73109;E6.3000;N45.4667;13;
3;FRA;Rhône-Alpes;Savoie;Esserts-Blay 73110;E6.4333;N45.6167;13;
3;FRA;Rhône-Alpes;Savoie;Étable 73111;E6.1333;N45.4667;13;
3;FRA;Rhône-Alpes;Savoie;Feissons-sur-Isère 73112;E6.4667;N45.5667;13;
3;FRA;Rhône-Alpes;Savoie;Feissons-sur-Salins 73113;E6.5667;N45.4667;13;
3;FRA;Rhône-Alpes;Savoie;Flumet 73114;E6.5000;N45.8167;13;
3;FRA;Rhône-Alpes;Savoie;Fontaine-le-Puits 73115;E6.5000;N45.4500;13;
3;FRA;Rhône-Alpes;Savoie;Fontcouverte-la Toussuire 73116;E6.3009;N45.2468;13;
3;FRA;Rhône-Alpes;Savoie;Fourneaux 73117;E6.6500;N45.1917;13;
3;FRA;Rhône-Alpes;Savoie;Francin 73118;E6.0333;N45.5000;13;
3;FRA;Rhône-Alpes;Savoie;Freney 73119;E6.6333;N45.2000;13;
3;FRA;Rhône-Alpes;Savoie;Fréterive 73120;E6.2000;N45.5833;13;
3;FRA;Rhône-Alpes;Savoie;Frontenex 73121;E6.3079;N45.6375;13;
3;FRA;Rhône-Alpes;Savoie;Gerbaix 73122;E5.7500;N45.6000;13;
3;FRA;Rhône-Alpes;Savoie;Gilly-sur-Isère 73124;E6.3500;N45.6667;13;
3;FRA;Rhône-Alpes;Savoie;Grand-Coeur 73125=73003;E6.4940;N45.5149;13;
3;FRA;Rhône-Alpes;Savoie;Granier 73126;E6.6500;N45.5667;13;
3;FRA;Rhône-Alpes;Savoie;Gresin 73127;E5.6829;N45.6093;13;
3;FRA;Rhône-Alpes;Savoie;Grésy-sur-Aix 73128;E5.9500;N45.7167;13;
3;FRA;Rhône-Alpes;Savoie;Grésy-sur-Isère 73129;E6.2500;N45.6000;13;
3;FRA;Rhône-Alpes;Savoie;Grignon 73130;E6.3833;N45.6500;13;
3;FRA;Rhône-Alpes;Savoie;Hautecour 73131;E6.5500;N45.5000;13;
3;FRA;Rhône-Alpes;Savoie;Hauteluce 73132;E6.5833;N45.7500;13;
3;FRA;Rhône-Alpes;Savoie;Hauteville 73133;E6.1667;N45.5333;13;
3;FRA;Rhône-Alpes;Savoie;Hauteville-Gondon 73134=73054;E6.7500;N45.5833;13;
3;FRA;Rhône-Alpes;Savoie;Hermillon 73135;E6.3667;N45.3000;13;
3;FRA;Rhône-Alpes;Savoie;Héry 73136=73303;E6.4723;N45.7730;13;
3;FRA;Rhône-Alpes;Savoie;Jacob-Bellecombette 73137;E5.9167;N45.5500;13;
3;FRA;Rhône-Alpes;Savoie;Jarrier 73138;E6.3167;N45.2833;13;
3;FRA;Rhône-Alpes;Savoie;Jarsy 73139;E6.1833;N45.6500;13;
3;FRA;Rhône-Alpes;Savoie;Jongieux 73140;E5.8000;N45.7333;13;
3;FRA;Rhône-Alpes;Savoie;La Balme 73028;E5.7187;N45.7063;13;
3;FRA;Rhône-Alpes;Savoie;La Bâthie 73032;E6.4500;N45.6333;13;
3;FRA;Rhône-Alpes;Savoie;La Bauche 73033;E5.7667;N45.4833;13;
3;FRA;Rhône-Alpes;Savoie;La Biolle 73043;E5.9333;N45.7500;13;
3;FRA;Rhône-Alpes;Savoie;La Bridoire 73058;E5.7500;N45.5167;13;
3;FRA;Rhône-Alpes;Savoie;La Chambre 73067;E6.3000;N45.3667;13;
3;FRA;Rhône-Alpes;Savoie;La Chapelle 73074;E6.2769;N45.4206;13;
3;FRA;Rhône-Alpes;Savoie;La Chapelle-Blanche 73075;E6.0667;N45.4500;13;
3;FRA;Rhône-Alpes;Savoie;La Chapelle-du-Mont-du-Chat 73076;E5.8528;N45.7061;13;
3;FRA;Rhône-Alpes;Savoie;La Chapelle-Saint-Martin 73078;E5.7500;N45.6500;13;
3;FRA;Rhône-Alpes;Savoie;La Chavanne 73082;E6.0726;N45.4950;13;
3;FRA;Rhône-Alpes;Savoie;La Compôte 73090;E6.1667;N45.6667;13;
3;FRA;Rhône-Alpes;Savoie;La Côte-d'Aime 73093;E6.6667;N45.5667;13;
3;FRA;Rhône-Alpes;Savoie;La Croix-de-la-Rochette 73095;E6.1167;N45.4667;13;
3;FRA;Rhône-Alpes;Savoie;La Giettaz 73123;E6.5000;N45.8667;13;
3;FRA;Rhône-Alpes;Savoie;La Léchère 73187;E6.4667;N45.5000;13;
3;FRA;Rhône-Alpes;Savoie;La Motte-en-Bauges 73178;E6.1292;N45.7004;13;
3;FRA;Rhône-Alpes;Savoie;La Motte-Servolex 73179;E5.8833;N45.6000;13;
3;FRA;Rhône-Alpes;Savoie;La Perrière 73198;E6.5917;N45.4500;13;
3;FRA;Rhône-Alpes;Savoie;La Ravoire 73213;E5.9667;N45.5500;13;
3;FRA;Rhône-Alpes;Savoie;La Rochette 73215;E6.1083;N45.4583;13;
3;FRA;Rhône-Alpes;Savoie;La Table 73289;E6.1667;N45.4833;13;
3;FRA;Rhône-Alpes;Savoie;La Thuile 73294;E6.0500;N45.5333;13;
3;FRA;Rhône-Alpes;Savoie;La Trinité 73302;E6.1500;N45.5000;13;
3;FRA;Rhône-Alpes;Savoie;Laissaud 73141;E6.0333;N45.4500;13;
3;FRA;Rhône-Alpes;Savoie;Landry 73142;E6.7500;N45.5667;13;
3;FRA;Rhône-Alpes;Savoie;Lanslebourg-Mont-Cenis 73143;E6.8667;N45.2833;13;
3;FRA;Rhône-Alpes;Savoie;Lanslevillard 73144;E6.9167;N45.2833;13;
3;FRA;Rhône-Alpes;Savoie;Le Bois 73045;E6.5000;N45.4833;13;
3;FRA;Rhône-Alpes;Savoie;Le Bourget-du-Lac 73051;E5.8667;N45.6500;13;
3;FRA;Rhône-Alpes;Savoie;Le Châtel 73080;E6.3667;N45.3000;13;
3;FRA;Rhône-Alpes;Savoie;Le Châtelard 73081;E6.1500;N45.6833;13;
3;FRA;Rhône-Alpes;Savoie;Le Noyer 73192;E6.0667;N45.6833;13;
3;FRA;Rhône-Alpes;Savoie;Le Pont-de-Beauvoisin 73204;E5.6667;N45.5333;13;
3;FRA;Rhône-Alpes;Savoie;Le Pontet 73205;E6.2333;N45.5000;13;
3;FRA;Rhône-Alpes;Savoie;Le Verneil 73311;E6.1663;N45.4629;13;
3;FRA;Rhône-Alpes;Savoie;Lépin-le-Lac 73145;E5.7833;N45.5333;13;
3;FRA;Rhône-Alpes;Savoie;Les Allues 73015;E6.5500;N45.4333;13;
3;FRA;Rhône-Alpes;Savoie;Les Avanchers-Valmorel 73024;E6.4422;N45.4617;13;
3;FRA;Rhône-Alpes;Savoie;Les Chapelles 73077;E6.7333;N45.5833;13;
3;FRA;Rhône-Alpes;Savoie;Les Chavannes-en-Maurienne 73083;E6.2825;N45.3924;13;
3;FRA;Rhône-Alpes;Savoie;Les Déserts 73098;E6.0167;N45.6167;13;
3;FRA;Rhône-Alpes;Savoie;Les Échelles 73105;E5.7500;N45.4333;13;
3;FRA;Rhône-Alpes;Savoie;Les Marches 73151;E6.0000;N45.4833;13;
3;FRA;Rhône-Alpes;Savoie;Les Mollettes 73159;E6.0667;N45.4667;13;
3;FRA;Rhône-Alpes;Savoie;Lescheraines 73146;E6.1000;N45.7000;13;
3;FRA;Rhône-Alpes;Savoie;Loisieux 73147;E5.7333;N45.6500;13;
3;FRA;Rhône-Alpes;Savoie;Longefoy 73148=73006;E6.8260;N45.6136;13;
3;FRA;Rhône-Alpes;Savoie;Lucey 73149;E5.7833;N45.7500;13;
3;FRA;Rhône-Alpes;Savoie;Mâcot-la-Plagne 73150;E6.6718;N45.5535;13;
3;FRA;Rhône-Alpes;Savoie;Marcieux 73152;E5.7667;N45.6167;13;
3;FRA;Rhône-Alpes;Savoie;Marthod 73153;E6.4000;N45.7167;13;
3;FRA;Rhône-Alpes;Savoie;Mercury 73154;E6.3368;N45.6743;13;
3;FRA;Rhône-Alpes;Savoie;Méry 73155;E5.9333;N45.6500;13;
3;FRA;Rhône-Alpes;Savoie;Meyrieux-Trouet 73156;E5.7833;N45.6500;13;
3;FRA;Rhône-Alpes;Savoie;Modane 73157;E6.6667;N45.2000;13;
3;FRA;Rhône-Alpes;Savoie;Mognard 73158;E5.9500;N45.7167;13;
3;FRA;Rhône-Alpes;Savoie;Mont-Denis 73165=73250;E6.4049;N45.2821;13;
3;FRA;Rhône-Alpes;Savoie;Montagnole 73160;E5.9000;N45.5333;13;
3;FRA;Rhône-Alpes;Savoie;Montagny 73161;E6.0833;N45.7167;13;
3;FRA;Rhône-Alpes;Savoie;Montailleur 73162;E6.2833;N45.6167;13;
3;FRA;Rhône-Alpes;Savoie;Montaimont 73163;E6.3500;N45.3667;13;
3;FRA;Rhône-Alpes;Savoie;Montcel 73164;E5.9833;N45.7167;13;
3;FRA;Rhône-Alpes;Savoie;Montendry 73166;E6.2333;N45.5333;13;
3;FRA;Rhône-Alpes;Savoie;Montgellafrey 73167;E6.3167;N45.3833;13;
3;FRA;Rhône-Alpes;Savoie;Montgilbert 73168;E6.2768;N45.5402;13;
3;FRA;Rhône-Alpes;Savoie;Montgirod 73169;E6.5833;N45.5333;13;
3;FRA;Rhône-Alpes;Savoie;Monthion 73170;E6.3667;N45.6333;13;
3;FRA;Rhône-Alpes;Savoie;Montmélian 73171;E6.0667;N45.5000;13;
3;FRA;Rhône-Alpes;Savoie;Montpascal 73172=73203;E6.3667;N45.3333;13;
3;FRA;Rhône-Alpes;Savoie;Montricher-Albanne 73173;E6.4146;N45.2341;13;
3;FRA;Rhône-Alpes;Savoie;Montrond 73174=73013;E6.3167;N45.2000;13;
3;FRA;Rhône-Alpes;Savoie;Montsapey 73175;E6.3333;N45.5167;13;
3;FRA;Rhône-Alpes;Savoie;Montvalezan 73176;E6.8333;N45.6167;13;
3;FRA;Rhône-Alpes;Savoie;Montvernier 73177;E6.3500;N45.3167;13;
3;FRA;Rhône-Alpes;Savoie;Motz 73180;E5.8468;N45.9207;13;
3;FRA;Rhône-Alpes;Savoie;Moûtiers 73181;E6.5333;N45.4833;13;
3;FRA;Rhône-Alpes;Savoie;Mouxy 73182;E5.9333;N45.6833;13;
3;FRA;Rhône-Alpes;Savoie;Myans 73183;E5.9833;N45.5167;13;
3;FRA;Rhône-Alpes;Savoie;Nances 73184;E5.8000;N45.5833;13;
3;FRA;Rhône-Alpes;Savoie;Naves 73185=73187;E6.5000;N45.5500;13;
3;FRA;Rhône-Alpes;Savoie;Notre-Dame-de-Bellecombe 73186;E6.5167;N45.8000;13;
3;FRA;Rhône-Alpes;Savoie;Notre-Dame-des-Millières 73188;E6.3500;N45.6333;13;
3;FRA;Rhône-Alpes;Savoie;Notre-Dame-du-Cruet 73189;E6.3167;N45.3667;13;
3;FRA;Rhône-Alpes;Savoie;Notre-Dame-du-Pré 73190;E6.6000;N45.5167;13;
3;FRA;Rhône-Alpes;Savoie;Novalaise 73191;E5.7667;N45.6000;13;
3;FRA;Rhône-Alpes;Savoie;Ontex 73193;E5.8167;N45.7500;13;
3;FRA;Rhône-Alpes;Savoie;Orelle 73194;E6.5333;N45.2167;13;
3;FRA;Rhône-Alpes;Savoie;Outrechaise 73195=73303;E6.4019;N45.7502;13;
3;FRA;Rhône-Alpes;Savoie;Pallud 73196;E6.4000;N45.6833;13;
3;FRA;Rhône-Alpes;Savoie;Peisey-Nancroix 73197;E6.7500;N45.5500;13;
3;FRA;Rhône-Alpes;Savoie;Petit-Coeur 73199=73187;E6.5000;N45.5167;13;
3;FRA;Rhône-Alpes;Savoie;Planaise 73200;E6.0833;N45.5000;13;
3;FRA;Rhône-Alpes;Savoie;Planay 73201;E6.7000;N45.4167;13;
3;FRA;Rhône-Alpes;Savoie;Plancherine 73202;E6.3167;N45.6667;13;
3;FRA;Rhône-Alpes;Savoie;Pontamafrey-Montpascal 73203;E6.3612;N45.3374;13;
3;FRA;Rhône-Alpes;Savoie;Pralognan-la-Vanoise 73206;E6.7167;N45.3833;13;
3;FRA;Rhône-Alpes;Savoie;Presle 73207;E6.1333;N45.4500;13;
3;FRA;Rhône-Alpes;Savoie;Pugny-Chatenod 73208;E5.9500;N45.7000;13;
3;FRA;Rhône-Alpes;Savoie;Pussy 73209=73187;E6.4500;N45.5500;13;
3;FRA;Rhône-Alpes;Savoie;Puygros 73210;E6.0333;N45.5667;13;
3;FRA;Rhône-Alpes;Savoie;Queige 73211;E6.4667;N45.7167;13;
3;FRA;Rhône-Alpes;Savoie;Randens 73212;E6.3167;N45.5500;13;
3;FRA;Rhône-Alpes;Savoie;Rochefort 73214;E5.7167;N45.5833;13;
3;FRA;Rhône-Alpes;Savoie;Rognaix 73216;E6.4500;N45.5833;13;
3;FRA;Rhône-Alpes;Savoie;Rotherens 73217;E6.1333;N45.4667;13;
3;FRA;Rhône-Alpes;Savoie;Ruffieux 73218;E5.8333;N45.8500;13;
3;FRA;Rhône-Alpes;Savoie;Saint-Alban-de-Montbel 73219;E5.7833;N45.5500;13;
3;FRA;Rhône-Alpes;Savoie;Saint-Alban-des-Hurtières 73220;E6.2667;N45.4833;13;
3;FRA;Rhône-Alpes;Savoie;Saint-Alban-des-Villards 73221;E6.2500;N45.3167;13;
3;FRA;Rhône-Alpes;Savoie;Saint-Alban-Leysse 73222;E5.9570;N45.5810;13;
3;FRA;Rhône-Alpes;Savoie;Saint-André 73223;E6.6167;N45.2000;13;
3;FRA;Rhône-Alpes;Savoie;Saint-Avre 73224;E6.3167;N45.3500;13;
3;FRA;Rhône-Alpes;Savoie;Saint-Baldoph 73225;E5.9500;N45.5333;13;
3;FRA;Rhône-Alpes;Savoie;Saint-Béron 73226;E5.7167;N45.5000;13;
3;FRA;Rhône-Alpes;Savoie;Saint-Bon-Tarentaise 73227;E6.6333;N45.4333;13;
3;FRA;Rhône-Alpes;Savoie;Saint-Cassin 73228;E5.8833;N45.5333;13;
3;FRA;Rhône-Alpes;Savoie;Saint-Christophe 73229;E5.7844;N45.4487;13;
3;FRA;Rhône-Alpes;Savoie;Saint-Colomban-des-Villards 73230;E6.2333;N45.3000;13;
3;FRA;Rhône-Alpes;Savoie;Saint-Etienne-de-Cuines 73231;E6.2833;N45.3500;13;
3;FRA;Rhône-Alpes;Savoie;Saint-Franc 73233;E5.7333;N45.4833;13;
3;FRA;Rhône-Alpes;Savoie;Saint-François-de-Sales 73234;E6.0500;N45.6833;13;
3;FRA;Rhône-Alpes;Savoie;Saint-François-Longchamp 73235;E6.3467;N45.4079;13;
3;FRA;Rhône-Alpes;Savoie;Saint-Genix-sur-Guiers 73236;E5.6333;N45.6000;13;
3;FRA;Rhône-Alpes;Savoie;Saint-Georges-des-Hurtières 73237;E6.2833;N45.5000;13;
3;FRA;Rhône-Alpes;Savoie;Saint-Germain-la-Chambotte 73238;E5.9000;N45.7833;13;
3;FRA;Rhône-Alpes;Savoie;Saint-Girod 73239;E5.9500;N45.7833;13;
3;FRA;Rhône-Alpes;Savoie;Saint-Jean-d'Arves 73242;E6.2667;N45.2000;13;
3;FRA;Rhône-Alpes;Savoie;Saint-Jean-d'Arvey 73243;E6.0000;N45.5833;13;
3;FRA;Rhône-Alpes;Savoie;Saint-Jean-de-Belleville 73244;E6.4833;N45.4333;13;
3;FRA;Rhône-Alpes;Savoie;Saint-Jean-de-Chevelu 73245;E5.8333;N45.7000;13;
3;FRA;Rhône-Alpes;Savoie;Saint-Jean-de-Couz 73246;E5.8167;N45.4667;13;
3;FRA;Rhône-Alpes;Savoie;Saint-Jean-de-la-Porte 73247;E6.1333;N45.5500;13;
3;FRA;Rhône-Alpes;Savoie;Saint-Jean-de-Maurienne 73248;E6.3500;N45.2833;13;
3;FRA;Rhône-Alpes;Savoie;Saint-Jeoire-Prieuré 73249;E5.9833;N45.5333;13;
3;FRA;Rhône-Alpes;Savoie;Saint-Julien-Mont-Denis 73250;E6.4040;N45.2556;13;
3;FRA;Rhône-Alpes;Savoie;Saint-Laurent-de-la-Côte 73251=73257;E6.4990;N45.4266;13;
3;FRA;Rhône-Alpes;Savoie;Saint-Léger 73252;E6.2667;N45.4333;13;
3;FRA;Rhône-Alpes;Savoie;Saint-Marcel 73253;E6.5667;N45.5128;13;
3;FRA;Rhône-Alpes;Savoie;Saint-Martin-d'Arc 73256;E6.4667;N45.2167;13;
3;FRA;Rhône-Alpes;Savoie;Saint-Martin-de-Belleville 73257;E6.5000;N45.3833;13;
3;FRA;Rhône-Alpes;Savoie;Saint-Martin-de-la-Porte 73258;E6.4500;N45.2333;13;
3;FRA;Rhône-Alpes;Savoie;Saint-Martin-sur-la-Chambre 73259;E6.3164;N45.3665;13;
3;FRA;Rhône-Alpes;Savoie;Saint-Maurice-de-Rotherens 73260;E5.7000;N45.6167;13;
3;FRA;Rhône-Alpes;Savoie;Saint-Michel-de-Maurienne 73261;E6.4667;N45.2167;13;
3;FRA;Rhône-Alpes;Savoie;Saint-Nicolas-la-Chapelle 73262;E6.5000;N45.8167;13;
3;FRA;Rhône-Alpes;Savoie;Saint-Offenge-Dessous 73263;E6.0000;N45.7333;13;
3;FRA;Rhône-Alpes;Savoie;Saint-Offenge-Dessus 73264;E6.0000;N45.7167;13;
3;FRA;Rhône-Alpes;Savoie;Saint-Ours 73265;E6.0000;N45.7500;13;
3;FRA;Rhône-Alpes;Savoie;Saint-Oyen 73266;E6.4833;N45.5000;13;
3;FRA;Rhône-Alpes;Savoie;Saint-Pancrace 73267;E6.3333;N45.2667;13;
3;FRA;Rhône-Alpes;Savoie;Saint-Paul 73269;E5.7849;N45.6770;13;
3;FRA;Rhône-Alpes;Savoie;Saint-Paul-sur-Isère 73268;E6.4333;N45.6000;13;
3;FRA;Rhône-Alpes;Savoie;Saint-Pierre-d'Albigny 73270;E6.1500;N45.5667;13;
3;FRA;Rhône-Alpes;Savoie;Saint-Pierre-d'Alvey 73271;E5.7333;N45.6333;13;
3;FRA;Rhône-Alpes;Savoie;Saint-Pierre-d'Entremont 73274;E5.8500;N45.4083;13;
3;FRA;Rhône-Alpes;Savoie;Saint-Pierre-de-Belleville 73272;E6.2667;N45.4667;13;
3;FRA;Rhône-Alpes;Savoie;Saint-Pierre-de-Curtille 73273;E5.8167;N45.7833;13;
3;FRA;Rhône-Alpes;Savoie;Saint-Pierre-de-Genebroz 73275;E5.7500;N45.4500;13;
3;FRA;Rhône-Alpes;Savoie;Saint-Pierre-de-Soucy 73276;E6.1000;N45.5000;13;
3;FRA;Rhône-Alpes;Savoie;Saint-Rémy-de-Maurienne 73278;E6.2661;N45.3934;13;
3;FRA;Rhône-Alpes;Savoie;Saint-Sigismond 73279=73011;E6.3921;N45.6793;13;
3;FRA;Rhône-Alpes;Savoie;Saint-Sorlin-d'Arves 73280;E6.2333;N45.2167;13;
3;FRA;Rhône-Alpes;Savoie;Saint-Sulpice 73281;E5.8442;N45.5677;13;
3;FRA;Rhône-Alpes;Savoie;Saint-Thibaud-de-Couz 73282;E5.8333;N45.5000;13;
3;FRA;Rhône-Alpes;Savoie;Saint-Vital 73283;E6.3000;N45.6333;13;
3;FRA;Rhône-Alpes;Savoie;Sainte-Foy-Tarentaise 73232;E6.8833;N45.5833;13;
3;FRA;Rhône-Alpes;Savoie;Sainte-Hélène-du-Lac 73240;E6.0667;N45.4833;13;
3;FRA;Rhône-Alpes;Savoie;Sainte-Hélène-sur-Isère 73241;E6.3167;N45.6167;13;
3;FRA;Rhône-Alpes;Savoie;Sainte-Marie-d'Alvey 73254;E5.7167;N45.5833;13;
3;FRA;Rhône-Alpes;Savoie;Sainte-Marie-de-Cuines 73255;E6.3000;N45.3333;13;
3;FRA;Rhône-Alpes;Savoie;Sainte-Reine 73277;E6.1167;N45.6167;13;
3;FRA;Rhône-Alpes;Savoie;Salins-les-Thermes 73284;E6.5333;N45.4667;13;
3;FRA;Rhône-Alpes;Savoie;Séez 73285;E6.8000;N45.6167;13;
3;FRA;Rhône-Alpes;Savoie;Serrières-en-Chautagne 73286;E5.8333;N45.8833;13;
3;FRA;Rhône-Alpes;Savoie;Sollières-Sardières 73287;E6.8000;N45.2667;13;
3;FRA;Rhône-Alpes;Savoie;Sonnaz 73288;E5.9167;N45.6167;13;
3;FRA;Rhône-Alpes;Savoie;Termignon 73290;E6.8167;N45.2833;13;
3;FRA;Rhône-Alpes;Savoie;Tessens 73291=73006;E6.6333;N45.5500;13;
3;FRA;Rhône-Alpes;Savoie;Thénésol 73292;E6.4000;N45.7167;13;
3;FRA;Rhône-Alpes;Savoie;Thoiry 73293;E6.0333;N45.5833;13;
3;FRA;Rhône-Alpes;Savoie;Thyl 73295=73261;E6.4833;N45.2167;13;
3;FRA;Rhône-Alpes;Savoie;Tignes 73296;E6.9167;N45.5000;13;
3;FRA;Rhône-Alpes;Savoie;Tournon 73297;E6.3000;N45.6333;13;
3;FRA;Rhône-Alpes;Savoie;Tours-en-Savoie 73298;E6.4333;N45.6500;13;
3;FRA;Rhône-Alpes;Savoie;Traize 73299;E5.7500;N45.6667;13;
3;FRA;Rhône-Alpes;Savoie;Tresserve 73300;E5.9000;N45.6667;13;
3;FRA;Rhône-Alpes;Savoie;Trévignin 73301;E5.9500;N45.7000;13;
3;FRA;Rhône-Alpes;Savoie;Ugine 73303;E6.4167;N45.7500;13;
3;FRA;Rhône-Alpes;Savoie;Val-d'Isère 73304;E6.9833;N45.4500;13;
3;FRA;Rhône-Alpes;Savoie;Valezan 73305;E6.7000;N45.5833;13;
3;FRA;Rhône-Alpes;Savoie;Valloire 73306;E6.4262;N45.1650;13;
3;FRA;Rhône-Alpes;Savoie;Valmeinier 73307;E6.4833;N45.1833;13;
3;FRA;Rhône-Alpes;Savoie;Venthon 73308;E6.4167;N45.6833;13;
3;FRA;Rhône-Alpes;Savoie;Verel-de-Montbel 73309;E5.7167;N45.5500;13;
3;FRA;Rhône-Alpes;Savoie;Verel-Pragondran 73310;E5.9500;N45.6000;13;
3;FRA;Rhône-Alpes;Savoie;Verrens-Arvey 73312;E6.3167;N45.6500;13;
3;FRA;Rhône-Alpes;Savoie;Verthemex 73313;E5.7833;N45.6333;13;
3;FRA;Rhône-Alpes;Savoie;Villard-d'Héry 73314;E6.1333;N45.5167;13;
3;FRA;Rhône-Alpes;Savoie;Villard-Léger 73315;E6.1833;N45.5167;13;
3;FRA;Rhône-Alpes;Savoie;Villard-Sallet 73316;E6.1333;N45.4833;13;
3;FRA;Rhône-Alpes;Savoie;Villard-sur-Doron 73317;E6.5333;N45.7167;13;
3;FRA;Rhône-Alpes;Savoie;Villarembert 73318;E6.2833;N45.2500;13;
3;FRA;Rhône-Alpes;Savoie;Villargerel 73319=73003;E6.5124;N45.5205;13;
3;FRA;Rhône-Alpes;Savoie;Villargondran 73320;E6.3667;N45.2667;13;
3;FRA;Rhône-Alpes;Savoie;Villarlurin 73321;E6.5333;N45.4667;13;
3;FRA;Rhône-Alpes;Savoie;Villarodin-Bourget 73322;E6.7167;N45.2000;13;
3;FRA;Rhône-Alpes;Savoie;Villaroger 73323;E6.8667;N45.5833;13;
3;FRA;Rhône-Alpes;Savoie;Villaroux 73324;E6.0749;N45.4575;13;
3;FRA;Rhône-Alpes;Savoie;Villette 73325=73006;E6.6167;N45.5500;13;
3;FRA;Rhône-Alpes;Savoie;Vimines 73326;E5.8667;N45.5500;13;
3;FRA;Rhône-Alpes;Savoie;Vions 73327;E5.8000;N45.8333;13;
3;FRA;Rhône-Alpes;Savoie;Viviers-du-Lac 73328;E5.9064;N45.6484;13;
3;FRA;Rhône-Alpes;Savoie;Voglans 73329;E5.9000;N45.6333;13;
3;FRA;Rhône-Alpes;Savoie;Yenne 73330;E5.7667;N45.7000;13;