"Level";"Country";"State";"County";"Place";"Longitude";"Latitude";"ZoomLevel";"Icon"
2;FRA;Corse;Corse-du-Sud;;E8.93;N41.93;9;
3;FRA;Corse;Corse-du-Sud;Afa 2A001;E8.8;N41.983333;12;
3;FRA;Corse;Corse-du-Sud;Ajaccio 2A004;E8.733333;N41.916667;12;
3;FRA;Corse;Corse-du-Sud;Alata 2A006;E8.75;N41.95;12;
3;FRA;Corse;Corse-du-Sud;Albitreccia 2A008;E8.933333;N41.85;12;
3;FRA;Corse;Corse-du-Sud;Altagène 2A011;E9.066667;N41.7;12;
3;FRA;Corse;Corse-du-Sud;Ambiegna 2A014;E8.783333;N42.083333;12;
3;FRA;Corse;Corse-du-Sud;Appietto 2A017;E8.766667;N42;12;
3;FRA;Corse;Corse-du-Sud;Arbellara 2A018;E8.983333;N41.683333;12;
3;FRA;Corse;Corse-du-Sud;Arbori 2A019;E8.8;N42.133333;12;
3;FRA;Corse;Corse-du-Sud;Argiusta-Moriccio 2A021;E9.016667;N41.8;12;
3;FRA;Corse;Corse-du-Sud;Arro 2A022;E8.816667;N42.083333;12;
3;FRA;Corse;Corse-du-Sud;Aullène 2A024;E9.083333;N41.766667;12;
3;FRA;Corse;Corse-du-Sud;Azilone-Ampaza 2A026;E9.016667;N41.866667;12;
3;FRA;Corse;Corse-du-Sud;Azzana 2A027;E8.916667;N42.116667;12;
3;FRA;Corse;Corse-du-Sud;Balogna 2A028;E8.783333;N42.166667;12;
3;FRA;Corse;Corse-du-Sud;Bastelica 2A031;E9.05;N42;12;
3;FRA;Corse;Corse-du-Sud;Bastelicaccia 2A032;E8.8242;N41.9205;12;
3;FRA;Corse;Corse-du-Sud;Belvédère-Campomoro 2A035;E8.8093;N41.6238;12;
3;FRA;Corse;Corse-du-Sud;Bilia 2A038;E8.916667;N41.616667;12;
3;FRA;Corse;Corse-du-Sud;Bocognano 2A040;E9.066667;N42.083333;12;
3;FRA;Corse;Corse-du-Sud;Bonifacio 2A041;E9.166667;N41.391667;12;
3;FRA;Corse;Corse-du-Sud;Calcatoggio 2A048;E8.766667;N42.016667;12;
3;FRA;Corse;Corse-du-Sud;Campo 2A056;E9.003;N41.8887;12;
3;FRA;Corse;Corse-du-Sud;Cannelle 2A060;E8.833333;N42.05;12;
3;FRA;Corse;Corse-du-Sud;Carbini 2A061;E9.133333;N41.666667;12;
3;FRA;Corse;Corse-du-Sud;Carbuccia 2A062;E8.95;N42.033333;12;
3;FRA;Corse;Corse-du-Sud;Cardo-Torgia 2A064;E8.983333;N41.866667;12;
3;FRA;Corse;Corse-du-Sud;Cargèse 2A065;E8.583333;N42.133333;12;
3;FRA;Corse;Corse-du-Sud;Cargiaca 2A066;E9.05;N41.716667;12;
3;FRA;Corse;Corse-du-Sud;Casaglione 2A070;E8.783333;N42.066667;12;
3;FRA;Corse;Corse-du-Sud;Casalabriva 2A071;E8.933333;N41.75;12;
3;FRA;Corse;Corse-du-Sud;Cauro 2A085;E8.916667;N41.9;12;
3;FRA;Corse;Corse-du-Sud;Ciamannacce 2A089;E9.15;N41.95;12;
3;FRA;Corse;Corse-du-Sud;Coggia 2A090;E8.75;N42.116667;12;
3;FRA;Corse;Corse-du-Sud;Cognocoli-Monticchi 2A091;E8.9;N41.816667;12;
3;FRA;Corse;Corse-du-Sud;Conca 2A092;E9.333333;N41.733333;12;
3;FRA;Corse;Corse-du-Sud;Corrano 2A094;E9.066667;N41.883333;12;
3;FRA;Corse;Corse-du-Sud;Coti-Chiavari 2A098;E8.766667;N41.766667;12;
3;FRA;Corse;Corse-du-Sud;Cozzano 2A099;E9.15;N41.933333;12;
3;FRA;Corse;Corse-du-Sud;Cristinacce 2A100;E8.833333;N42.233333;12;
3;FRA;Corse;Corse-du-Sud;Cuttoli-Corticchiato 2A103;E8.9042;N41.9872;12;
3;FRA;Corse;Corse-du-Sud;Eccica-Suarella 2A104;E8.9042;N41.921;12;
3;FRA;Corse;Corse-du-Sud;Évisa 2A108;E8.8;N42.25;12;
3;FRA;Corse;Corse-du-Sud;Figari 2A114;E9.1247;N41.4867;12;
3;FRA;Corse;Corse-du-Sud;Foce 2A115;E9;N41.616667;12;
3;FRA;Corse;Corse-du-Sud;Forciolo 2A117;E9.016667;N41.85;12;
3;FRA;Corse;Corse-du-Sud;Fozzano 2A118;E9;N41.7;12;
3;FRA;Corse;Corse-du-Sud;Frasseto 2A119;E9.016667;N41.883333;12;
3;FRA;Corse;Corse-du-Sud;Giuncheto 2A127;E8.966667;N41.583333;12;
3;FRA;Corse;Corse-du-Sud;Granace 2A128;E9;N41.633333;12;
3;FRA;Corse;Corse-du-Sud;Grossa 2A129;E8.883333;N41.6;12;
3;FRA;Corse;Corse-du-Sud;Grosseto-Prugna 2A130;E8.966667;N41.866667;12;
3;FRA;Corse;Corse-du-Sud;Guagno 2A131;E8.933333;N42.166667;12;
3;FRA;Corse;Corse-du-Sud;Guargualé 2A132;E8.933333;N41.833333;12;
3;FRA;Corse;Corse-du-Sud;Guitera-les-Bains 2A133;E9.0855;N741.9088;12;
3;FRA;Corse;Corse-du-Sud;Lecci 2A139;E9.3175;N41.6747;12;
3;FRA;Corse;Corse-du-Sud;Letia 2A141;E8.833333;N42.183333;12;
3;FRA;Corse;Corse-du-Sud;Levie 2A142;E9.116667;N41.7;12;
3;FRA;Corse;Corse-du-Sud;Lopigna 2A144;E8.833333;N42.1;12;
3;FRA;Corse;Corse-du-Sud;Loreto-di-Tallano 2A146;E9.05;N41.716667;12;
3;FRA;Corse;Corse-du-Sud;Marignana 2A154;E8.8;N42.216667;12;
3;FRA;Corse;Corse-du-Sud;Mela 2A158;E9.0902;N41.6913;12;
3;FRA;Corse;Corse-du-Sud;Moca-Croce 2A160;E9;N41.8;12;
3;FRA;Corse;Corse-du-Sud;Monacia-d'Aullène 2A163;E9.016667;N41.516667;12;
3;FRA;Corse;Corse-du-Sud;Murzo 2A174;E8.833333;N42.166667;12;
3;FRA;Corse;Corse-du-Sud;Ocana 2A181;E8.933333;N41.95;12;
3;FRA;Corse;Corse-du-Sud;Olivese 2A186;E9.05;N41.833333;12;
3;FRA;Corse;Corse-du-Sud;Olmeto 2A189;E8.916667;N41.716667;12;
3;FRA;Corse;Corse-du-Sud;Olmiccia 2A191;E9.05;N41.683333;12;
3;FRA;Corse;Corse-du-Sud;Orto 2A196;E8.933333;N42.183333;12;
3;FRA;Corse;Corse-du-Sud;Osani 2A197;E8.633333;N42.316667;12;
3;FRA;Corse;Corse-du-Sud;Ota 2A198;E8.75;N42.266667;12;
3;FRA;Corse;Corse-du-Sud;Palneca 2A200;E9.166667;N41.966667;12;
3;FRA;Corse;Corse-du-Sud;Partinello 2A203;E8.683333;N42.3;12;
3;FRA;Corse;Corse-du-Sud;Pastricciola 2A204;E8.9842;N72.1378;12;
3;FRA;Corse;Corse-du-Sud;Peri 2A209;E8.916667;N42;12;
3;FRA;Corse;Corse-du-Sud;Petreto-Bicchisano 2A211;E8.983333;N41.783333;12;
3;FRA;Corse;Corse-du-Sud;Piana 2A212;E9.116667;N42.5;12;
3;FRA;Corse;Corse-du-Sud;Pianottoli-Caldarello 2A215;E9.054;N41.4902;12;
3;FRA;Corse;Corse-du-Sud;Pietrosella 2A228;E8.85;N41.833333;12;
3;FRA;Corse;Corse-du-Sud;Pila-Canale 2A232;E8.916667;N41.8;12;
3;FRA;Corse;Corse-du-Sud;Poggiolo 2A240;E8.916667;N42.166667;12;
3;FRA;Corse;Corse-du-Sud;Porto-Vecchio 2A247;E9.283333;N41.583333;12;
3;FRA;Corse;Corse-du-Sud;Propriano 2A249;E8.9;N41.666667;12;
3;FRA;Corse;Corse-du-Sud;Quasquara 2A253;E9;N41.9;12;
3;FRA;Corse;Corse-du-Sud;Quenza 2A254;E9.133333;N41.766667;12;
3;FRA;Corse;Corse-du-Sud;Renno 2A258;E8.833333;N42.216667;12;
3;FRA;Corse;Corse-du-Sud;Rezza 2A259;E8.95;N42.116667;12;
3;FRA;Corse;Corse-du-Sud;Rosazia 2A262;E8.866667;N42.116667;12;
3;FRA;Corse;Corse-du-Sud;Sainte-Lucie-de-Tallano 2A308;E9.0588;N41.6925;12;
3;FRA;Corse;Corse-du-Sud;Salice 2A266;E8.9;N42.116667;12;
3;FRA;Corse;Corse-du-Sud;Sampolo 2A268;E9.1212;N41.9392;12;
3;FRA;Corse;Corse-du-Sud;San-Gavino-di-Carbini 2A300;E9.15;N41.716667;12;
3;FRA;Corse;Corse-du-Sud;Sant'Andréa-d'Orcino 2A295;E8.8;N42.033333;12;
3;FRA;Corse;Corse-du-Sud;Santa-Maria-Figaniella 2A310;E9;N41.7;12;
3;FRA;Corse;Corse-du-Sud;Santa-Maria-Siché 2A312;E8.983333;N41.866667;12;
3;FRA;Corse;Corse-du-Sud;Sari-d'Orcino 2A270;E8.816667;N42.05;12;
3;FRA;Corse;Corse-du-Sud;Sari-Solenzara 2A269;E9.375;N41.833333;12;
3;FRA;Corse;Corse-du-Sud;Sarrola-Carcopino 2A271;E8.85;N42.016667;12;
3;FRA;Corse;Corse-du-Sud;Sartène 2A272;E8.983333;N41.616667;12;
3;FRA;Corse;Corse-du-Sud;Serra-di-Ferro 2A276;E8.8;N41.716667;12;
3;FRA;Corse;Corse-du-Sud;Serra-di-Scopamène 2A278;E9.1;N41.75;12;
3;FRA;Corse;Corse-du-Sud;Serriera 2A279;E8.716667;N42.3;12;
3;FRA;Corse;Corse-du-Sud;Soccia 2A282;E8.9;N42.2;12;
3;FRA;Corse;Corse-du-Sud;Sollacaro 2A284;E8.916667;N41.733333;12;
3;FRA;Corse;Corse-du-Sud;Sorbollano 2A285;E9.1;N41.75;12;
3;FRA;Corse;Corse-du-Sud;Sotta 2A288;E9.2;N41.533333;12;
3;FRA;Corse;Corse-du-Sud;Tasso 2A322;E9.1;N41.933333;12;
3;FRA;Corse;Corse-du-Sud;Tavaco 2A323;E8.9;N42.033333;12;
3;FRA;Corse;Corse-du-Sud;Tavera 2A324;E9.016667;N42.066667;12;
3;FRA;Corse;Corse-du-Sud;Tolla 2A326;E8.966667;N41.966667;12;
3;FRA;Corse;Corse-du-Sud;Ucciani 2A330;E8.983333;N42.033333;12;
3;FRA;Corse;Corse-du-Sud;Urbalacone 2A331;E8.933333;N41.833333;12;
3;FRA;Corse;Corse-du-Sud;Valle-di-Mezzana 2A336;E8.816667;N42.016667;12;
3;FRA;Corse;Corse-du-Sud;Vero 2A345;E8.916667;N42.05;12;
3;FRA;Corse;Corse-du-Sud;Vico 2A348;E8.8;N42.166667;12;
3;FRA;Corse;Corse-du-Sud;Viggianello 2A349;E8.95;N41.683333;12;
3;FRA;Corse;Corse-du-Sud;Villanova 2A351;E8.666667;N41.95;12;
3;FRA;Corse;Corse-du-Sud;Zérubia 2A357;E9.066667;N41.75;12;
3;FRA;Corse;Corse-du-Sud;Zévaco 2A358;E9.05;N41.883333;12;
3;FRA;Corse;Corse-du-Sud;Zicavo 2A359;E9.133333;N41.9;12;
3;FRA;Corse;Corse-du-Sud;Zigliara 2A360;E8.983333;N41.85;12;
3;FRA;Corse;Corse-du-Sud;Zonza 2A362;E9.166667;N41.733333;12;
3;FRA;Corse;Corse-du-Sud;Zoza 2A363;E9.066667;N41.716667;12;
2;FRA;Corse;Haute-Corse;;E9.23;N42.52;9;
3;FRA;Corse;Haute-Corse;Aghione 2B002;E9.3813;N42.1214;12;
3;FRA;Corse;Haute-Corse;Aiti 2B003;E9.2447;N42.4004;12;
3;FRA;Corse;Haute-Corse;Alando 2B005;E9.2893;N42.3063;12;
3;FRA;Corse;Haute-Corse;Albertacce 2B007;E8.9851;N42.3261;12;
3;FRA;Corse;Haute-Corse;Aléria 2B009;E9.5124;N42.1054;12;
3;FRA;Corse;Haute-Corse;Algajola 2B010;E8.8663;N42.6077;12;
3;FRA;Corse;Haute-Corse;Altiani 2B012;E9.2885;N42.2362;12;
3;FRA;Corse;Haute-Corse;Alzi 2B013;E9.3023;N42.3060;13;
3;FRA;Corse;Haute-Corse;Ampriani 2B015;E9.3569;N42.2529;12;
3;FRA;Corse;Haute-Corse;Antisanti 2B016;E9.3480;N42.1665;12;
3;FRA;Corse;Haute-Corse;Aregno 2B020;E8.8969;N42.5804;12;
3;FRA;Corse;Haute-Corse;Asco 2B023;E9.0342;N42.4544;12;
3;FRA;Corse;Haute-Corse;Avapessa 2B025;E8.8941;N42.5622;12;
3;FRA;Corse;Haute-Corse;Barbaggio 2B029;E9.3737;N42.6877;12;
3;FRA;Corse;Haute-Corse;Barrettali 2B030;E9.3535;N42.8735;12;
3;FRA;Corse;Haute-Corse;Bastia 2B033;E9.4493;N42.7019;12;
3;FRA;Corse;Haute-Corse;Belgodère 2B034;E9.0198;N42.5834;12;
3;FRA;Corse;Haute-Corse;Bigorno 2B036;E9.2989;N42.5301;12;
3;FRA;Corse;Haute-Corse;Biguglia 2B037;E9.4228;N42.6274;12;
3;FRA;Corse;Haute-Corse;Bisinchi 2B039;E9.3212;N42.4769;12;
3;FRA;Corse;Haute-Corse;Borgo 2B042;E9.4324;N42.5556;11;
3;FRA;Corse;Haute-Corse;Brando 2B043;E9.4572;N42.7775;12;
3;FRA;Corse;Haute-Corse;Bustanico 2B045;E9.2992;N42.3212;12;
3;FRA;Corse;Haute-Corse;Cagnano 2B046;E9.4582;N42.8752;12;
3;FRA;Corse;Haute-Corse;Calacuccia 2B047;E9.0191;N42.3352;12;
3;FRA;Corse;Haute-Corse;Calenzana 2B049;E8.8567;N42.5096;12;
3;FRA;Corse;Haute-Corse;Calvi 2B050;E8.7558;N42.5670;12;
3;FRA;Corse;Haute-Corse;Cambia 2B051;E9.2968;N42.3636;12;
3;FRA;Corse;Haute-Corse;Campana 2B052;E9.3528;N42.3887;12;
3;FRA;Corse;Haute-Corse;Campi 2B053;E9.4242;N42.2702;12;
3;FRA;Corse;Haute-Corse;Campile 2B054;E9.3542;N42.4913;12;
3;FRA;Corse;Haute-Corse;Campitello 2B055;E9.3167;N42.5263;12;
3;FRA;Corse;Haute-Corse;Canale-di-Verde 2B057;E9.4764;N42.2760;12;
3;FRA;Corse;Haute-Corse;Canari 2B058;E9.3394;N42.8438;12;
3;FRA;Corse;Haute-Corse;Canavaggia 2B059;E9.2646;N42.5022;12;
3;FRA;Corse;Haute-Corse;Carcheto-Brustico 2B063;E9.3667;N42.3595;12;
3;FRA;Corse;Haute-Corse;Carpineto 2B067;E9.3816;N42.3545;12;
3;FRA;Corse;Haute-Corse;Carticasi 2B068;E9.2927;N42.3565;12;
3;FRA;Corse;Haute-Corse;Casabianca 2B069;E9.3658;N42.4452;12;
3;FRA;Corse;Haute-Corse;Casalta 2B072;E9.4094;N42.4420;12;
3;FRA;Corse;Haute-Corse;Casamaccioli 2B073;E9.0019;N42.3190;12;
3;FRA;Corse;Haute-Corse;Casanova 2B074;E9.1763;N42.2534;12;
3;FRA;Corse;Haute-Corse;Casevecchie 2B075;E9.3565;N42.1395;12;
3;FRA;Corse;Haute-Corse;Castellare-di-Casinca 2B077;E9.4791;N42.4675;13;
3;FRA;Corse;Haute-Corse;Castellare-di-Mercurio 2B078;E9.2508;N42.3096;12;
3;FRA;Corse;Haute-Corse;Castello-di-Rostino 2B079;E9.3093;N42.4587;12;
3;FRA;Corse;Haute-Corse;Castifao 2B080;E9.1142;N42.5040;12;
3;FRA;Corse;Haute-Corse;Castiglione 2B081;E9.1303;N42.4194;12;
3;FRA;Corse;Haute-Corse;Castineta 2B082;E9.3003;N42.4229;12;
3;FRA;Corse;Haute-Corse;Castirla 2B083;E9.1447;N42.3725;12;
3;FRA;Corse;Haute-Corse;Cateri 2B084;E8.8951;N42.5705;12;
3;FRA;Corse;Haute-Corse;Centuri 2B086;E9.3538;N42.9650;12;
3;FRA;Corse;Haute-Corse;Cervione 2B087;E9.4922;N42.3316;12;
3;FRA;Corse;Haute-Corse;Chiatra 2B088;E9.4723;N42.2908;12;
3;FRA;Corse;Haute-Corse;Chisa 2B366;E9.2639;N41.9250;12;
3;FRA;Corse;Haute-Corse;Corbara 2B093;E8.9072;N42.6143;12;
3;FRA;Corse;Haute-Corse;Corscia 2B095;E9.0438;N42.3537;12;
3;FRA;Corse;Haute-Corse;Corte 2B096;E9.1516;N42.3058;12;
3;FRA;Corse;Haute-Corse;Costa 2B097;E9.0040;N42.5751;12;
3;FRA;Corse;Haute-Corse;Croce 2B101;E9.3621;N42.4136;12;
3;FRA;Corse;Haute-Corse;Crocicchia 2B102;E9.3542;N42.4680;12;
3;FRA;Corse;Haute-Corse;Erbajolo 2B105;E9.2834;N42.2649;12;
3;FRA;Corse;Haute-Corse;Érone 2B106;E9.2711;N42.3733;12;
3;FRA;Corse;Haute-Corse;Ersa 2B107;E9.3752;N42.9723;12;
3;FRA;Corse;Haute-Corse;Farinole 2B109;E9.3597;N42.7263;12;
3;FRA;Corse;Haute-Corse;Favalello 2B110;E9.2666;N42.2833;12;
3;FRA;Corse;Haute-Corse;Felce 2B111;E9.4166;N42.35;12;
3;FRA;Corse;Haute-Corse;Feliceto 2B112;E8.9333;N42.5333;12;
3;FRA;Corse;Haute-Corse;Ficaja 2B113;E9.3666;N42.4166;12;
3;FRA;Corse;Haute-Corse;Focicchia 2B116;E9.2965;N42.2501;12;
3;FRA;Corse;Haute-Corse;Furiani 2B120;E9.4166;N42.65;12;
3;FRA;Corse;Haute-Corse;Galéria 2B121;E8.65;N42.4;12;
3;FRA;Corse;Haute-Corse;Gavignano 2B122;E9.286;N42.418;12;
3;FRA;Corse;Haute-Corse;Ghisonaccia 2B123;E9.4064;N42.0144;12;
3;FRA;Corse;Haute-Corse;Ghisoni 2B124;E9.2166;N42.1;12;
3;FRA;Corse;Haute-Corse;Giocatojo 2B125;E9.35;N42.4333;12;
3;FRA;Corse;Haute-Corse;Giuncaggio 2B126;E9.3666;N42.2166;12;
3;FRA;Corse;Haute-Corse;Isolaccio-di-Fiumorbo 2B135;E9.2807;N42.0024;12;
3;FRA;Corse;Haute-Corse;L'Île-Rousse 2B134;E8.9333;N42.6333;12;
3;FRA;Corse;Haute-Corse;La Porta 2B246;E9.352;N42.4208;12;
3;FRA;Corse;Haute-Corse;Lama 2B136;E9.1666;N42.5666;12;
3;FRA;Corse;Haute-Corse;Lano 2B137;E9.25;N42.3833;12;
3;FRA;Corse;Haute-Corse;Lavatoggio 2B138;E8.8666;N42.5666;12;
3;FRA;Corse;Haute-Corse;Lento 2B140;E9.2833;N42.5166;12;
3;FRA;Corse;Haute-Corse;Linguizzetta 2B143;E9.4666;N42.25;12;
3;FRA;Corse;Haute-Corse;Loreto-di-Casinca 2B145;E9.4166;N42.4666;12;
3;FRA;Corse;Haute-Corse;Lozzi 2B147;E9.0095;N42.3486;12;
3;FRA;Corse;Haute-Corse;Lucciana 2B148;E9.4166;N42.5333;12;
3;FRA;Corse;Haute-Corse;Lugo-di-Nazza 2B149;E9.3;N42.0666;12;
3;FRA;Corse;Haute-Corse;Lumio 2B150;E8.8309;N42.5781;12;
3;FRA;Corse;Haute-Corse;Luri 2B152;E9.4035;N42.8918;12;
3;FRA;Corse;Haute-Corse;Manso 2B153;E8.7666;N42.3833;12;
3;FRA;Corse;Haute-Corse;Matra 2B155;E9.3833;N42.2666;12;
3;FRA;Corse;Haute-Corse;Mausoléo 2B156;E9.4730;N42.7757;12;
3;FRA;Corse;Haute-Corse;Mazzola 2B157;E9.3166;N42.3;12;
3;FRA;Corse;Haute-Corse;Meria 2B159;E9.4520;N42.9273;12;
3;FRA;Corse;Haute-Corse;Moïta 2B161;E9.4166;N42.2666;12;
3;FRA;Corse;Haute-Corse;Moltifao 2B162;E9.1166;N42.4666;12;
3;FRA;Corse;Haute-Corse;Monacia-d'Orezza 2B164;E9.3927;N42.3763;12;
3;FRA;Corse;Haute-Corse;Moncale 2B165;E8.8361;N42.5111;12;
3;FRA;Corse;Haute-Corse;Monte 2B166;E9.3926;N42.4683;12;
3;FRA;Corse;Haute-Corse;Montegrosso 2B167;E8.8852;N42.5393;12;
3;FRA;Corse;Haute-Corse;Monticello 2B168;E8.95;N42.6166;12;
3;FRA;Corse;Haute-Corse;Morosaglia 2B169;E9.3166;N42.4333;12;
3;FRA;Corse;Haute-Corse;Morsiglia 2B170;E9.3796;N42.9363;12;
3;FRA;Corse;Haute-Corse;Muracciole 2B171;E9.1833;N42.1666;12;
3;FRA;Corse;Haute-Corse;Murato 2B172;E9.3260;N42.5774;12;
3;FRA;Corse;Haute-Corse;Muro 2B173;E8.9166;N42.55;12;
3;FRA;Corse;Haute-Corse;Nessa 2B175;E8.95;N42.55;12;
3;FRA;Corse;Haute-Corse;Nocario 2B176;E9.35;N42.4;12;
3;FRA;Corse;Haute-Corse;Noceta 2B177;E9.2;N42.2;12;
3;FRA;Corse;Haute-Corse;Nonza 2B178;E9.3466;N42.7853;12;
3;FRA;Corse;Haute-Corse;Novale 2B179;E9.4136;N42.3088;12;
3;FRA;Corse;Haute-Corse;Novella 2B180;E9.1169;N42.5847;12;
3;FRA;Corse;Haute-Corse;Occhiatana 2B182;E9.0181;N42.5738;12;
3;FRA;Corse;Haute-Corse;Ogliastro 2B183;E9.3487;N42.8171;12;
3;FRA;Corse;Haute-Corse;Olcani 2B184;E9.3692;N42.8065;12;
3;FRA;Corse;Haute-Corse;Oletta 2B185;E9.35;N42.633333;12;
3;FRA;Corse;Haute-Corse;Olmeta-di-Capocorso 2B187;E9.3698;N42.7683;12;
3;FRA;Corse;Haute-Corse;Olmeta-di-Tuda 2B188;E9.35;N42.6;12;
3;FRA;Corse;Haute-Corse;Olmi-Cappella 2B190;E9.016667;N42.516667;12;
3;FRA;Corse;Haute-Corse;Olmo 2B192;E9.4048;N42.4913;12;
3;FRA;Corse;Haute-Corse;Omessa 2B193;E9.2;N42.366667;12;
3;FRA;Corse;Haute-Corse;Ortale 2B194;E9.416667;N42.316667;12;
3;FRA;Corse;Haute-Corse;Ortiporio 2B195;E9.35;N42.45;12;
3;FRA;Corse;Haute-Corse;Palasca 2B199;E9.05;N42.583333;12;
3;FRA;Corse;Haute-Corse;Pancheraccia 2B201;E9.35;N42.216667;12;
3;FRA;Corse;Haute-Corse;Parata 2B202;E9.4057;N42.3692;12;
3;FRA;Corse;Haute-Corse;Patrimonio 2B205;E9.3573;N42.6923;12;
3;FRA;Corse;Haute-Corse;Penta-Acquatella 2B206;E9.35;N42.45;12;
3;FRA;Corse;Haute-Corse;Penta-di-Casinca 2B207;E9.45;N42.466667;12;
3;FRA;Corse;Haute-Corse;Perelli 2B208;E9.366667;N42.316667;12;
3;FRA;Corse;Haute-Corse;Pero-Casevecchie 2B210;E9.466667;N42.416667;12;
3;FRA;Corse;Haute-Corse;Pianello 2B213;E9.35;N42.283333;12;
3;FRA;Corse;Haute-Corse;Piano 2B214;E9.383333;N42.45;12;
3;FRA;Corse;Haute-Corse;Piazzali 2B216;E9.4;N42.316667;12;
3;FRA;Corse;Haute-Corse;Piazzole 2B217;E9.4;N42.383333;12;
3;FRA;Corse;Haute-Corse;Pie-d'Orezza 2B222;E9.3533;N423703;12;
3;FRA;Corse;Haute-Corse;Piedicorte-di-Gaggio 2B218;E9.333333;N42.233333;12;
3;FRA;Corse;Haute-Corse;Piedicroce 2B219;E9.35;N42.366667;12;
3;FRA;Corse;Haute-Corse;Piedigriggio 2B220;E9.166667;N42.45;12;
3;FRA;Corse;Haute-Corse;Piedipartino 2B221;E9.35;N42.366667;12;
3;FRA;Corse;Haute-Corse;Pietra-di-Verde 2B225;E9.45;N42.3;12;
3;FRA;Corse;Haute-Corse;Pietracorbara 2B224;E9.4247;N42.8417;12;
3;FRA;Corse;Haute-Corse;Pietralba 2B223;E9.183333;N42.533333;12;
3;FRA;Corse;Haute-Corse;Pietraserena 2B226;E9.35;N42.233333;12;
3;FRA;Corse;Haute-Corse;Pietricaggio 2B227;E9.383333;N42.333333;12;
3;FRA;Corse;Haute-Corse;Pietroso 2B229;E9.266667;N42.15;12;
3;FRA;Corse;Haute-Corse;Piève 2B230;E9.283333;N42.566667;12;
3;FRA;Corse;Haute-Corse;Pigna 2B231;E8.9;N42.6;12;
3;FRA;Corse;Haute-Corse;Pino 2B233;E9.35;N42.9;12;
3;FRA;Corse;Haute-Corse;Piobetta 2B234;E9.3837;N42.3405;12;
3;FRA;Corse;Haute-Corse;Pioggiola 2B235;E8.9999;N42.5377;12;
3;FRA;Corse;Haute-Corse;Poggio-d'Oletta 2B239;E9.35;N42.633333;12;
3;FRA;Corse;Haute-Corse;Poggio-di-Nazza 2B236;E9.3;N42.05;12;
3;FRA;Corse;Haute-Corse;Poggio-di-Venaco 2B238;E9.1855;N42.2553;12;
3;FRA;Corse;Haute-Corse;Poggio-Marinaccio 2B241;E9.35;N42.433333;12;
3;FRA;Corse;Haute-Corse;Poggio-Mezzana 2B242;E9.483333;N42.4;12;
3;FRA;Corse;Haute-Corse;Polveroso 2B243;E9.366667;N42.4;12;
3;FRA;Corse;Haute-Corse;Popolasca 2B244;E9.133333;N42.433333;12;
3;FRA;Corse;Haute-Corse;Porri 2B245;E9.433333;N42.45;12;
3;FRA;Corse;Haute-Corse;Prato-di-Giovellina 2B248;E9.1585;N424213;12;
3;FRA;Corse;Haute-Corse;Prunelli-di-Casacconi 2B250;E9.4013;N42.503;12;
3;FRA;Corse;Haute-Corse;Prunelli-di-Fiumorbo 2B251;E9.3270;N42.0087;12;
3;FRA;Corse;Haute-Corse;Pruno 2B252;E9.433333;N42.416667;12;
3;FRA;Corse;Haute-Corse;Quercitello 2B255;E9.35;N42.416667;12;
3;FRA;Corse;Haute-Corse;Rapaggio 2B256;E9.383333;N42.366667;12;
3;FRA;Corse;Haute-Corse;Rapale 2B257;E9.3;N42.583333;12;
3;FRA;Corse;Haute-Corse;Riventosa 2B260;E9.183333;N42.25;12;
3;FRA;Corse;Haute-Corse;Rogliano 2B261;E9.418;N42.9542;12;
3;FRA;Corse;Haute-Corse;Rospigliani 2B263;E9.216667;N42.183333;12;
3;FRA;Corse;Haute-Corse;Rusio 2B264;E9.25;N42.366667;12;
3;FRA;Corse;Haute-Corse;Rutali 2B265;E9.35;N42.583333;12;
3;FRA;Corse;Haute-Corse;Saint-Florent 2B298;E9.3;N42.683333;12;
3;FRA;Corse;Haute-Corse;Saliceto 2B267;E9.3;N42.4;12;
3;FRA;Corse;Haute-Corse;San-Damiano 2B297;E9.416667;N42.4;12;
3;FRA;Corse;Haute-Corse;San-Gavino-d'Ampugnani 2B299;E9.4207;N42.4078;12;
3;FRA;Corse;Haute-Corse;San-Gavino-di-Fiumorbo 2B365;E9.266667;N41.966667;12;
3;FRA;Corse;Haute-Corse;San-Gavino-di-Tenda 2B301;E9.266667;N42.583333;12;
3;FRA;Corse;Haute-Corse;San-Giovanni-di-Moriani 2B302;E9.466667;N42.366667;12;
3;FRA;Corse;Haute-Corse;San-Giuliano 2B303;E9.5;N42.3;12;
3;FRA;Corse;Haute-Corse;San-Lorenzo 2B304;E9.283333;N42.383333;12;
3;FRA;Corse;Haute-Corse;San-Martino-di-Lota 2B305;E9.416667;N42.716667;12;
3;FRA;Corse;Haute-Corse;San-Nicolao 2B313;E9.5;N42.366667;12;
3;FRA;Corse;Haute-Corse;Sant'Andréa-di-Bozio 2B292;E9.302;N42.2925;12;
3;FRA;Corse;Haute-Corse;Sant'Andréa-di-Cotone 2B293;E9.466667;N42.3;12;
3;FRA;Corse;Haute-Corse;Sant'Antonino 2B296;E8.9;N42.583333;12;
3;FRA;Corse;Haute-Corse;Santa-Lucia-di-Mercurio 2B306;E9.216667;N42.316667;12;
3;FRA;Corse;Haute-Corse;Santa-Lucia-di-Moriani 2B307;E9.5;N42.383333;12;
3;FRA;Corse;Haute-Corse;Santa-Maria-di-Lota 2B309;E9.433333;N42.75;12;
3;FRA;Corse;Haute-Corse;Santa-Maria-Poggio 2B311;E9.5;N42.333333;12;
3;FRA;Corse;Haute-Corse;Santa-Reparata-di-Balagna 2B316;E8.916667;N42.6;12;
3;FRA;Corse;Haute-Corse;Santa-Reparata-di-Moriani 2B317;E9.433333;N42.35;12;
3;FRA;Corse;Haute-Corse;Santo-Pietro-di-Tenda 2B314;E9.25;N42.6;12;
3;FRA;Corse;Haute-Corse;Santo-Pietro-di-Venaco 2B315;E9.166667;N42.233333;12;
3;FRA;Corse;Haute-Corse;Scata 2B273;E9.4;N42.416667;12;
3;FRA;Corse;Haute-Corse;Scolca 2B274;E9.366667;N42.516667;12;
3;FRA;Corse;Haute-Corse;Sermano 2B275;E9.266667;N42.316667;12;
3;FRA;Corse;Haute-Corse;Serra-di-Fiumorbo 2B277;E9.3353;N41.985;12;
3;FRA;Corse;Haute-Corse;Silvareccio 2B280;E9.4;N42.45;12;
3;FRA;Corse;Haute-Corse;Sisco 2B281;E9.433333;N42.8;12;
3;FRA;Corse;Haute-Corse;Solaro 2B283;E9.333333;N41.9;12;
3;FRA;Corse;Haute-Corse;Sorbo-Ocagnano 2B286;E9.45;N42.466667;12;
3;FRA;Corse;Haute-Corse;Sorio 2B287;E9.266667;N42.583333;12;
3;FRA;Corse;Haute-Corse;Soveria 2B289;E9.166667;N42.35;12;
3;FRA;Corse;Haute-Corse;Speloncato 2B290;E8.966667;N42.566667;12;
3;FRA;Corse;Haute-Corse;Stazzona 2B291;E9.366667;N42.366667;12;
3;FRA;Corse;Haute-Corse;Taglio-Isolaccio 2B318;E9.466667;N42.433333;12;
3;FRA;Corse;Haute-Corse;Talasani 2B319;E9.483333;N42.4;12;
3;FRA;Corse;Haute-Corse;Tallone 2B320;E9.416667;N42.233333;12;
3;FRA;Corse;Haute-Corse;Tarrano 2B321;E9.4;N42.35;12;
3;FRA;Corse;Haute-Corse;Tomino 2B327;E9.4463;N42.9455;12;
3;FRA;Corse;Haute-Corse;Tox 2B328;E9.433333;N42.25;12;
3;FRA;Corse;Haute-Corse;Tralonca 2B329;E9.183333;N42.333333;12;
3;FRA;Corse;Haute-Corse;Urtaca 2B332;E9.1667;N42.5963;12;
3;FRA;Corse;Haute-Corse;Valle-d'Alesani 2B334;E9.4095;N42.323;12;
3;FRA;Corse;Haute-Corse;Valle-d'Orezza 2B338;E9.3985;N42.3689;12;
3;FRA;Corse;Haute-Corse;Valle-di-Campoloro 2B335;E9.4946;N42.3357;12;
3;FRA;Corse;Haute-Corse;Valle-di-Rostino 2B337;E9.2828;N42.4589;12;
3;FRA;Corse;Haute-Corse;Vallecalle 2B333;E9.3418;N42.5956;12;
3;FRA;Corse;Haute-Corse;Vallica 2B339;E9.0510;N42.5202;12;
3;FRA;Corse;Haute-Corse;Velone-Orneto 2B340;E9.4640;N42.4022;12;
3;FRA;Corse;Haute-Corse;Venaco 2B341;E9.166667;N42.233333;12;
3;FRA;Corse;Haute-Corse;Ventiseri 2B342;E9.333333;N41.933333;12;
3;FRA;Corse;Haute-Corse;Venzolasca 2B343;E9.45;N42.466667;12;
3;FRA;Corse;Haute-Corse;Verdèse 2B344;E9.3707;N42.3913;12;
3;FRA;Corse;Haute-Corse;Vescovato 2B346;E9.433333;N42.483333;12;
3;FRA;Corse;Haute-Corse;Vezzani 2B347;E9.2460;N42.1721;12;
3;FRA;Corse;Haute-Corse;Vignale 2B350;E9.382;N42.5374;12;
3;FRA;Corse;Haute-Corse;Ville-di-Paraso 2B352;E8.9854;N42.5655;12;
3;FRA;Corse;Haute-Corse;Ville-di-Pietrabugno 2B353;E9.4295;N42.7158;12;
3;FRA;Corse;Haute-Corse;Vivario 2B354;E9.1698;N42.1713;12;
3;FRA;Corse;Haute-Corse;Volpajola 2B355;E9.3531;N42.5263;12;
3;FRA;Corse;Haute-Corse;Zalana 2B356;E9.3724;N42.2626;12;
3;FRA;Corse;Haute-Corse;Zilia 2B361;E8.9003;N42.5308;12;
3;FRA;Corse;Haute-Corse;Zuani 2B364;E9.3449;N42.2712;12;