Level;Country;State;County;Place;Longitude;Latitude;ZoomLevel;Icon
2;FRA;Alsace;Bas-Rhin;;E7.5421;N48.5602;9;
3;FRA;Alsace;Bas-Rhin;Achenheim 67001;E7.6333;N48.5833;13;
3;FRA;Alsace;Bas-Rhin;Adamswiller 67002;E7.2000;N48.9000;13;
3;FRA;Alsace;Bas-Rhin;Albé 67003;E7.3167;N48.3500;13;
3;FRA;Alsace;Bas-Rhin;Allenwiller 67004;E7.3833;N48.6667;13;
3;FRA;Alsace;Bas-Rhin;Alteckendorf 67005;E7.6000;N48.7833;13;
3;FRA;Alsace;Bas-Rhin;Altenheim 67006;E7.4637;N48.7185;13;
3;FRA;Alsace;Bas-Rhin;Altenstadt 67007=67544;E7.9667;N49.0333;13;
3;FRA;Alsace;Bas-Rhin;Altorf 67008;E7.5333;N48.5167;13;
3;FRA;Alsace;Bas-Rhin;Altwiller 67009;E6.9667;N48.9333;13;
3;FRA;Alsace;Bas-Rhin;Andlau 67010;E7.4167;N48.3833;13;
3;FRA;Alsace;Bas-Rhin;Artolsheim 67011;E7.5720;N48.2103;13;
3;FRA;Alsace;Bas-Rhin;Aschbach 67012;E7.9833;N48.9333;13;
3;FRA;Alsace;Bas-Rhin;Asswiller 67013;E7.2167;N48.8833;13;
3;FRA;Alsace;Bas-Rhin;Auenheim 67014;E8.0167;N48.8167;13;
3;FRA;Alsace;Bas-Rhin;Avenheim 67015=67452;E7.5500;N48.6667;13;
3;FRA;Alsace;Bas-Rhin;Avolsheim 67016;E7.5000;N48.5500;13;
3;FRA;Alsace;Bas-Rhin;Baerendorf 67017;E7.0833;N48.8333;13;
3;FRA;Alsace;Bas-Rhin;Balbronn 67018;E7.4333;N48.5833;13;
3;FRA;Alsace;Bas-Rhin;Baldenheim 67019;E7.5333;N48.2333;13;
3;FRA;Alsace;Bas-Rhin;Barembach 67020;E7.2333;N48.4833;13;
3;FRA;Alsace;Bas-Rhin;Barr 67021;E7.4500;N48.4000;13;
3;FRA;Alsace;Bas-Rhin;Bassemberg 67022;E7.2833;N48.3333;13;
3;FRA;Alsace;Bas-Rhin;Batzendorf 67023;E7.7000;N48.7833;13;
3;FRA;Alsace;Bas-Rhin;Behlenheim 67024=67495;E7.6167;N48.6500;13;
3;FRA;Alsace;Bas-Rhin;Beinheim 67025;E8.0833;N48.8667;13;
3;FRA;Alsace;Bas-Rhin;Bellefosse 67026;E7.2167;N48.4000;13;
3;FRA;Alsace;Bas-Rhin;Belmont 67027;E7.2362;N48.4087;13;
3;FRA;Alsace;Bas-Rhin;Benfeld 67028;E7.6000;N48.3667;13;
3;FRA;Alsace;Bas-Rhin;Berg 67029;E7.1667;N48.9000;13;
3;FRA;Alsace;Bas-Rhin;Bergbieten 67030;E7.4575;N48.5739;13;
3;FRA;Alsace;Bas-Rhin;Bernardswiller 67031;E7.4667;N48.4500;13;
3;FRA;Alsace;Bas-Rhin;Bernardvillé 67032;E7.4000;N48.3667;13;
3;FRA;Alsace;Bas-Rhin;Bernolsheim 67033;E7.6833;N48.7500;13;
3;FRA;Alsace;Bas-Rhin;Berstett 67034;E7.6667;N48.6833;13;
3;FRA;Alsace;Bas-Rhin;Berstheim 67035;E7.6833;N48.8000;13;
3;FRA;Alsace;Bas-Rhin;Betschdorf 67339;E7.9000;N48.8833;13;
3;FRA;Alsace;Bas-Rhin;Bettwiller 67036;E7.1833;N48.8833;13;
3;FRA;Alsace;Bas-Rhin;Biblisheim 67037;E7.8000;N48.9000;13;
3;FRA;Alsace;Bas-Rhin;Bietlenheim 67038;E7.7833;N48.7167;13;
3;FRA;Alsace;Bas-Rhin;Bilwisheim 67039;E7.6667;N48.7167;13;
3;FRA;Alsace;Bas-Rhin;Bindernheim 67040;E7.6000;N48.2833;13;
3;FRA;Alsace;Bas-Rhin;Birkenwald 67041;E7.3500;N48.6667;13;
3;FRA;Alsace;Bas-Rhin;Birlenbach 67042=67104;E7.8833;N48.9833;13;
3;FRA;Alsace;Bas-Rhin;Bischheim 67043;E7.7500;N48.6167;13;
3;FRA;Alsace;Bas-Rhin;Bischholtz 67044;E7.5500;N48.9000;13;
3;FRA;Alsace;Bas-Rhin;Bischoffsheim 67045;E7.4833;N48.4833;13;
3;FRA;Alsace;Bas-Rhin;Bischtroff-sur-Sarre 67376=67435;E7.0667;N48.9000;13;
3;FRA;Alsace;Bas-Rhin;Bischwiller 67046;E7.8667;N48.7667;13;
3;FRA;Alsace;Bas-Rhin;Bissert 67047;E7.0333;N48.9333;13;
3;FRA;Alsace;Bas-Rhin;Bitschhoffen 67048;E7.6167;N48.8500;13;
3;FRA;Alsace;Bas-Rhin;Blaesheim 67049;E7.6000;N48.5000;13;
3;FRA;Alsace;Bas-Rhin;Blancherupt 67050;E7.2000;N48.4000;13;
3;FRA;Alsace;Bas-Rhin;Blienschwiller 67051;E7.4167;N48.3333;13;
3;FRA;Alsace;Bas-Rhin;Boersch 67052;E7.4333;N48.4833;13;
3;FRA;Alsace;Bas-Rhin;Boesenbiesen 67053;E7.5667;N48.2167;13;
3;FRA;Alsace;Bas-Rhin;Bolsenheim 67054;E7.6167;N48.4167;13;
3;FRA;Alsace;Bas-Rhin;Boofzheim 67055;E7.6833;N48.3333;13;
3;FRA;Alsace;Bas-Rhin;Bootzheim 67056;E7.5667;N48.1833;13;
3;FRA;Alsace;Bas-Rhin;Bosselshausen 67057=67242;E7.5167;N48.8000;13;
3;FRA;Alsace;Bas-Rhin;Bossendorf 67058;E7.5667;N48.7833;13;
3;FRA;Alsace;Bas-Rhin;Bourg-Bruche 67059;E7.1500;N48.3500;13;
3;FRA;Alsace;Bas-Rhin;Bourgheim 67060;E7.4833;N48.4167;13;
3;FRA;Alsace;Bas-Rhin;Bouxwiller 67061;E7.4833;N48.8167;13;
3;FRA;Alsace;Bas-Rhin;Breitenau 67062;E7.3000;N48.3167;13;
3;FRA;Alsace;Bas-Rhin;Breitenbach 67063;E7.2944;N48.3667;13;
3;FRA;Alsace;Bas-Rhin;Bremmelbach 67064=67074;E7.9000;N48.9833;13;
3;FRA;Alsace;Bas-Rhin;Breuschwickersheim 67065;E7.6000;N48.5833;13;
3;FRA;Alsace;Bas-Rhin;Brumath 67067;E7.7167;N48.7333;13;
3;FRA;Alsace;Bas-Rhin;Buhl 67069;E8.0000;N48.9167;13;
3;FRA;Alsace;Bas-Rhin;Burbach 67070;E7.1000;N48.8833;13;
3;FRA;Alsace;Bas-Rhin;Bust 67071;E7.2333;N48.8333;13;
3;FRA;Alsace;Bas-Rhin;Buswiller 67068;E7.5667;N48.8167;13;
3;FRA;Alsace;Bas-Rhin;Butten 67072;E7.2167;N48.9667;13;
3;FRA;Alsace;Bas-Rhin;Châtenois 67073;E7.4000;N48.2667;13;
3;FRA;Alsace;Bas-Rhin;Cleebourg 67074;E7.9000;N49.0000;13;
3;FRA;Alsace;Bas-Rhin;Climbach 67075;E7.8500;N49.0167;13;
3;FRA;Alsace;Bas-Rhin;Colroy-la-Roche 67076;E7.1833;N48.3833;13;
3;FRA;Alsace;Bas-Rhin;Cosswiller 67077;E7.4000;N48.6333;13;
3;FRA;Alsace;Bas-Rhin;Crastatt 67078;E7.4167;N48.6500;13;
3;FRA;Alsace;Bas-Rhin;Croettwiller 67079;E8.0333;N48.9333;13;
3;FRA;Alsace;Bas-Rhin;Dachstein 67080;E7.5333;N48.5667;13;
3;FRA;Alsace;Bas-Rhin;Dahlenheim 67081;E7.5167;N48.5833;13;
3;FRA;Alsace;Bas-Rhin;Dalhunden 67082;E7.9900;N48.7727;13;
3;FRA;Alsace;Bas-Rhin;Dambach 67083;E7.6333;N49.0000;13;
3;FRA;Alsace;Bas-Rhin;Dambach-la-Ville 67084;E7.4333;N48.3333;13;
3;FRA;Alsace;Bas-Rhin;Dangolsheim 67085;E7.4667;N48.5667;13;
3;FRA;Alsace;Bas-Rhin;Daubensand 67086;E7.7167;N48.3500;13;
3;FRA;Alsace;Bas-Rhin;Dauendorf 67087;E7.6500;N48.8333;13;
3;FRA;Alsace;Bas-Rhin;Dehlingen 67088;E7.2000;N48.9833;13;
3;FRA;Alsace;Bas-Rhin;Dettwiller 67089;E7.4667;N48.7500;13;
3;FRA;Alsace;Bas-Rhin;Diebolsheim 67090;E7.6667;N48.2833;13;
3;FRA;Alsace;Bas-Rhin;Diedendorf 67091;E7.0500;N48.8833;13;
3;FRA;Alsace;Bas-Rhin;Dieffenbach-au-Val 67092;E7.3333;N48.3167;13;
3;FRA;Alsace;Bas-Rhin;Dieffenbach-lès-Woerth 67093;E7.7833;N48.9333;13;
3;FRA;Alsace;Bas-Rhin;Dieffenthal 67094;E7.4167;N48.3000;13;
3;FRA;Alsace;Bas-Rhin;Diemeringen 67095;E7.1833;N48.9333;13;
3;FRA;Alsace;Bas-Rhin;Dimbsthal 67096;E7.3667;N48.6667;13;
3;FRA;Alsace;Bas-Rhin;Dingsheim 67097;E7.6667;N48.6333;13;
3;FRA;Alsace;Bas-Rhin;Dinsheim-sur-Bruche 67098;E7.4333;N48.5333;13;
3;FRA;Alsace;Bas-Rhin;Domfessel 67099;E7.1500;N48.9500;13;
3;FRA;Alsace;Bas-Rhin;Donnenheim 67100;E7.6500;N48.7167;13;
3;FRA;Alsace;Bas-Rhin;Dorlisheim 67101;E7.4833;N48.5333;13;
3;FRA;Alsace;Bas-Rhin;Dossenheim-Kochersberg 67102;E7.5667;N48.6333;13;
3;FRA;Alsace;Bas-Rhin;Dossenheim-sur-Zinsel 67103;E7.4000;N48.8000;13;
3;FRA;Alsace;Bas-Rhin;Drachenbronn-Birlenbach 67104;E7.8667;N48.9833;13;
3;FRA;Alsace;Bas-Rhin;Drulingen 67105;E7.1833;N48.8667;13;
3;FRA;Alsace;Bas-Rhin;Drusenheim 67106;E7.9500;N48.7667;13;
3;FRA;Alsace;Bas-Rhin;Duntzenheim 67107;E7.5333;N48.7167;13;
3;FRA;Alsace;Bas-Rhin;Duppigheim 67108;E7.5833;N48.5333;13;
3;FRA;Alsace;Bas-Rhin;Durningen 67109;E7.5667;N48.6833;13;
3;FRA;Alsace;Bas-Rhin;Durrenbach 67110;E7.7667;N48.9000;13;
3;FRA;Alsace;Bas-Rhin;Durstel 67111;E7.2000;N48.8833;13;
3;FRA;Alsace;Bas-Rhin;Duttlenheim 67112;E7.5667;N48.5167;13;
3;FRA;Alsace;Bas-Rhin;Eberbach-Seltz 67113;E8.0500;N48.9167;13;
3;FRA;Alsace;Bas-Rhin;Eberbach-Woerth 67114=67176;E7.5000;N48.3000;13;
3;FRA;Alsace;Bas-Rhin;Ebersheim 67115;E7.5167;N48.3000;13;
3;FRA;Alsace;Bas-Rhin;Ebersmunster 67116;E7.3500;N48.7667;13;
3;FRA;Alsace;Bas-Rhin;Eckartswiller 67117;E7.6833;N48.5833;13;
3;FRA;Alsace;Bas-Rhin;Eckbolsheim 67118;E7.7000;N48.6833;13;
3;FRA;Alsace;Bas-Rhin;Eckwersheim 67119;E7.4333;N48.3833;13;
3;FRA;Alsace;Bas-Rhin;Eichhoffen 67120;E7.5000;N48.1667;13;
3;FRA;Alsace;Bas-Rhin;Elsenheim 67121;E7.3000;N48.6333;13;
3;FRA;Alsace;Bas-Rhin;Engwiller 67123;E7.6167;N48.8833;13;
3;FRA;Alsace;Bas-Rhin;Entzheim 67124;E7.6333;N48.5333;13;
3;FRA;Alsace;Bas-Rhin;Epfig 67125;E7.4500;N48.3667;13;
3;FRA;Alsace;Bas-Rhin;Erckartswiller 67126;E7.3667;N48.8667;13;
3;FRA;Alsace;Bas-Rhin;Ergersheim 67127;E7.5167;N48.5667;13;
3;FRA;Alsace;Bas-Rhin;Ernolsheim-Bruche 67128;E7.5667;N48.5667;13;
3;FRA;Alsace;Bas-Rhin;Ernolsheim-lès-Saverne 67129;E7.3833;N48.7833;13;
3;FRA;Alsace;Bas-Rhin;Erstein 67130;E7.6667;N48.4333;13;
3;FRA;Alsace;Bas-Rhin;Eschau 67131;E7.7167;N48.4833;13;
3;FRA;Alsace;Bas-Rhin;Eschbach 67132;E7.7333;N48.8667;13;
3;FRA;Alsace;Bas-Rhin;Eschbourg 67133;E7.3000;N48.8167;13;
3;FRA;Alsace;Bas-Rhin;Eschwiller 67134;E7.1167;N48.8667;13;
3;FRA;Alsace;Bas-Rhin;Ettendorf 67135;E7.5833;N48.8167;13;
3;FRA;Alsace;Bas-Rhin;Eywiller 67136;E7.1167;N48.8667;13;
3;FRA;Alsace;Bas-Rhin;Fegersheim 67137;E7.6833;N48.4833;13;
3;FRA;Alsace;Bas-Rhin;Fessenheim-le-Bas 67138;E7.5333;N48.6333;13;
3;FRA;Alsace;Bas-Rhin;Flexbourg 67139;E7.4333;N48.5667;13;
3;FRA;Alsace;Bas-Rhin;Forstfeld 67140;E8.0333;N48.8500;13;
3;FRA;Alsace;Bas-Rhin;Forstheim 67141;E7.7167;N48.9000;13;
3;FRA;Alsace;Bas-Rhin;Fort-Louis 67142;E8.0500;N48.8000;13;
3;FRA;Alsace;Bas-Rhin;Fouchy 67143;E7.2833;N48.3333;13;
3;FRA;Alsace;Bas-Rhin;Fouday 67144;E7.1833;N48.4167;13;
3;FRA;Alsace;Bas-Rhin;Friedolsheim 67145;E7.4833;N48.7000;13;
3;FRA;Alsace;Bas-Rhin;Friesenheim 67146;E7.6667;N48.3000;13;
3;FRA;Alsace;Bas-Rhin;Froeschwiller 67147;E7.7167;N48.9500;13;
3;FRA;Alsace;Bas-Rhin;Frohmuhl 67148;E7.2833;N48.9000;13;
3;FRA;Alsace;Bas-Rhin;Furchhausen 67149;E7.4333;N48.7167;13;
3;FRA;Alsace;Bas-Rhin;Furdenheim 67150;E7.5667;N48.6167;13;
3;FRA;Alsace;Bas-Rhin;Gambsheim 67151;E7.8833;N48.7000;13;
3;FRA;Alsace;Bas-Rhin;Geispolsheim 67152;E7.6500;N48.5167;13;
3;FRA;Alsace;Bas-Rhin;Geiswiller 67153;E7.5000;N48.7833;13;
3;FRA;Alsace;Bas-Rhin;Gerstheim 67154;E7.7167;N48.3833;13;
3;FRA;Alsace;Bas-Rhin;Gertwiller 67155;E7.4667;N48.4000;13;
3;FRA;Alsace;Bas-Rhin;Geudertheim 67156;E7.7500;N48.7167;13;
3;FRA;Alsace;Bas-Rhin;Gimbrett 67157=67034;E7.6167;N48.7000;13;
3;FRA;Alsace;Bas-Rhin;Gingsheim 67158;E7.5833;N48.7167;13;
3;FRA;Alsace;Bas-Rhin;Goerlingen 67159;E7.0833;N48.8000;13;
3;FRA;Alsace;Bas-Rhin;Goersdorf 67160;E7.7667;N48.9500;13;
3;FRA;Alsace;Bas-Rhin;Gottenhouse 67161;E7.3667;N48.7167;13;
3;FRA;Alsace;Bas-Rhin;Gottesheim 67162;E7.4833;N48.7667;13;
3;FRA;Alsace;Bas-Rhin;Gougenheim 67163;E7.5667;N48.7000;13;
3;FRA;Alsace;Bas-Rhin;Goxwiller 67164;E7.4833;N48.4333;13;
3;FRA;Alsace;Bas-Rhin;Grandfontaine 67165;E7.1667;N48.5000;13;
3;FRA;Alsace;Bas-Rhin;Grassendorf 67166;E7.6167;N48.8167;13;
3;FRA;Alsace;Bas-Rhin;Grendelbruch 67167;E7.2833;N48.8167;13;
3;FRA;Alsace;Bas-Rhin;Gresswiller 67168;E7.3167;N48.5000;13;
3;FRA;Alsace;Bas-Rhin;Gries 67169;E7.4333;N48.5333;13;
3;FRA;Alsace;Bas-Rhin;Griesbach 67170=67176;E7.8167;N48.7500;13;
3;FRA;Alsace;Bas-Rhin;Griesbach-le-Bastberg 67171=67061;E7.6833;N48.8833;13;
3;FRA;Alsace;Bas-Rhin;Griesheim-près-Molsheim 67172;E7.4333;N48.8167;13;
3;FRA;Alsace;Bas-Rhin;Griesheim-sur-Souffel 67173;E7.5333;N48.5000;13;
3;FRA;Alsace;Bas-Rhin;Gumbrechtshoffen 67174;E7.6333;N48.9000;13;
3;FRA;Alsace;Bas-Rhin;Gumbrechtshoffen-Oberbronn 67175=67174;E7.6333;N48.9000;13;
3;FRA;Alsace;Bas-Rhin;Gundershoffen 67176;E7.6667;N48.9000;13;
3;FRA;Alsace;Bas-Rhin;Gungwiller 67178;E7.1500;N48.8833;13;
3;FRA;Alsace;Bas-Rhin;Gunstett 67177;E7.7667;N48.9167;13;
3;FRA;Alsace;Bas-Rhin;Haegen 67179;E7.3333;N48.7167;13;
3;FRA;Alsace;Bas-Rhin;Haguenau 67180;E7.7833;N48.8167;13;
3;FRA;Alsace;Bas-Rhin;Handschuheim 67181;E7.5833;N48.6000;13;
3;FRA;Alsace;Bas-Rhin;Hangenbieten 67182;E7.6000;N48.5667;13;
3;FRA;Alsace;Bas-Rhin;Harskirchen 67183;E7.0167;N48.9167;13;
3;FRA;Alsace;Bas-Rhin;Hatten 67184;E7.9833;N48.9000;13;
3;FRA;Alsace;Bas-Rhin;Hattmatt 67185;E7.4167;N48.7833;13;
3;FRA;Alsace;Bas-Rhin;Hegeney 67186;E7.7333;N48.8833;13;
3;FRA;Alsace;Bas-Rhin;Heidolsheim 67187;E7.5167;N48.2000;13;
3;FRA;Alsace;Bas-Rhin;Heiligenberg 67188;E7.4000;N48.5333;13;
3;FRA;Alsace;Bas-Rhin;Heiligenstein 67189;E7.4500;N48.4167;13;
3;FRA;Alsace;Bas-Rhin;Hengwiller 67190;E7.3333;N48.6667;13;
3;FRA;Alsace;Bas-Rhin;Herbitzheim 67191;E7.0833;N49.0167;13;
3;FRA;Alsace;Bas-Rhin;Herbsheim 67192;E7.6333;N48.3500;13;
3;FRA;Alsace;Bas-Rhin;Hermerswiller 67193=67206;E7.9167;N48.9333;13;
3;FRA;Alsace;Bas-Rhin;Herrlisheim 67194;E7.9000;N48.7333;13;
3;FRA;Alsace;Bas-Rhin;Hessenheim 67195;E7.5500;N48.2000;13;
3;FRA;Alsace;Bas-Rhin;Hilsenheim 67196;E7.5667;N48.2833;13;
3;FRA;Alsace;Bas-Rhin;Hindisheim 67197;E7.6333;N48.4667;13;
3;FRA;Alsace;Bas-Rhin;Hinsbourg 67198;E7.2833;N48.9000;13;
3;FRA;Alsace;Bas-Rhin;Hinsingen 67199;E7.0000;N48.9500;13;
3;FRA;Alsace;Bas-Rhin;Hipsheim 67200;E7.6833;N48.4667;13;
3;FRA;Alsace;Bas-Rhin;Hirschland 67201;E7.1167;N48.8333;13;
3;FRA;Alsace;Bas-Rhin;Hochfelden 67202;E7.5667;N48.7500;13;
3;FRA;Alsace;Bas-Rhin;Hochstett 67203;E7.6833;N48.7833;13;
3;FRA;Alsace;Bas-Rhin;Hoenheim 67204;E7.7500;N48.6167;13;
3;FRA;Alsace;Bas-Rhin;Hoerdt 67205;E7.7833;N48.7000;13;
3;FRA;Alsace;Bas-Rhin;Hoffen 67206;E7.9500;N48.9333;13;
3;FRA;Alsace;Bas-Rhin;Hohatzenheim 67207;E7.6167;N48.7167;13;
3;FRA;Alsace;Bas-Rhin;Hohengoeft 67208;E7.4833;N48.6667;13;
3;FRA;Alsace;Bas-Rhin;Hohfrankenheim 67209;E7.5833;N48.7333;13;
3;FRA;Alsace;Bas-Rhin;Hohwiller 67211=67474;E7.9000;N48.9167;13;
3;FRA;Alsace;Bas-Rhin;Holtzheim 67212;E7.6333;N48.5500;13;
3;FRA;Alsace;Bas-Rhin;Hunspach 67213;E7.9500;N48.9500;13;
3;FRA;Alsace;Bas-Rhin;Hurtigheim 67214;E7.6167;N48.6167;13;
3;FRA;Alsace;Bas-Rhin;Huttendorf 67215;E7.6333;N48.8000;13;
3;FRA;Alsace;Bas-Rhin;Huttenheim 67216;E7.5833;N48.3500;13;
3;FRA;Alsace;Bas-Rhin;Ichtratzheim 67217;E7.6833;N48.4833;13;
3;FRA;Alsace;Bas-Rhin;Illkirch-Graffenstaden 67218;E7.7167;N48.5333;13;
3;FRA;Alsace;Bas-Rhin;Imbsheim 67219=67061;E7.4500;N48.8000;13;
3;FRA;Alsace;Bas-Rhin;Ingenheim 67220;E7.5167;N48.7333;13;
3;FRA;Alsace;Bas-Rhin;Ingolsheim 67221;E7.9333;N48.9667;13;
3;FRA;Alsace;Bas-Rhin;Ingwiller 67222;E7.4833;N48.8667;13;
3;FRA;Alsace;Bas-Rhin;Innenheim 67223;E7.5667;N48.5000;13;
3;FRA;Alsace;Bas-Rhin;Irmstett 67224=67442;E7.4833;N48.5833;13;
3;FRA;Alsace;Bas-Rhin;Issenhausen 67225;E7.5333;N48.8000;13;
3;FRA;Alsace;Bas-Rhin;Ittenheim 67226;E7.6000;N48.6000;13;
3;FRA;Alsace;Bas-Rhin;Itterswiller 67227;E7.4167;N48.3500;13;
3;FRA;Alsace;Bas-Rhin;Jetterswiller 67229;E7.4000;N48.6667;13;
3;FRA;Alsace;Bas-Rhin;Kaltenhouse 67230;E7.8333;N48.8000;13;
3;FRA;Alsace;Bas-Rhin;Kauffenheim 67231;E8.0333;N48.8500;13;
3;FRA;Alsace;Bas-Rhin;Keffenach 67232;E7.8833;N48.9667;13;
3;FRA;Alsace;Bas-Rhin;Kertzfeld 67233;E7.5667;N48.3833;13;
3;FRA;Alsace;Bas-Rhin;Keskastel 67234;E7.0333;N48.9667;13;
3;FRA;Alsace;Bas-Rhin;Kesseldorf 67235;E8.0667;N48.8833;13;
3;FRA;Alsace;Bas-Rhin;Kienheim 67236;E7.5833;N48.6833;13;
3;FRA;Alsace;Bas-Rhin;Kilstett 67237;E7.8500;N48.6833;13;
3;FRA;Alsace;Bas-Rhin;Kindwiller 67238;E7.6000;N48.8667;13;
3;FRA;Alsace;Bas-Rhin;Kintzheim 67239;E7.4000;N48.2500;13;
3;FRA;Alsace;Bas-Rhin;Kirchheim 67240;E7.5000;N48.6167;13;
3;FRA;Alsace;Bas-Rhin;Kirrberg 67241;E7.0667;N48.8167;13;
3;FRA;Alsace;Bas-Rhin;Kirrwiller-Bosselshausen 67242;E7.5167;N48.8000;13;
3;FRA;Alsace;Bas-Rhin;Kleinfrankenheim 67243=67452;E7.5833;N48.6667;13;
3;FRA;Alsace;Bas-Rhin;Kleingoeft 67244;E7.4500;N48.6833;13;
3;FRA;Alsace;Bas-Rhin;Knoersheim 67245;E7.4667;N48.6833;13;
3;FRA;Alsace;Bas-Rhin;Kogenheim 67246;E7.5333;N48.3333;13;
3;FRA;Alsace;Bas-Rhin;Kolbsheim 67247;E7.5833;N48.5667;13;
3;FRA;Alsace;Bas-Rhin;Krautergersheim 67248;E7.5667;N48.4833;13;
3;FRA;Alsace;Bas-Rhin;Krautwiller 67249;E7.6833;N48.7333;13;
3;FRA;Alsace;Bas-Rhin;Kriegsheim 67250;E7.7333;N48.7500;13;
3;FRA;Alsace;Bas-Rhin;Kuhlendorf 67251=67339;E7.9167;N48.9167;13;
3;FRA;Alsace;Bas-Rhin;Kurtzenhouse 67252;E7.8000;N48.7333;13;
3;FRA;Alsace;Bas-Rhin;Kuttolsheim 67253;E7.5333;N48.6500;13;
3;FRA;Alsace;Bas-Rhin;Kutzenhausen 67254;E7.8500;N48.9333;13;
3;FRA;Alsace;Bas-Rhin;La Broque 67066;E7.2167;N48.4667;13;
3;FRA;Alsace;Bas-Rhin;La Petite-Pierre 67371;E7.3167;N48.8667;13;
3;FRA;Alsace;Bas-Rhin;La Vancelle 67505;E7.3000;N48.2833;13;
3;FRA;Alsace;Bas-Rhin;La Walck 67512;E7.6167;N48.8500;13;
3;FRA;Alsace;Bas-Rhin;La Wantzenau 67519;E7.8333;N48.6667;13;
3;FRA;Alsace;Bas-Rhin;Lalaye 67255;E7.2667;N48.3333;13;
3;FRA;Alsace;Bas-Rhin;Lampertheim 67256;E7.7000;N48.6500;13;
3;FRA;Alsace;Bas-Rhin;Lampertsloch 67257;E7.8167;N48.9500;13;
3;FRA;Alsace;Bas-Rhin;Landersheim 67258;E7.5000;N48.6833;13;
3;FRA;Alsace;Bas-Rhin;Langensoultzbach 67259;E7.7333;N48.9667;13;
3;FRA;Alsace;Bas-Rhin;Laubach 67260;E7.7167;N48.8833;13;
3;FRA;Alsace;Bas-Rhin;Lauterbourg 67261;E8.1758;N48.9753;13;
3;FRA;Alsace;Bas-Rhin;Le Hohwald 67210;E7.3245;N48.4035;13;
3;FRA;Alsace;Bas-Rhin;Leiterswiller 67262=67206;E7.9500;N48.9167;13;
3;FRA;Alsace;Bas-Rhin;Lembach 67263;E7.8000;N49.0000;13;
3;FRA;Alsace;Bas-Rhin;Leutenheim 67264;E8.0167;N48.8500;13;
3;FRA;Alsace;Bas-Rhin;Lichtenberg 67265;E7.4833;N48.9167;13;
3;FRA;Alsace;Bas-Rhin;Limersheim 67266;E7.6333;N48.4500;13;
3;FRA;Alsace;Bas-Rhin;Lingolsheim 67267;E7.6833;N48.5667;13;
3;FRA;Alsace;Bas-Rhin;Lipsheim 67268;E7.6667;N48.4833;13;
3;FRA;Alsace;Bas-Rhin;Littenheim 67269;E7.4833;N48.7333;13;
3;FRA;Alsace;Bas-Rhin;Lixhausen 67270;E7.5500;N48.8000;13;
3;FRA;Alsace;Bas-Rhin;Lobsann 67271;E7.8500;N48.9667;13;
3;FRA;Alsace;Bas-Rhin;Lochwiller 67272;E7.4149;N48.6980;13;
3;FRA;Alsace;Bas-Rhin;Lohr 67273;E7.2500;N48.8500;13;
3;FRA;Alsace;Bas-Rhin;Lorentzen 67274;E7.1667;N48.9500;13;
3;FRA;Alsace;Bas-Rhin;Lupstein 67275;E7.4833;N48.7333;13;
3;FRA;Alsace;Bas-Rhin;Lutzelhouse 67276;E7.2833;N48.5167;13;
3;FRA;Alsace;Bas-Rhin;Mackenheim 67277;E7.5667;N48.1833;13;
3;FRA;Alsace;Bas-Rhin;Mackwiller 67278;E7.1833;N48.9167;13;
3;FRA;Alsace;Bas-Rhin;Maennolsheim 67279;E7.4667;N48.7000;13;
3;FRA;Alsace;Bas-Rhin;Maisonsgoutte 67280;E7.2667;N48.3500;13;
3;FRA;Alsace;Bas-Rhin;Marckolsheim 67281;E7.5500;N48.1667;13;
3;FRA;Alsace;Bas-Rhin;Marlenheim 67282;E7.5000;N48.6167;13;
3;FRA;Alsace;Bas-Rhin;Marmoutier 67283;E7.3833;N48.6833;13;
3;FRA;Alsace;Bas-Rhin;Mattstall 67284=67263;E7.7667;N48.9833;13;
3;FRA;Alsace;Bas-Rhin;Matzenheim 67285;E7.6167;N48.4000;13;
3;FRA;Alsace;Bas-Rhin;Meistratzheim 67286;E7.5500;N48.4500;13;
3;FRA;Alsace;Bas-Rhin;Melsheim 67287;E7.5167;N48.7500;13;
3;FRA;Alsace;Bas-Rhin;Memmelshoffen 67288;E7.8667;N48.9667;13;
3;FRA;Alsace;Bas-Rhin;Menchhoffen 67289;E7.5000;N48.8667;13;
3;FRA;Alsace;Bas-Rhin;Merkwiller-Pechelbronn 67290;E7.8333;N48.9333;13;
3;FRA;Alsace;Bas-Rhin;Mertzwiller 67291;E7.6833;N48.8667;13;
3;FRA;Alsace;Bas-Rhin;Mietesheim 67292;E7.6500;N48.8833;13;
3;FRA;Alsace;Bas-Rhin;Minversheim 67293;E7.6167;N48.7833;13;
3;FRA;Alsace;Bas-Rhin;Mitschdorf 67294=67160;E7.7833;N48.9500;13;
3;FRA;Alsace;Bas-Rhin;Mittelbergheim 67295;E7.4333;N48.4000;13;
3;FRA;Alsace;Bas-Rhin;Mittelhausbergen 67296;E7.7000;N48.6167;13;
3;FRA;Alsace;Bas-Rhin;Mittelhausen 67297;E7.6333;N48.7000;13;
3;FRA;Alsace;Bas-Rhin;Mittelschaeffolsheim 67298;E7.6500;N48.7000;13;
3;FRA;Alsace;Bas-Rhin;Mollkirch 67299;E7.3833;N48.5000;13;
3;FRA;Alsace;Bas-Rhin;Molsheim 67300;E7.4833;N48.5333;13;
3;FRA;Alsace;Bas-Rhin;Mommenheim 67301;E7.6500;N48.7500;13;
3;FRA;Alsace;Bas-Rhin;Monswiller 67302;E7.3833;N48.7500;13;
3;FRA;Alsace;Bas-Rhin;Morsbronn-les-Bains 67303;E7.7333;N48.9000;13;
3;FRA;Alsace;Bas-Rhin;Morschwiller 67304;E7.6333;N48.8167;13;
3;FRA;Alsace;Bas-Rhin;Mothern 67305;E8.1500;N48.9333;13;
3;FRA;Alsace;Bas-Rhin;Muhlbach-sur-Bruche 67306;E7.3000;N48.5167;13;
3;FRA;Alsace;Bas-Rhin;Mulhausen 67307;E7.5500;N48.8833;13;
3;FRA;Alsace;Bas-Rhin;Munchhausen 67308;E8.1516;N48.9334;13;
3;FRA;Alsace;Bas-Rhin;Mundolsheim 67309;E7.7000;N48.6500;13;
3;FRA;Alsace;Bas-Rhin;Mussig 67310;E7.5167;N48.2333;13;
3;FRA;Alsace;Bas-Rhin;Muttersholtz 67311;E7.5333;N48.2667;13;
3;FRA;Alsace;Bas-Rhin;Mutzenhouse 67312;E7.5833;N48.7333;13;
3;FRA;Alsace;Bas-Rhin;Mutzig 67313;E7.4667;N48.5333;13;
3;FRA;Alsace;Bas-Rhin;Natzwiller 67314;E7.2500;N48.4333;13;
3;FRA;Alsace;Bas-Rhin;Neewiller-près-Lauterbourg 67315;E8.1167;N48.9500;13;
3;FRA;Alsace;Bas-Rhin;Nehwiller-près-Woerth 67316=67388;E7.2667;N48.5167;13;
3;FRA;Alsace;Bas-Rhin;Neubois 67317;E7.3333;N48.3000;13;
3;FRA;Alsace;Bas-Rhin;Neugartheim 67318=67228;E7.5333;N48.6667;13;
3;FRA;Alsace;Bas-Rhin;Neugartheim-Ittlenheim 67228;E7.5333;N48.6500;13;
3;FRA;Alsace;Bas-Rhin;Neuhaeusel 67319;E8.0833;N48.8167;13;
3;FRA;Alsace;Bas-Rhin;Neuve-Église 67320;E7.3167;N48.3333;13;
3;FRA;Alsace;Bas-Rhin;Neuviller-la-Roche 67321;E7.2333;N48.4333;13;
3;FRA;Alsace;Bas-Rhin;Neuwiller-lès-Saverne 67322;E7.4000;N48.8167;13;
3;FRA;Alsace;Bas-Rhin;Niederbetschdorf 67323=67339;E7.9000;N48.8833;13;
3;FRA;Alsace;Bas-Rhin;Niederbronn-les-Bains 67324;E7.6333;N48.9500;13;
3;FRA;Alsace;Bas-Rhin;Niederhaslach 67325;E7.3500;N48.5500;13;
3;FRA;Alsace;Bas-Rhin;Niederhausbergen 67326;E7.7000;N48.6167;13;
3;FRA;Alsace;Bas-Rhin;Niederlauterbach 67327;E8.1000;N48.9667;13;
3;FRA;Alsace;Bas-Rhin;Niedermodern 67328;E7.6167;N48.8500;13;
3;FRA;Alsace;Bas-Rhin;Niedernai 67329;E7.5167;N48.4500;13;
3;FRA;Alsace;Bas-Rhin;Niederroedern 67330;E8.0500;N48.9000;13;
3;FRA;Alsace;Bas-Rhin;Niederschaeffolsheim 67331;E7.7333;N48.7667;13;
3;FRA;Alsace;Bas-Rhin;Niederseebach 67332=67351;E8.0000;N48.9500;13;
3;FRA;Alsace;Bas-Rhin;Niedersoultzbach 67333;E7.4667;N48.8500;13;
3;FRA;Alsace;Bas-Rhin;Niedersteinbach 67334;E7.7167;N49.0333;13;
3;FRA;Alsace;Bas-Rhin;Nordheim 67335;E7.5167;N48.6333;13;
3;FRA;Alsace;Bas-Rhin;Nordhouse 67336;E7.6667;N48.4500;13;
3;FRA;Alsace;Bas-Rhin;Nothalten 67337;E7.4167;N48.3500;13;
3;FRA;Alsace;Bas-Rhin;Obenheim 67338;E7.7000;N48.3667;13;
3;FRA;Alsace;Bas-Rhin;Oberbronn 67340;E7.6000;N48.9333;13;
3;FRA;Alsace;Bas-Rhin;Oberdorf-Spachbach 67341;E7.7500;N48.9167;13;
3;FRA;Alsace;Bas-Rhin;Oberhaslach 67342;E7.3333;N48.5500;13;
3;FRA;Alsace;Bas-Rhin;Oberhausbergen 67343;E7.6833;N48.6167;13;
3;FRA;Alsace;Bas-Rhin;Oberhoffen-lès-Wissembourg 67344;E7.9167;N49.0167;13;
3;FRA;Alsace;Bas-Rhin;Oberhoffen-sur-Moder 67345;E7.8667;N48.7833;13;
3;FRA;Alsace;Bas-Rhin;Oberlauterbach 67346;E8.0667;N48.9500;13;
3;FRA;Alsace;Bas-Rhin;Obermodern-Zutzendorf 67347;E7.5333;N48.8333;13;
3;FRA;Alsace;Bas-Rhin;Obernai 67348;E7.4833;N48.4667;13;
3;FRA;Alsace;Bas-Rhin;Oberroedern 67349;E7.9667;N48.9167;13;
3;FRA;Alsace;Bas-Rhin;Oberschaeffolsheim 67350;E7.6333;N48.5833;13;
3;FRA;Alsace;Bas-Rhin;Obersoultzbach 67352;E7.4500;N48.8500;13;
3;FRA;Alsace;Bas-Rhin;Obersteinbach 67353;E7.6833;N49.0333;13;
3;FRA;Alsace;Bas-Rhin;Odratzheim 67354;E7.4833;N48.6000;13;
3;FRA;Alsace;Bas-Rhin;Oermingen 67355;E7.1167;N49.0000;13;
3;FRA;Alsace;Bas-Rhin;Offendorf 67356;E7.9167;N48.7167;13;
3;FRA;Alsace;Bas-Rhin;Offenheim 67357=67485;E7.6167;N48.6333;13;
3;FRA;Alsace;Bas-Rhin;Offwiller 67358;E7.5500;N48.9167;13;
3;FRA;Alsace;Bas-Rhin;Ohlungen 67359;E7.7000;N48.8167;13;
3;FRA;Alsace;Bas-Rhin;Ohnenheim 67360;E7.5000;N48.1833;13;
3;FRA;Alsace;Bas-Rhin;Olwisheim 67361;E7.6667;N48.7000;13;
3;FRA;Alsace;Bas-Rhin;Orschwiller 67362;E7.3833;N48.2333;13;
3;FRA;Alsace;Bas-Rhin;Osthoffen 67363;E7.5500;N48.5833;13;
3;FRA;Alsace;Bas-Rhin;Osthouse 67364;E7.6333;N48.4000;13;
3;FRA;Alsace;Bas-Rhin;Ostwald 67365;E7.7167;N48.5500;13;
3;FRA;Alsace;Bas-Rhin;Ottersthal 67366;E7.3500;N48.7500;13;
3;FRA;Alsace;Bas-Rhin;Otterswiller 67367;E7.3833;N48.7167;13;
3;FRA;Alsace;Bas-Rhin;Ottrott 67368;E7.4167;N48.4500;13;
3;FRA;Alsace;Bas-Rhin;Ottwiller 67369;E7.2333;N48.8667;13;
3;FRA;Alsace;Bas-Rhin;Petersbach 67370;E7.2667;N48.8667;13;
3;FRA;Alsace;Bas-Rhin;Pfaffenhoffen 67372;E7.6167;N48.8500;13;
3;FRA;Alsace;Bas-Rhin;Pfalzweyer 67373;E7.2500;N48.8000;13;
3;FRA;Alsace;Bas-Rhin;Pfettisheim 67374;E7.6333;N48.6667;13;
3;FRA;Alsace;Bas-Rhin;Pfulgriesheim 67375;E7.6667;N48.6500;13;
3;FRA;Alsace;Bas-Rhin;Plaine 67377;E7.1500;N48.4167;13;
3;FRA;Alsace;Bas-Rhin;Plobsheim 67378;E7.7167;N48.4667;13;
3;FRA;Alsace;Bas-Rhin;Preuschdorf 67379;E7.8000;N48.9500;13;
3;FRA;Alsace;Bas-Rhin;Printzheim 67380;E7.4833;N48.7833;13;
3;FRA;Alsace;Bas-Rhin;Puberg 67381;E7.3167;N48.9167;13;
3;FRA;Alsace;Bas-Rhin;Quatzenheim 67382;E7.5667;N48.6333;13;
3;FRA;Alsace;Bas-Rhin;Rangen 67383;E7.4833;N48.6667;13;
3;FRA;Alsace;Bas-Rhin;Ranrupt 67384;E7.1833;N48.3667;13;
3;FRA;Alsace;Bas-Rhin;Ratzwiller 67385;E7.2333;N48.9500;13;
3;FRA;Alsace;Bas-Rhin;Rauwiller 67386;E7.1000;N48.8167;13;
3;FRA;Alsace;Bas-Rhin;Reichsfeld 67387;E7.3833;N48.3667;13;
3;FRA;Alsace;Bas-Rhin;Reichshoffen 67388;E7.6667;N48.9333;13;
3;FRA;Alsace;Bas-Rhin;Reichstett 67389;E7.7500;N48.6500;13;
3;FRA;Alsace;Bas-Rhin;Reimerswiller 67390=67339;E7.8833;N48.9167;13;
3;FRA;Alsace;Bas-Rhin;Reinhardsmunster 67391;E7.3167;N48.6833;13;
3;FRA;Alsace;Bas-Rhin;Reipertswiller 67392;E7.4667;N48.9333;13;
3;FRA;Alsace;Bas-Rhin;Reitwiller 67393=67034;E7.6167;N48.6833;13;
3;FRA;Alsace;Bas-Rhin;Retschwiller 67394;E7.8667;N48.9500;13;
3;FRA;Alsace;Bas-Rhin;Reutenbourg 67395;E7.4000;N48.6833;13;
3;FRA;Alsace;Bas-Rhin;Rexingen 67396;E7.1833;N48.9000;13;
3;FRA;Alsace;Bas-Rhin;Rhinau 67397;E7.7000;N48.3167;13;
3;FRA;Alsace;Bas-Rhin;Richtolsheim 67398;E7.6000;N48.2167;13;
3;FRA;Alsace;Bas-Rhin;Riedheim 67399=67061;E7.4833;N48.8167;13;
3;FRA;Alsace;Bas-Rhin;Riedseltz 67400;E7.9500;N49.0000;13;
3;FRA;Alsace;Bas-Rhin;Rimsdorf 67401;E7.1333;N48.9333;13;
3;FRA;Alsace;Bas-Rhin;Ringeldorf 67402;E7.6167;N48.8333;13;
3;FRA;Alsace;Bas-Rhin;Ringendorf 67403;E7.5500;N48.8167;13;
3;FRA;Alsace;Bas-Rhin;Rittershoffen 67404;E7.9500;N48.9000;13;
3;FRA;Alsace;Bas-Rhin;Roeschwoog 67405;E8.0333;N48.8333;13;
3;FRA;Alsace;Bas-Rhin;Rohr 67406;E7.5500;N48.7000;13;
3;FRA;Alsace;Bas-Rhin;Rohrwiller 67407;E7.9000;N48.7500;13;
3;FRA;Alsace;Bas-Rhin;Romanswiller 67408;E7.4167;N48.6500;13;
3;FRA;Alsace;Bas-Rhin;Roppenheim 67409;E8.0500;N48.8333;13;
3;FRA;Alsace;Bas-Rhin;Rosenwiller 67410;E7.4500;N48.5000;13;
3;FRA;Alsace;Bas-Rhin;Rosheim 67411;E7.4667;N48.5000;13;
3;FRA;Alsace;Bas-Rhin;Rossfeld 67412;E7.6167;N48.3333;13;
3;FRA;Alsace;Bas-Rhin;Rosteig 67413;E7.3500;N48.9333;13;
3;FRA;Alsace;Bas-Rhin;Rothau 67414;E7.2167;N48.4500;13;
3;FRA;Alsace;Bas-Rhin;Rothbach 67415;E7.5333;N48.9000;13;
3;FRA;Alsace;Bas-Rhin;Rott 67416;E7.9000;N49.0167;13;
3;FRA;Alsace;Bas-Rhin;Rottelsheim 67417;E7.7167;N48.7500;13;
3;FRA;Alsace;Bas-Rhin;Rountzenheim 67418;E8.0000;N48.8167;13;
3;FRA;Alsace;Bas-Rhin;Rumersheim 67419=67034;E7.6333;N48.6833;13;
3;FRA;Alsace;Bas-Rhin;Russ 67420;E7.2500;N48.5000;13;
3;FRA;Alsace;Bas-Rhin;Saales 67421;E7.1167;N48.3500;13;
3;FRA;Alsace;Bas-Rhin;Saasenheim 67422;E7.6167;N48.2333;13;
3;FRA;Alsace;Bas-Rhin;Saessolsheim 67423;E7.5167;N48.7000;13;
3;FRA;Alsace;Bas-Rhin;Saint-Blaise-la-Roche 67424;E7.1667;N48.4000;13;
3;FRA;Alsace;Bas-Rhin;Saint-Jean-Saverne 67425;E7.3667;N48.7667;13;
3;FRA;Alsace;Bas-Rhin;Saint-Martin 67426;E7.3000;N48.3500;13;
3;FRA;Alsace;Bas-Rhin;Saint-Maurice 67427;E7.3333;N48.3333;13;
3;FRA;Alsace;Bas-Rhin;Saint-Nabor 67428;E7.4167;N48.4500;13;
3;FRA;Alsace;Bas-Rhin;Saint-Pierre 67429;E7.4667;N48.3833;13;
3;FRA;Alsace;Bas-Rhin;Saint-Pierre-Bois 67430;E7.3667;N48.3333;13;
3;FRA;Alsace;Bas-Rhin;Salenthal 67431;E7.3667;N48.6667;13;
3;FRA;Alsace;Bas-Rhin;Salmbach 67432;E8.0667;N48.9833;13;
3;FRA;Alsace;Bas-Rhin;Sand 67433;E7.6167;N48.3833;13;
3;FRA;Alsace;Bas-Rhin;Sarre-Union 67434;E7.0833;N48.9333;13;
3;FRA;Alsace;Bas-Rhin;Sarrewerden 67435;E7.0833;N48.9167;13;
3;FRA;Alsace;Bas-Rhin;Saulxures 67436;E7.1333;N48.3833;13;
3;FRA;Alsace;Bas-Rhin;Saverne 67437;E7.3667;N48.7333;13;
3;FRA;Alsace;Bas-Rhin;Schaeffersheim 67438;E7.6167;N48.4333;13;
3;FRA;Alsace;Bas-Rhin;Schaffhouse-près-Seltz 67440;E8.1000;N48.9000;13;
3;FRA;Alsace;Bas-Rhin;Schaffhouse-sur-Zorn 67439;E7.5667;N48.7333;13;
3;FRA;Alsace;Bas-Rhin;Schalkendorf 67441;E7.5667;N48.8333;13;
3;FRA;Alsace;Bas-Rhin;Scharrachbergheim-Irmstett 67442;E7.4833;N48.5333;13;
3;FRA;Alsace;Bas-Rhin;Scheibenhard 67443;E8.1333;N48.9833;13;
3;FRA;Alsace;Bas-Rhin;Scherlenheim 67444;E7.5333;N48.7667;13;
3;FRA;Alsace;Bas-Rhin;Scherwiller 67445;E7.4167;N48.2833;13;
3;FRA;Alsace;Bas-Rhin;Schillersdorf 67446;E7.5167;N48.8667;13;
3;FRA;Alsace;Bas-Rhin;Schiltigheim 67447;E7.7500;N48.6000;13;
3;FRA;Alsace;Bas-Rhin;Schirmeck 67448;E7.2167;N48.4833;13;
3;FRA;Alsace;Bas-Rhin;Schirrhein 67449;E7.9000;N48.8000;13;
3;FRA;Alsace;Bas-Rhin;Schirrhoffen 67450;E7.9167;N48.8000;13;
3;FRA;Alsace;Bas-Rhin;Schleithal 67451;E8.0333;N48.9833;13;
3;FRA;Alsace;Bas-Rhin;Schnersheim 67452;E7.5833;N48.6667;13;
3;FRA;Alsace;Bas-Rhin;Schoenau 67453;E7.6500;N48.2333;13;
3;FRA;Alsace;Bas-Rhin;Schoenbourg 67454;E7.2667;N48.8333;13;
3;FRA;Alsace;Bas-Rhin;Schoenenbourg 67455;E7.9167;N48.9500;13;
3;FRA;Alsace;Bas-Rhin;Schopperten 67456;E7.0500;N48.9500;13;
3;FRA;Alsace;Bas-Rhin;Schwabwiller 67457=67339;E7.8667;N48.9000;13;
3;FRA;Alsace;Bas-Rhin;Schweighouse-sur-Moder 67458;E7.7167;N48.8167;13;
3;FRA;Alsace;Bas-Rhin;Schwenheim 67459;E7.4000;N48.7000;13;
3;FRA;Alsace;Bas-Rhin;Schwindratzheim 67460;E7.6000;N48.7500;13;
3;FRA;Alsace;Bas-Rhin;Schwobsheim 67461;E7.5667;N48.2333;13;
3;FRA;Alsace;Bas-Rhin;Seebach 67351;E7.9833;N48.9667;13;
3;FRA;Alsace;Bas-Rhin;Sélestat 67462;E7.4500;N48.2667;13;
3;FRA;Alsace;Bas-Rhin;Seltz 67463;E8.1000;N48.8833;13;
3;FRA;Alsace;Bas-Rhin;Sermersheim 67464;E7.5500;N48.3333;13;
3;FRA;Alsace;Bas-Rhin;Sessenheim 67465;E7.9833;N48.8000;13;
3;FRA;Alsace;Bas-Rhin;Siegen 67466;E8.0500;N48.9500;13;
3;FRA;Alsace;Bas-Rhin;Siewiller 67467;E7.2000;N48.8500;13;
3;FRA;Alsace;Bas-Rhin;Siltzheim 67468;E7.0833;N49.0667;13;
3;FRA;Alsace;Bas-Rhin;Singrist 67469;E7.3833;N48.6667;13;
3;FRA;Alsace;Bas-Rhin;Solbach 67470;E7.2000;N48.4333;13;
3;FRA;Alsace;Bas-Rhin;Souffelweyersheim 67471;E7.7333;N48.6333;13;
3;FRA;Alsace;Bas-Rhin;Soufflenheim 67472;E7.9667;N48.8333;13;
3;FRA;Alsace;Bas-Rhin;Soultz-les-Bains 67473;E7.4833;N48.5667;13;
3;FRA;Alsace;Bas-Rhin;Soultz-sous-Forêts 67474;E7.8833;N48.9333;13;
3;FRA;Alsace;Bas-Rhin;Sparsbach 67475;E7.4167;N48.8833;13;
3;FRA;Alsace;Bas-Rhin;Stattmatten 67476;E8.0000;N48.8000;13;
3;FRA;Alsace;Bas-Rhin;Steige 67477;E7.2333;N48.3667;13;
3;FRA;Alsace;Bas-Rhin;Steinbourg 67478;E7.4167;N48.7667;13;
3;FRA;Alsace;Bas-Rhin;Steinseltz 67479;E7.9333;N49.0167;13;
3;FRA;Alsace;Bas-Rhin;Still 67480;E7.4000;N48.5500;13;
3;FRA;Alsace;Bas-Rhin;Stotzheim 67481;E7.4833;N48.3833;13;
3;FRA;Alsace;Bas-Rhin;Strasbourg 67482;E7.7500;N48.5833;13;
3;FRA;Alsace;Bas-Rhin;Struth 67483;E7.2500;N48.8833;13;
3;FRA;Alsace;Bas-Rhin;Stundwiller 67484;E7.9833;N48.9167;13;
3;FRA;Alsace;Bas-Rhin;Stutzheim-Offenheim 67485;E7.6167;N48.6167;13;
3;FRA;Alsace;Bas-Rhin;Sundhouse 67486;E7.6000;N48.2500;13;
3;FRA;Alsace;Bas-Rhin;Surbourg 67487;E7.8500;N48.9167;13;
3;FRA;Alsace;Bas-Rhin;Thal-Drulingen 67488;E7.1333;N48.9000;13;
3;FRA;Alsace;Bas-Rhin;Thal-Marmoutier 67489;E7.3500;N48.7000;13;
3;FRA;Alsace;Bas-Rhin;Thanvillé 67490;E7.3500;N48.3167;13;
3;FRA;Alsace;Bas-Rhin;Tieffenbach 67491;E7.2500;N48.9000;13;
3;FRA;Alsace;Bas-Rhin;Traenheim 67492;E7.4667;N48.6000;13;
3;FRA;Alsace;Bas-Rhin;Triembach-au-Val 67493;E7.3333;N48.3333;13;
3;FRA;Alsace;Bas-Rhin;Trimbach 67494;E8.0167;N48.9333;13;
3;FRA;Alsace;Bas-Rhin;Truchtersheim 67495;E7.6000;N48.6667;13;
3;FRA;Alsace;Bas-Rhin;Uberach 67496;E7.6333;N48.8500;13;
3;FRA;Alsace;Bas-Rhin;Uhlwiller 67497;E7.6667;N48.8167;13;
3;FRA;Alsace;Bas-Rhin;Uhrwiller 67498;E7.5833;N48.8833;13;
3;FRA;Alsace;Bas-Rhin;Urbeis 67499;E7.2333;N48.3333;13;
3;FRA;Alsace;Bas-Rhin;Urmatt 67500;E7.3333;N48.5167;13;
3;FRA;Alsace;Bas-Rhin;Uttenheim 67501;E7.6000;N48.4000;13;
3;FRA;Alsace;Bas-Rhin;Uttenhoffen 67502;E7.6500;N48.8833;13;
3;FRA;Alsace;Bas-Rhin;Uttwiller 67503;E7.4833;N48.8500;13;
3;FRA;Alsace;Bas-Rhin;Valff 67504;E7.5167;N48.4167;13;
3;FRA;Alsace;Bas-Rhin;Vendenheim 67506;E7.7167;N48.6667;13;
3;FRA;Alsace;Bas-Rhin;Villé 67507;E7.3000;N48.3333;13;
3;FRA;Alsace;Bas-Rhin;Voellerdingen 67508;E7.1333;N48.9667;13;
3;FRA;Alsace;Bas-Rhin;Volksberg 67509;E7.3000;N48.9500;13;
3;FRA;Alsace;Bas-Rhin;Wahlenheim 67510;E7.6833;N48.7667;13;
3;FRA;Alsace;Bas-Rhin;Walbourg 67511;E7.7833;N48.8833;13;
3;FRA;Alsace;Bas-Rhin;Waldersbach 67513;E7.2167;N48.4167;13;
3;FRA;Alsace;Bas-Rhin;Waldhambach 67514;E7.2167;N48.9167;13;
3;FRA;Alsace;Bas-Rhin;Waldolwisheim 67515;E7.4333;N48.7333;13;
3;FRA;Alsace;Bas-Rhin;Waltenheim-sur-Zorn 67516;E7.6333;N48.7500;13;
3;FRA;Alsace;Bas-Rhin;Wangen 67517;E7.4667;N48.6167;13;
3;FRA;Alsace;Bas-Rhin;Wangenbourg 67518=67122;E7.3167;N48.6167;13;
3;FRA;Alsace;Bas-Rhin;Wangenbourg-Engenthal 67122;E7.3000;N48.6167;13;
3;FRA;Alsace;Bas-Rhin;Wasselonne 67520;E7.4500;N48.6333;13;
3;FRA;Alsace;Bas-Rhin;Weinbourg 67521;E7.4500;N48.8667;13;
3;FRA;Alsace;Bas-Rhin;Weislingen 67522;E7.2500;N48.9167;13;
3;FRA;Alsace;Bas-Rhin;Weitbruch 67523;E7.7833;N48.7500;13;
3;FRA;Alsace;Bas-Rhin;Weiterswiller 67524;E7.4167;N48.8500;13;
3;FRA;Alsace;Bas-Rhin;Westhoffen 67525;E7.4333;N48.6000;13;
3;FRA;Alsace;Bas-Rhin;Westhouse 67526;E7.5833;N48.3833;13;
3;FRA;Alsace;Bas-Rhin;Westhouse-Marmoutier 67527;E7.4500;N48.6833;13;
3;FRA;Alsace;Bas-Rhin;Weyer 67528;E7.1667;N48.8500;13;
3;FRA;Alsace;Bas-Rhin;Weyersheim 67529;E7.8000;N48.7167;13;
3;FRA;Alsace;Bas-Rhin;Wickersheim-Wilshausen 67530;E7.5167;N48.7833;13;
3;FRA;Alsace;Bas-Rhin;Wildersbach 67531;E7.2333;N48.4333;13;
3;FRA;Alsace;Bas-Rhin;Willgottheim 67532;E7.5167;N48.6667;13;
3;FRA;Alsace;Bas-Rhin;Wilshausen 67533=67530;E7.5500;N48.7833;13;
3;FRA;Alsace;Bas-Rhin;Wilwisheim 67534;E7.5167;N48.7500;13;
3;FRA;Alsace;Bas-Rhin;Wimmenau 67535;E7.4167;N48.9167;13;
3;FRA;Alsace;Bas-Rhin;Windstein 67536;E7.6833;N49.0000;13;
3;FRA;Alsace;Bas-Rhin;Wingen 67537;E7.8167;N49.0333;13;
3;FRA;Alsace;Bas-Rhin;Wingen-sur-Moder 67538;E7.3667;N48.9167;13;
3;FRA;Alsace;Bas-Rhin;Wingersheim 67539;E7.6333;N48.7167;13;
3;FRA;Alsace;Bas-Rhin;Wintershouse 67540;E7.7000;N48.8000;13;
3;FRA;Alsace;Bas-Rhin;Wintzenbach 67541;E8.1000;N48.9333;13;
3;FRA;Alsace;Bas-Rhin;Wintzenheim-Kochersberg 67542;E7.5167;N48.6500;13;
3;FRA;Alsace;Bas-Rhin;Wisches 67543;E7.2667;N48.5000;13;
3;FRA;Alsace;Bas-Rhin;Wissembourg 67544;E7.9500;N49.0333;13;
3;FRA;Alsace;Bas-Rhin;Witternheim 67545;E7.6000;N48.3167;13;
3;FRA;Alsace;Bas-Rhin;Wittersheim 67546;E7.6500;N48.7833;13;
3;FRA;Alsace;Bas-Rhin;Wittisheim 67547;E7.5833;N48.2667;13;
3;FRA;Alsace;Bas-Rhin;Wiwersheim 67548;E7.6000;N48.6333;13;
3;FRA;Alsace;Bas-Rhin;Woellenheim 67549=67532;E7.5000;N48.6833;13;
3;FRA;Alsace;Bas-Rhin;Woerth 67550;E7.7500;N48.9333;13;
3;FRA;Alsace;Bas-Rhin;Wolfisheim 67551;E7.6667;N48.5833;13;
3;FRA;Alsace;Bas-Rhin;Wolfskirchen 67552;E7.0667;N48.8667;13;
3;FRA;Alsace;Bas-Rhin;Wolschheim 67553;E7.4500;N48.7000;13;
3;FRA;Alsace;Bas-Rhin;Wolxheim 67554;E7.5000;N48.5667;13;
3;FRA;Alsace;Bas-Rhin;Zehnacker 67555;E7.4500;N48.6667;13;
3;FRA;Alsace;Bas-Rhin;Zeinheim 67556;E7.4833;N48.6667;13;
3;FRA;Alsace;Bas-Rhin;Zellwiller 67557;E7.5000;N48.4000;13;
3;FRA;Alsace;Bas-Rhin;Zinswiller 67558;E7.5833;N48.9167;13;
3;FRA;Alsace;Bas-Rhin;Zittersheim 67559;E7.3500;N48.9000;13;
3;FRA;Alsace;Bas-Rhin;Zoebersdorf 67560;E7.52;N48.79;13;
3;FRA;Alsace;Bas-Rhin;Zollingen 67561=67435;E7.0667;N48.9167;13;
3;FRA;Alsace;Bas-Rhin;Zutzendorf 67562=67347;E7.5500;N48.8500;13;
2;FRA;Alsace;Haut-Rhin;;E7.3004;N47.6894;9;
3;FRA;Alsace;Haut-Rhin;Algolsheim 68001;E7.5667;N48.0000;13;
3;FRA;Alsace;Haut-Rhin;Altenach 68002;E7.1167;N47.6167;13;
3;FRA;Alsace;Haut-Rhin;Altenbach 68003=68106;E7.0833;N47.8833;13;
3;FRA;Alsace;Haut-Rhin;Altkirch 68004;E7.2500;N47.6167;13;
3;FRA;Alsace;Haut-Rhin;Ammerschwihr 68005;E7.2833;N48.1167;13;
3;FRA;Alsace;Haut-Rhin;Ammerzwiller 68006;E7.1667;N47.6833;13;
3;FRA;Alsace;Haut-Rhin;Andolsheim 68007;E7.4167;N48.0667;13;
3;FRA;Alsace;Haut-Rhin;Appenwihr 68008;E7.4333;N48.0167;13;
3;FRA;Alsace;Haut-Rhin;Artzenheim 68009;E7.5333;N48.1167;13;
3;FRA;Alsace;Haut-Rhin;Aspach 68010;E7.2333;N47.6500;13;
3;FRA;Alsace;Haut-Rhin;Aspach-le-Bas 68011;E7.1500;N47.7667;13;
3;FRA;Alsace;Haut-Rhin;Aspach-le-Haut 68012;E7.1333;N47.7833;13;
3;FRA;Alsace;Haut-Rhin;Attenschwiller 68013;E7.4667;N47.5667;13;
3;FRA;Alsace;Haut-Rhin;Aubure 68014;E7.2167;N48.2000;13;
3;FRA;Alsace;Haut-Rhin;Baldersheim 68015;E7.3667;N47.8000;13;
3;FRA;Alsace;Haut-Rhin;Balgau 68016;E7.5333;N47.9167;13;
3;FRA;Alsace;Haut-Rhin;Ballersdorf 68017;E7.1667;N47.6333;13;
3;FRA;Alsace;Haut-Rhin;Balschwiller 68018;E7.1667;N47.6667;13;
3;FRA;Alsace;Haut-Rhin;Baltzenheim 68019;E7.5500;N48.0833;13;
3;FRA;Alsace;Haut-Rhin;Bantzenheim 68020;E7.5000;N47.8333;13;
3;FRA;Alsace;Haut-Rhin;Bartenheim 68021;E7.4667;N47.6333;13;
3;FRA;Alsace;Haut-Rhin;Battenheim 68022;E7.3833;N47.8333;13;
3;FRA;Alsace;Haut-Rhin;Beblenheim 68023;E7.3333;N48.1500;13;
3;FRA;Alsace;Haut-Rhin;Bellemagny 68024;E7.0667;N47.7000;13;
3;FRA;Alsace;Haut-Rhin;Bendorf 68025;E7.2833;N47.4833;13;
3;FRA;Alsace;Haut-Rhin;Bennwihr 68026;E7.3167;N48.1500;13;
3;FRA;Alsace;Haut-Rhin;Berentzwiller 68027;E7.3833;N47.5833;13;
3;FRA;Alsace;Haut-Rhin;Bergheim 68028;E7.3667;N48.2000;13;
3;FRA;Alsace;Haut-Rhin;Bergholtz 68029;E7.2500;N47.9167;13;
3;FRA;Alsace;Haut-Rhin;Bergholtzzell 68030;E7.2333;N47.9333;13;
3;FRA;Alsace;Haut-Rhin;Bernwiller 68031;E7.1833;N47.7000;13;
3;FRA;Alsace;Haut-Rhin;Berrwiller 68032;E7.2167;N47.8500;13;
3;FRA;Alsace;Haut-Rhin;Bettendorf 68033;E7.2833;N47.5833;13;
3;FRA;Alsace;Haut-Rhin;Bettlach 68034;E7.4167;N47.5000;13;
3;FRA;Alsace;Haut-Rhin;Biederthal 68035;E7.4500;N47.4667;13;
3;FRA;Alsace;Haut-Rhin;Biesheim 68036;E7.5500;N48.0333;13;
3;FRA;Alsace;Haut-Rhin;Biltzheim 68037;E7.3833;N47.9500;13;
3;FRA;Alsace;Haut-Rhin;Bischwihr 68038;E7.4333;N48.0833;13;
3;FRA;Alsace;Haut-Rhin;Bisel 68039;E7.2167;N47.5333;13;
3;FRA;Alsace;Haut-Rhin;Bitschwiller-lès-Thann 68040;E7.0833;N47.8333;13;
3;FRA;Alsace;Haut-Rhin;Blodelsheim 68041;E7.5333;N47.9000;13;
3;FRA;Alsace;Haut-Rhin;Blotzheim 68042;E7.4833;N47.6000;13;
3;FRA;Alsace;Haut-Rhin;Bollwiller 68043;E7.2500;N47.8667;13;
3;FRA;Alsace;Haut-Rhin;Bourbach-le-Bas 68045;E7.0667;N47.7833;13;
3;FRA;Alsace;Haut-Rhin;Bourbach-le-Haut 68046;E7.0333;N47.8000;13;
3;FRA;Alsace;Haut-Rhin;Bourgfelden 68047=68297;E7.5500;N47.5833;13;
3;FRA;Alsace;Haut-Rhin;Bourtzwiller 68048=68224;;;13;
3;FRA;Alsace;Haut-Rhin;Bouxwiller 68049;E7.3417;N47.5083;13;
3;FRA;Alsace;Haut-Rhin;Bréchaumont 68050;E7.0667;N47.6667;13;
3;FRA;Alsace;Haut-Rhin;Breitenbach-Haut-Rhin 68051;E7.1000;N48.0167;13;
3;FRA;Alsace;Haut-Rhin;Bretten 68052;E7.0667;N47.7000;13;
3;FRA;Alsace;Haut-Rhin;Brinckheim 68054;E7.4500;N47.6333;13;
3;FRA;Alsace;Haut-Rhin;Brinighoffen 68053=68081;E7.2167;N47.6667;13;
3;FRA;Alsace;Haut-Rhin;Bruebach 68055;E7.3667;N47.7000;13;
3;FRA;Alsace;Haut-Rhin;Brunstatt 68056;E7.3167;N47.7167;13;
3;FRA;Alsace;Haut-Rhin;Buethwiller 68057;E7.1500;N47.6500;13;
3;FRA;Alsace;Haut-Rhin;Buhl 68058;E7.1833;N47.9333;13;
3;FRA;Alsace;Haut-Rhin;Burnhaupt-le-Bas 68059;E7.1667;N47.7167;13;
3;FRA;Alsace;Haut-Rhin;Burnhaupt-le-Haut 68060;E7.1500;N47.7333;13;
3;FRA;Alsace;Haut-Rhin;Buschwiller 68061;E7.5167;N47.5667;13;
3;FRA;Alsace;Haut-Rhin;Carspach 68062;E7.2167;N47.6167;13;
3;FRA;Alsace;Haut-Rhin;Cernay 68063;E7.1667;N47.8167;13;
3;FRA;Alsace;Haut-Rhin;Chalampé 68064;E7.5500;N47.8167;13;
3;FRA;Alsace;Haut-Rhin;Chavannes-sur-l'Étang 68065;E7.0333;N47.6333;13;
3;FRA;Alsace;Haut-Rhin;Colmar 68066;E7.3667;N48.0833;13;
3;FRA;Alsace;Haut-Rhin;Courtavon 68067;E7.2000;N47.4500;13;
3;FRA;Alsace;Haut-Rhin;Dannemarie 68068;E7.1333;N47.6333;13;
3;FRA;Alsace;Haut-Rhin;Dessenheim 68069;E7.4833;N47.9667;13;
3;FRA;Alsace;Haut-Rhin;Didenheim 68070;E7.3000;N47.7167;13;
3;FRA;Alsace;Haut-Rhin;Diefmatten 68071;E7.1167;N47.7000;13;
3;FRA;Alsace;Haut-Rhin;Dietwiller 68072;E7.4167;N47.7000;13;
3;FRA;Alsace;Haut-Rhin;Dolleren 68073;E6.9333;N47.8000;13;
3;FRA;Alsace;Haut-Rhin;Durlinsdorf 68074;E7.2500;N47.4833;13;
3;FRA;Alsace;Haut-Rhin;Durmenach 68075;E7.3333;N47.5333;13;
3;FRA;Alsace;Haut-Rhin;Durrenentzen 68076;E7.5000;N48.0833;13;
3;FRA;Alsace;Haut-Rhin;Eglingen 68077;E7.1833;N47.6667;13;
3;FRA;Alsace;Haut-Rhin;Eguisheim 68078;E7.3000;N48.0500;13;
3;FRA;Alsace;Haut-Rhin;Elbach 68079;E7.0833;N47.6500;13;
3;FRA;Alsace;Haut-Rhin;Emlingen 68080;E7.3000;N47.6333;13;
3;FRA;Alsace;Haut-Rhin;Ensisheim 68082;E7.3500;N47.8667;13;
3;FRA;Alsace;Haut-Rhin;Eschbach-au-Val 68083;E7.1500;N48.0167;13;
3;FRA;Alsace;Haut-Rhin;Eschentzwiller 68084;E7.4000;N47.7167;13;
3;FRA;Alsace;Haut-Rhin;Eteimbes 68085;E7.0500;N47.7000;13;
3;FRA;Alsace;Haut-Rhin;Falkwiller 68086;E7.1333;N47.6833;13;
3;FRA;Alsace;Haut-Rhin;Feldbach 68087;E7.2667;N47.5333;13;
3;FRA;Alsace;Haut-Rhin;Feldkirch 68088;E7.2833;N47.8667;13;
3;FRA;Alsace;Haut-Rhin;Fellering 68089;E6.9833;N47.9000;13;
3;FRA;Alsace;Haut-Rhin;Ferrette 68090;E7.3167;N47.5000;13;
3;FRA;Alsace;Haut-Rhin;Fessenheim 68091;E7.5333;N47.9167;13;
3;FRA;Alsace;Haut-Rhin;Fislis 68092;E7.3667;N47.5000;13;
3;FRA;Alsace;Haut-Rhin;Flaxlanden 68093;E7.3167;N47.7000;13;
3;FRA;Alsace;Haut-Rhin;Folgensbourg 68094;E7.4500;N47.5500;13;
3;FRA;Alsace;Haut-Rhin;Fortschwihr 68095;E7.4500;N48.0833;13;
3;FRA;Alsace;Haut-Rhin;Franken 68096;E7.3500;N47.6000;13;
3;FRA;Alsace;Haut-Rhin;Fréland 68097;E7.2000;N48.1667;13;
3;FRA;Alsace;Haut-Rhin;Friesen 68098;E7.1500;N47.5667;13;
3;FRA;Alsace;Haut-Rhin;Froeningen 68099;E7.2667;N47.6833;13;
3;FRA;Alsace;Haut-Rhin;Fulleren 68100;E7.1500;N47.6000;13;
3;FRA;Alsace;Haut-Rhin;Galfingue 68101;E7.2167;N47.7000;13;
3;FRA;Alsace;Haut-Rhin;Geishouse 68102;E7.0667;N47.8833;13;
3;FRA;Alsace;Haut-Rhin;Geispitzen 68103;E7.4167;N47.6667;13;
3;FRA;Alsace;Haut-Rhin;Geiswasser 68104;E7.6000;N47.9667;13;
3;FRA;Alsace;Haut-Rhin;Gildwiller 68105;E7.1333;N47.6833;13;
3;FRA;Alsace;Haut-Rhin;Goldbach-Altenbach 68106;E7.1000;N47.8667;13;
3;FRA;Alsace;Haut-Rhin;Gommersdorf 68107;E7.1333;N47.6333;13;
3;FRA;Alsace;Haut-Rhin;Grentzingen 68108;E7.3000;N47.5667;13;
3;FRA;Alsace;Haut-Rhin;Griesbach-au-Val 68109;E7.1833;N48.0333;13;
3;FRA;Alsace;Haut-Rhin;Grussenheim 68110;E7.4833;N48.1333;13;
3;FRA;Alsace;Haut-Rhin;Gueberschwihr 68111;E7.2833;N48.0000;13;
3;FRA;Alsace;Haut-Rhin;Guebwiller 68112;E7.2000;N47.9167;13;
3;FRA;Alsace;Haut-Rhin;Guémar 68113;E7.4000;N48.1833;13;
3;FRA;Alsace;Haut-Rhin;Guevenatten 68114;E7.0833;N47.6833;13;
3;FRA;Alsace;Haut-Rhin;Guewenheim 68115;E7.0833;N47.7500;13;
3;FRA;Alsace;Haut-Rhin;Gundolsheim 68116;E7.3000;N47.9167;13;
3;FRA;Alsace;Haut-Rhin;Gunsbach 68117;E7.1833;N48.0500;13;
3;FRA;Alsace;Haut-Rhin;Habsheim 68118;E7.4167;N47.7333;13;
3;FRA;Alsace;Haut-Rhin;Hagenbach 68119;E7.1667;N47.6500;13;
3;FRA;Alsace;Haut-Rhin;Hagenthal-le-Bas 68120;E7.4667;N47.5167;13;
3;FRA;Alsace;Haut-Rhin;Hagenthal-le-Haut 68121;E7.4667;N47.5167;13;
3;FRA;Alsace;Haut-Rhin;Hartmannswiller 68122;E7.2167;N47.8667;13;
3;FRA;Alsace;Haut-Rhin;Hattstatt 68123;E7.3000;N48.0167;13;
3;FRA;Alsace;Haut-Rhin;Hausgauen 68124;E7.3333;N47.6000;13;
3;FRA;Alsace;Haut-Rhin;Hecken 68125;E7.1333;N47.6833;13;
3;FRA;Alsace;Haut-Rhin;Hégenheim 68126;E7.5333;N47.5667;13;
3;FRA;Alsace;Haut-Rhin;Heidwiller 68127;E7.2500;N47.6667;13;
3;FRA;Alsace;Haut-Rhin;Heimersdorf 68128;E7.2500;N47.5667;13;
3;FRA;Alsace;Haut-Rhin;Heimsbrunn 68129;E7.2333;N47.7333;13;
3;FRA;Alsace;Haut-Rhin;Heiteren 68130;E7.5333;N47.9667;13;
3;FRA;Alsace;Haut-Rhin;Heiwiller 68131;E7.3167;N47.6167;13;
3;FRA;Alsace;Haut-Rhin;Helfrantzkirch 68132;E7.4167;N47.6000;13;
3;FRA;Alsace;Haut-Rhin;Henflingen 68133;E7.3000;N47.5667;13;
3;FRA;Alsace;Haut-Rhin;Herrlisheim-près-Colmar 68134;E7.3167;N48.0167;13;
3;FRA;Alsace;Haut-Rhin;Hésingue 68135;E7.5167;N47.5833;13;
3;FRA;Alsace;Haut-Rhin;Hettenschlag 68136;E7.4500;N48.0000;13;
3;FRA;Alsace;Haut-Rhin;Hindlingen 68137;E7.1333;N47.5667;13;
3;FRA;Alsace;Haut-Rhin;Hirsingue 68138;E7.2500;N47.5833;13;
3;FRA;Alsace;Haut-Rhin;Hirtzbach 68139;E7.2167;N47.6000;13;
3;FRA;Alsace;Haut-Rhin;Hirtzfelden 68140;E7.4500;N47.9167;13;
3;FRA;Alsace;Haut-Rhin;Hochstatt 68141;E7.2833;N47.7167;13;
3;FRA;Alsace;Haut-Rhin;Hohrod 68142;E7.1333;N48.0500;13;
3;FRA;Alsace;Haut-Rhin;Holtzwihr 68143;E7.4167;N48.1167;13;
3;FRA;Alsace;Haut-Rhin;Hombourg 68144;E7.5000;N47.7667;13;
3;FRA;Alsace;Haut-Rhin;Horbourg-Wihr 68145;E7.3833;N48.0667;13;
3;FRA;Alsace;Haut-Rhin;Houssen 68146;E7.3833;N48.1167;13;
3;FRA;Alsace;Haut-Rhin;Hunawihr 68147;E7.3167;N48.1667;13;
3;FRA;Alsace;Haut-Rhin;Hundsbach 68148;E7.3333;N47.6000;13;
3;FRA;Alsace;Haut-Rhin;Huningue 68149;E7.5833;N47.6000;13;
3;FRA;Alsace;Haut-Rhin;Husseren-les-Châteaux 68150;E7.2833;N48.0333;13;
3;FRA;Alsace;Haut-Rhin;Husseren-Wesserling 68151;E6.9833;N47.8833;13;
3;FRA;Alsace;Haut-Rhin;Illfurth 68152;E7.2667;N47.6667;13;
3;FRA;Alsace;Haut-Rhin;Illhaeusern 68153;E7.4333;N48.1833;13;
3;FRA;Alsace;Haut-Rhin;Illzach 68154;E7.3333;N47.7833;13;
3;FRA;Alsace;Haut-Rhin;Ingersheim 68155;E7.3000;N48.1000;13;
3;FRA;Alsace;Haut-Rhin;Issenheim 68156;E7.2667;N47.9000;13;
3;FRA;Alsace;Haut-Rhin;Jebsheim 68157;E7.4833;N48.1167;13;
3;FRA;Alsace;Haut-Rhin;Jettingen 68158;E7.3667;N47.6000;13;
3;FRA;Alsace;Haut-Rhin;Jungholtz 68159;E7.1833;N47.8833;13;
3;FRA;Alsace;Haut-Rhin;Kappelen 68160;E7.4333;N47.6167;13;
3;FRA;Alsace;Haut-Rhin;Katzenthal 68161;E7.2833;N48.1000;13;
3;FRA;Alsace;Haut-Rhin;Kaysersberg 68162;E7.2500;N48.1333;13;
3;FRA;Alsace;Haut-Rhin;Kembs 68163;E7.5000;N47.6833;13;
3;FRA;Alsace;Haut-Rhin;Kientzheim 68164;E7.2833;N48.1333;13;
3;FRA;Alsace;Haut-Rhin;Kiffis 68165;E7.3667;N47.4333;13;
3;FRA;Alsace;Haut-Rhin;Kingersheim 68166;E7.3333;N47.8000;13;
3;FRA;Alsace;Haut-Rhin;Kirchberg 68167;E6.9667;N47.8000;13;
3;FRA;Alsace;Haut-Rhin;Knoeringue 68168;E7.4000;N47.5667;13;
3;FRA;Alsace;Haut-Rhin;Koestlach 68169;E7.2833;N47.5000;13;
3;FRA;Alsace;Haut-Rhin;Koetzingue 68170;E7.3833;N47.6500;13;
3;FRA;Alsace;Haut-Rhin;Kruth 68171;E6.9667;N47.9333;13;
3;FRA;Alsace;Haut-Rhin;Kunheim 68172;E7.5333;N48.0833;13;
3;FRA;Alsace;Haut-Rhin;Labaroche 68173;E7.2000;N48.1167;13;
3;FRA;Alsace;Haut-Rhin;Landser 68174;E7.3833;N47.6833;13;
3;FRA;Alsace;Haut-Rhin;Lapoutroie 68175;E7.1667;N48.1500;13;
3;FRA;Alsace;Haut-Rhin;Largitzen 68176;E7.1833;N47.5667;13;
3;FRA;Alsace;Haut-Rhin;Lautenbach 68177;E7.1500;N47.9500;13;
3;FRA;Alsace;Haut-Rhin;Lautenbachzell 68178;E7.1500;N47.9333;13;
3;FRA;Alsace;Haut-Rhin;Lauw 68179;E7.0167;N47.7500;13;
3;FRA;Alsace;Haut-Rhin;Le Bonhomme 68044;E7.1167;N48.1667;13;
3;FRA;Alsace;Haut-Rhin;Leimbach 68180;E7.1000;N47.8000;13;
3;FRA;Alsace;Haut-Rhin;Levoncourt 68181;E7.2167;N47.4500;13;
3;FRA;Alsace;Haut-Rhin;Leymen 68182;E7.4833;N47.4833;13;
3;FRA;Alsace;Haut-Rhin;Liebenswiller 68183;E7.4500;N47.5000;13;
3;FRA;Alsace;Haut-Rhin;Liebsdorf 68184;E7.2333;N47.4667;13;
3;FRA;Alsace;Haut-Rhin;Lièpvre 68185;E7.2833;N48.2667;13;
3;FRA;Alsace;Haut-Rhin;Ligsdorf 68186;E7.3167;N47.4667;13;
3;FRA;Alsace;Haut-Rhin;Linsdorf 68187;E7.3833;N47.5000;13;
3;FRA;Alsace;Haut-Rhin;Linthal 68188;E7.1333;N47.9333;13;
3;FRA;Alsace;Haut-Rhin;Logelheim 68189;E7.4000;N48.0167;13;
3;FRA;Alsace;Haut-Rhin;Lucelle 68190;E7.2333;N47.4167;13;
3;FRA;Alsace;Haut-Rhin;Luemschwiller 68191;E7.3000;N47.6500;13;
3;FRA;Alsace;Haut-Rhin;Luttenbach-près-Munster 68193;E7.1167;N48.0167;13;
3;FRA;Alsace;Haut-Rhin;Lutter 68194;E7.3833;N47.4667;13;
3;FRA;Alsace;Haut-Rhin;Lutterbach 68195;E7.2833;N47.7667;13;
3;FRA;Alsace;Haut-Rhin;Magny 68196;E7.0500;N47.6000;13;
3;FRA;Alsace;Haut-Rhin;Magstatt-le-Bas 68197;E7.4000;N47.6333;13;
3;FRA;Alsace;Haut-Rhin;Magstatt-le-Haut 68198;E7.3833;N47.6333;13;
3;FRA;Alsace;Haut-Rhin;Malmerspach 68199;E7.0333;N47.8667;13;
3;FRA;Alsace;Haut-Rhin;Manspach 68200;E7.1000;N47.6167;13;
3;FRA;Alsace;Haut-Rhin;Masevaux 68201;E7.0000;N47.7833;13;
3;FRA;Alsace;Haut-Rhin;Mertzen 68202;E7.1333;N47.5833;13;
3;FRA;Alsace;Haut-Rhin;Merxheim 68203;E7.2833;N47.9167;13;
3;FRA;Alsace;Haut-Rhin;Metzeral 68204;E7.0667;N48.0167;13;
3;FRA;Alsace;Haut-Rhin;Meyenheim 68205;E7.3500;N47.9167;13;
3;FRA;Alsace;Haut-Rhin;Michelbach 68206;E7.1167;N47.7667;13;
3;FRA;Alsace;Haut-Rhin;Michelbach-le-Bas 68207;E7.4500;N47.6000;13;
3;FRA;Alsace;Haut-Rhin;Michelbach-le-Haut 68208;E7.4333;N47.5667;13;
3;FRA;Alsace;Haut-Rhin;Mittelwihr 68209;E7.3167;N48.1500;13;
3;FRA;Alsace;Haut-Rhin;Mittlach 68210;E7.0167;N48.0000;13;
3;FRA;Alsace;Haut-Rhin;Mitzach 68211;E7.0000;N47.8667;13;
3;FRA;Alsace;Haut-Rhin;Moernach 68212;E7.2500;N47.5000;13;
3;FRA;Alsace;Haut-Rhin;Mollau 68213;E6.9667;N47.8667;13;
3;FRA;Alsace;Haut-Rhin;Montreux-Jeune 68214;E7.0333;N47.6167;13;
3;FRA;Alsace;Haut-Rhin;Montreux-Vieux 68215;E7.0333;N47.6167;13;
3;FRA;Alsace;Haut-Rhin;Moosch 68217;E7.0333;N47.8667;13;
3;FRA;Alsace;Haut-Rhin;Mooslargue 68216;E7.2167;N47.5000;13;
3;FRA;Alsace;Haut-Rhin;Morschwiller-le-Bas 68218;E7.2667;N47.7500;13;
3;FRA;Alsace;Haut-Rhin;Mortzwiller 68219;E7.0333;N47.7500;13;
3;FRA;Alsace;Haut-Rhin;Moyen-Muespach 68220=68221;E7.3833;N47.5500;13;
3;FRA;Alsace;Haut-Rhin;Muespach 68221;E7.3667;N47.5333;13;
3;FRA;Alsace;Haut-Rhin;Muespach-le-Haut 68222;E7.4167;N47.5500;13;
3;FRA;Alsace;Haut-Rhin;Muhlbach-sur-Munster 68223;E7.0833;N48.0333;13;
3;FRA;Alsace;Haut-Rhin;Mulhouse 68224;E7.3333;N47.7500;13;
3;FRA;Alsace;Haut-Rhin;Munchhouse 68225;E7.4500;N47.8667;13;
3;FRA;Alsace;Haut-Rhin;Munster 68226;E7.1333;N48.0500;13;
3;FRA;Alsace;Haut-Rhin;Muntzenheim 68227;E7.4667;N48.1000;13;
3;FRA;Alsace;Haut-Rhin;Munwiller 68228;E7.3500;N47.9167;13;
3;FRA;Alsace;Haut-Rhin;Murbach 68229;E7.1667;N47.9167;13;
3;FRA;Alsace;Haut-Rhin;Nambsheim 68230;E7.5500;N47.9167;13;
3;FRA;Alsace;Haut-Rhin;Neuf-Brisach 68231;E7.5333;N48.0167;13;
3;FRA;Alsace;Haut-Rhin;Neuwiller 68232;E7.5167;N47.5167;13;
3;FRA;Alsace;Haut-Rhin;Niederbruck 68233;E6.9667;N47.7833;13;
3;FRA;Alsace;Haut-Rhin;Niederentzen 68234;E7.3833;N47.9500;13;
3;FRA;Alsace;Haut-Rhin;Niederhergheim 68235;E7.4000;N47.9833;13;
3;FRA;Alsace;Haut-Rhin;Niederlarg 68236=68216;E7.2167;N47.5167;13;
3;FRA;Alsace;Haut-Rhin;Niedermorschwihr 68237;E7.2833;N48.1000;13;
3;FRA;Alsace;Haut-Rhin;Niffer 68238;E7.5167;N47.7167;13;
3;FRA;Alsace;Haut-Rhin;Oberbruck 68239;E6.9500;N47.8000;13;
3;FRA;Alsace;Haut-Rhin;Oberdorf 68240;E7.3167;N47.5667;13;
3;FRA;Alsace;Haut-Rhin;Oberentzen 68241;E7.3833;N47.9500;13;
3;FRA;Alsace;Haut-Rhin;Oberhergheim 68242;E7.4000;N47.9667;13;
3;FRA;Alsace;Haut-Rhin;Oberlarg 68243;E7.2333;N47.4500;13;
3;FRA;Alsace;Haut-Rhin;Obermorschwihr 68244;E7.3000;N48.0167;13;
3;FRA;Alsace;Haut-Rhin;Obermorschwiller 68245;E7.3167;N47.6500;13;
3;FRA;Alsace;Haut-Rhin;Obersaasheim 68246;E7.5500;N47.9833;13;
3;FRA;Alsace;Haut-Rhin;Oderen 68247;E6.9833;N47.9167;13;
3;FRA;Alsace;Haut-Rhin;Oltingue 68248;E7.3833;N47.4833;13;
3;FRA;Alsace;Haut-Rhin;Orbey 68249;E7.1667;N48.1333;13;
3;FRA;Alsace;Haut-Rhin;Orschwihr 68250;E7.2167;N47.9333;13;
3;FRA;Alsace;Haut-Rhin;Osenbach 68251;E7.2167;N47.9833;13;
3;FRA;Alsace;Haut-Rhin;Ostheim 68252;E7.3667;N48.1500;13;
3;FRA;Alsace;Haut-Rhin;Ottmarsheim 68253;E7.5000;N47.7833;13;
3;FRA;Alsace;Haut-Rhin;Petit-Landau 68254;E7.5167;N47.7167;13;
3;FRA;Alsace;Haut-Rhin;Pfaffenheim 68255;E7.2833;N47.9833;13;
3;FRA;Alsace;Haut-Rhin;Pfastatt 68256;E7.3000;N47.7833;13;
3;FRA;Alsace;Haut-Rhin;Pfetterhouse 68257;E7.1667;N47.5000;13;
3;FRA;Alsace;Haut-Rhin;Pulversheim 68258;E7.3000;N47.8500;13;
3;FRA;Alsace;Haut-Rhin;Raedersdorf 68259;E7.3667;N47.4667;13;
3;FRA;Alsace;Haut-Rhin;Raedersheim 68260;E7.2833;N47.8833;13;
3;FRA;Alsace;Haut-Rhin;Rammersmatt 68261;E7.0667;N47.8000;13;
3;FRA;Alsace;Haut-Rhin;Ranspach 68262;E7.0167;N47.8833;13;
3;FRA;Alsace;Haut-Rhin;Ranspach-le-Bas 68263;E7.4500;N47.5833;13;
3;FRA;Alsace;Haut-Rhin;Ranspach-le-Haut 68264;E7.4167;N47.5833;13;
3;FRA;Alsace;Haut-Rhin;Rantzwiller 68265;E7.3667;N47.6500;13;
3;FRA;Alsace;Haut-Rhin;Réguisheim 68266;E7.3500;N47.9000;13;
3;FRA;Alsace;Haut-Rhin;Reiningue 68267;E7.2333;N47.7500;13;
3;FRA;Alsace;Haut-Rhin;Retzwiller 68268;E7.1000;N47.6333;13;
3;FRA;Alsace;Haut-Rhin;Ribeauvillé 68269;E7.3167;N48.2000;13;
3;FRA;Alsace;Haut-Rhin;Richwiller 68270;E7.2833;N47.7833;13;
3;FRA;Alsace;Haut-Rhin;Riedisheim 68271;E7.3667;N47.7500;13;
3;FRA;Alsace;Haut-Rhin;Riedwihr 68272;E7.4333;N48.1167;13;
3;FRA;Alsace;Haut-Rhin;Riespach 68273;E7.2833;N47.5500;13;
3;FRA;Alsace;Haut-Rhin;Rimbach-près-Guebwiller 68274;E7.1500;N47.9000;13;
3;FRA;Alsace;Haut-Rhin;Rimbach-près-Masevaux 68275;E6.9500;N47.8333;13;
3;FRA;Alsace;Haut-Rhin;Rimbachzell 68276;E7.1833;N47.9000;13;
3;FRA;Alsace;Haut-Rhin;Riquewihr 68277;E7.3000;N48.1667;13;
3;FRA;Alsace;Haut-Rhin;Rixheim 68278;E7.4000;N47.7667;13;
3;FRA;Alsace;Haut-Rhin;Roderen 68279;E7.0833;N47.7833;13;
3;FRA;Alsace;Haut-Rhin;Rodern 68280;E7.3500;N48.2333;13;
3;FRA;Alsace;Haut-Rhin;Roggenhouse 68281;E7.4667;N47.8833;13;
3;FRA;Alsace;Haut-Rhin;Romagny 68282;E7.0667;N47.6167;13;
3;FRA;Alsace;Haut-Rhin;Rombach-le-Franc 68283;E7.2667;N48.2833;13;
3;FRA;Alsace;Haut-Rhin;Roppentzwiller 68284;E7.3333;N47.5500;13;
3;FRA;Alsace;Haut-Rhin;Rorschwihr 68285;E7.3667;N48.2167;13;
3;FRA;Alsace;Haut-Rhin;Rosenau 68286;E7.5333;N47.6333;13;
3;FRA;Alsace;Haut-Rhin;Rouffach 68287;E7.2833;N47.9667;13;
3;FRA;Alsace;Haut-Rhin;Ruederbach 68288;E7.2667;N47.5667;13;
3;FRA;Alsace;Haut-Rhin;Ruelisheim 68289;E7.3667;N47.8333;13;
3;FRA;Alsace;Haut-Rhin;Rumersheim-le-Haut 68291;E7.5167;N47.8500;13;
3;FRA;Alsace;Haut-Rhin;Rustenhart 68290;E7.4500;N47.9333;13;
3;FRA;Alsace;Haut-Rhin;Saint-Amarin 68292;E7.0167;N47.8833;13;
3;FRA;Alsace;Haut-Rhin;Saint-Bernard 68081;E7.2000;N47.6667;13;
3;FRA;Alsace;Haut-Rhin;Saint-Cosme 68293;E7.0667;N47.6833;13;
3;FRA;Alsace;Haut-Rhin;Saint-Hippolyte 68296;E7.3667;N48.2333;13;
3;FRA;Alsace;Haut-Rhin;Saint-Louis 68297;E7.5667;N47.5833;13;
3;FRA;Alsace;Haut-Rhin;Saint-Ulrich 68299;E7.1167;N47.6000;13;
3;FRA;Alsace;Haut-Rhin;Sainte-Croix-aux-Mines 68294;E7.2167;N48.2667;13;
3;FRA;Alsace;Haut-Rhin;Sainte-Croix-en-Plaine 68295;E7.3833;N48.0167;13;
3;FRA;Alsace;Haut-Rhin;Sainte-Marie-aux-Mines 68298;E7.1833;N48.2500;13;
3;FRA;Alsace;Haut-Rhin;Sausheim 68300;E7.3667;N47.7833;13;
3;FRA;Alsace;Haut-Rhin;Schlierbach 68301;E7.4000;N47.6833;13;
3;FRA;Alsace;Haut-Rhin;Schweighouse-Thann 68302;E7.1667;N47.7500;13;
3;FRA;Alsace;Haut-Rhin;Schwoben 68303;E7.3000;N47.6167;13;
3;FRA;Alsace;Haut-Rhin;Sentheim 68304;E7.0667;N47.7500;13;
3;FRA;Alsace;Haut-Rhin;Seppois-le-Bas 68305;E7.1667;N47.5500;13;
3;FRA;Alsace;Haut-Rhin;Seppois-le-Haut 68306;E7.1833;N47.5167;13;
3;FRA;Alsace;Haut-Rhin;Sewen 68307;E6.9000;N47.8000;13;
3;FRA;Alsace;Haut-Rhin;Sickert 68308;E6.9833;N47.7833;13;
3;FRA;Alsace;Haut-Rhin;Sierentz 68309;E7.4667;N47.6667;13;
3;FRA;Alsace;Haut-Rhin;Sigolsheim 68310;E7.3000;N48.1333;13;
3;FRA;Alsace;Haut-Rhin;Sondernach 68311;E7.0833;N47.9833;13;
3;FRA;Alsace;Haut-Rhin;Sondersdorf 68312;E7.3500;N47.4833;13;
3;FRA;Alsace;Haut-Rhin;Soppe-le-Bas 68313;E7.0833;N47.7167;13;
3;FRA;Alsace;Haut-Rhin;Soppe-le-Haut 68314;E7.0667;N47.7333;13;
3;FRA;Alsace;Haut-Rhin;Soultz-Haut-Rhin 68315;E7.2333;N47.8833;13;
3;FRA;Alsace;Haut-Rhin;Soultzbach-les-Bains 68316;E7.2000;N48.0333;13;
3;FRA;Alsace;Haut-Rhin;Soultzeren 68317;E7.1000;N48.0667;13;
3;FRA;Alsace;Haut-Rhin;Soultzmatt 68318;E7.2333;N47.9667;13;
3;FRA;Alsace;Haut-Rhin;Spechbach-le-Bas 68319;E7.2333;N47.6667;13;
3;FRA;Alsace;Haut-Rhin;Spechbach-le-Haut 68320;E7.2167;N47.6833;13;
3;FRA;Alsace;Haut-Rhin;Staffelfelden 68321;E7.2500;N47.8167;13;
3;FRA;Alsace;Haut-Rhin;Steinbach 68322;E7.1500;N47.8167;13;
3;FRA;Alsace;Haut-Rhin;Steinbrunn-le-Bas 68323;E7.3667;N47.6750;13;
3;FRA;Alsace;Haut-Rhin;Steinbrunn-le-Haut 68324;E7.3500;N47.6667;13;
3;FRA;Alsace;Haut-Rhin;Steinsoultz 68325;E7.3500;N47.5500;13;
3;FRA;Alsace;Haut-Rhin;Sternenberg 68326;E7.1000;N47.7000;13;
3;FRA;Alsace;Haut-Rhin;Stetten 68327;E7.4167;N47.6333;13;
3;FRA;Alsace;Haut-Rhin;Storckensohn 68328;E6.9500;N47.8833;13;
3;FRA;Alsace;Haut-Rhin;Stosswihr 68329;E7.1000;N48.0500;13;
3;FRA;Alsace;Haut-Rhin;Strueth 68330;E7.1333;N47.5833;13;
3;FRA;Alsace;Haut-Rhin;Sundhoffen 68331;E7.4167;N48.0333;13;
3;FRA;Alsace;Haut-Rhin;Tagolsheim 68332;E7.2667;N47.6500;13;
3;FRA;Alsace;Haut-Rhin;Tagsdorf 68333;E7.3000;N47.6333;13;
3;FRA;Alsace;Haut-Rhin;Thann 68334;E7.0833;N47.8167;13;
3;FRA;Alsace;Haut-Rhin;Thannenkirch 68335;E7.3000;N48.2333;13;
3;FRA;Alsace;Haut-Rhin;Traubach-le-Bas 68336;E7.1000;N47.6667;13;
3;FRA;Alsace;Haut-Rhin;Traubach-le-Haut 68337;E7.1000;N47.6667;13;
3;FRA;Alsace;Haut-Rhin;Turckheim 68338;E7.2833;N48.0833;13;
3;FRA;Alsace;Haut-Rhin;Ueberkumen 68339=68018;E7.1667;N47.6667;13;
3;FRA;Alsace;Haut-Rhin;Ueberstrass 68340;E7.1667;N47.5500;13;
3;FRA;Alsace;Haut-Rhin;Uffheim 68341;E7.4333;N47.6500;13;
3;FRA;Alsace;Haut-Rhin;Uffholtz 68342;E7.1667;N47.8167;13;
3;FRA;Alsace;Haut-Rhin;Ungersheim 68343;E7.3167;N47.8833;13;
3;FRA;Alsace;Haut-Rhin;Urbès 68344;E6.9500;N47.8833;13;
3;FRA;Alsace;Haut-Rhin;Urschenheim 68345;E7.4833;N48.0833;13;
3;FRA;Alsace;Haut-Rhin;Valdieu 68346=68192;E7.0667;N47.6333;13;
3;FRA;Alsace;Haut-Rhin;Valdieu-Lutran 68192;E7.0500;N47.6167;13;
3;FRA;Alsace;Haut-Rhin;Vieux-Ferrette 68347;E7.3000;N47.5000;13;
3;FRA;Alsace;Haut-Rhin;Vieux-Thann 68348;E7.1333;N47.8000;13;
3;FRA;Alsace;Haut-Rhin;Village-Neuf 68349;E7.5667;N47.6000;13;
3;FRA;Alsace;Haut-Rhin;Voegtlinshoffen 68350;E7.2667;N48.0168;13;
3;FRA;Alsace;Haut-Rhin;Vogelgrun 68351;E7.5667;N48.0167;13;
3;FRA;Alsace;Haut-Rhin;Volgelsheim 68352;E7.5333;N48.0000;13;
3;FRA;Alsace;Haut-Rhin;Wahlbach 68353;E7.3500;N47.6333;13;
3;FRA;Alsace;Haut-Rhin;Walbach 68354;E7.2333;N48.0667;13;
3;FRA;Alsace;Haut-Rhin;Waldighofen 68355;E7.3167;N47.5500;13;
3;FRA;Alsace;Haut-Rhin;Walheim 68356;E7.2667;N47.6500;13;
3;FRA;Alsace;Haut-Rhin;Waltenheim 68357;E7.4167;N47.6500;13;
3;FRA;Alsace;Haut-Rhin;Wasserbourg 68358;E7.1667;N48.0000;13;
3;FRA;Alsace;Haut-Rhin;Wattwiller 68359;E7.1667;N47.8500;13;
3;FRA;Alsace;Haut-Rhin;Weckolsheim 68360;E7.5167;N48.0000;13;
3;FRA;Alsace;Haut-Rhin;Wegscheid 68361;E6.9500;N47.8000;13;
3;FRA;Alsace;Haut-Rhin;Wentzwiller 68362;E7.4833;N47.5500;13;
3;FRA;Alsace;Haut-Rhin;Werentzhouse 68363;E7.3500;N47.5167;13;
3;FRA;Alsace;Haut-Rhin;Westhalten 68364;E7.2667;N47.9500;13;
3;FRA;Alsace;Haut-Rhin;Wettolsheim 68365;E7.3167;N48.0667;13;
3;FRA;Alsace;Haut-Rhin;Wickerschwihr 68366;E7.4333;N48.1000;13;
3;FRA;Alsace;Haut-Rhin;Widensolen 68367;E7.2000;N48.0500;13;
3;FRA;Alsace;Haut-Rhin;Wihr-au-Val 68368;E7.4000;N48.0833;13;
3;FRA;Alsace;Haut-Rhin;Wihr-en-Plaine 68369=68145;E6.9667;N47.9833;13;
3;FRA;Alsace;Haut-Rhin;Wildenstein 68370;E7.3167;N47.5833;13;
3;FRA;Alsace;Haut-Rhin;Willer 68371;E7.0833;N47.8500;13;
3;FRA;Alsace;Haut-Rhin;Willer-sur-Thur 68372;E7.2667;N47.4667;13;
3;FRA;Alsace;Haut-Rhin;Winkel 68373;E7.2833;N48.0667;13;
3;FRA;Alsace;Haut-Rhin;Wintzenheim 68374;E7.2000;N47.9667;13;
3;FRA;Alsace;Haut-Rhin;Wittelsheim 68375;E7.2500;N47.8167;13;
3;FRA;Alsace;Haut-Rhin;Wittenheim 68376;E7.3333;N47.8167;13;
3;FRA;Alsace;Haut-Rhin;Wittersdorf 68377;E7.2833;N47.6167;13;
3;FRA;Alsace;Haut-Rhin;Wolfersdorf 68378;E7.1167;N47.6333;13;
3;FRA;Alsace;Haut-Rhin;Wolfgantzen 68379;E7.5167;N48.0333;13;
3;FRA;Alsace;Haut-Rhin;Wolschwiller 68380;E7.4000;N47.4667;13;
3;FRA;Alsace;Haut-Rhin;Wuenheim 68381;E7.2000;N47.8833;13;
3;FRA;Alsace;Haut-Rhin;Zaessingue 68382;E7.3667;N47.6167;13;
3;FRA;Alsace;Haut-Rhin;Zellenberg 68383;E7.3167;N48.1667;13;
3;FRA;Alsace;Haut-Rhin;Zillisheim 68384;E7.2667;N47.6833;13;
3;FRA;Alsace;Haut-Rhin;Zimmerbach 68385;E7.2333;N48.0667;13;
3;FRA;Alsace;Haut-Rhin;Zimmersheim 68386;E7.3833;N47.7167;13;
