"Level";"Country";"State";"County";"Place";"Longitude";"Latitude";"ZoomLevel";"Icon"
2;FRA;Nord-Pas-de-Calais;Nord;;E3.9333;N50.4575;9;
3;FRA;Nord-Pas-de-Calais;Nord;Abancourt 59001;E3.2130;N50.2357;13;
3;FRA;Nord-Pas-de-Calais;Nord;Abscon 59002;E3.3000;N50.3333;13;
3;FRA;Nord-Pas-de-Calais;Nord;Aibes 59003;E4.1000;N50.2333;13;
3;FRA;Nord-Pas-de-Calais;Nord;Aix 59004;E3.2833;N50.4916;13;
3;FRA;Nord-Pas-de-Calais;Nord;Allennes-les-Marais 59005;E2.9500;N50.5370;13;
3;FRA;Nord-Pas-de-Calais;Nord;Amfroipret 59006;E3.7333;N50.2833;13;
3;FRA;Nord-Pas-de-Calais;Nord;Anhiers 59007;E3.1500;N50.4000;13;
3;FRA;Nord-Pas-de-Calais;Nord;Aniche 59008;E3.2500;N50.3333;13;
3;FRA;Nord-Pas-de-Calais;Nord;Anneux 59010;E3.1167;N50.1500;13;
3;FRA;Nord-Pas-de-Calais;Nord;Annoeullin 59011;E2.9333;N50.5333;13;
3;FRA;Nord-Pas-de-Calais;Nord;Anor 59012;E4.1000;N50.0000;13;
3;FRA;Nord-Pas-de-Calais;Nord;Anstaing 59013;E3.2000;N50.6000;13;
3;FRA;Nord-Pas-de-Calais;Nord;Anzin 59014;E3.5000;N50.3667;13;
3;FRA;Nord-Pas-de-Calais;Nord;Arleux 59015;E3.1000;N50.2833;13;
3;FRA;Nord-Pas-de-Calais;Nord;Armbouts-Cappel 59016;E2.3500;N50.9833;13;
3;FRA;Nord-Pas-de-Calais;Nord;Armentières 59017;E2.8833;N50.6833;13;
3;FRA;Nord-Pas-de-Calais;Nord;Arnèke 59018;E2.4167;N50.8333;13;
3;FRA;Nord-Pas-de-Calais;Nord;Artres 59019;E3.5500;N50.3000;13;
3;FRA;Nord-Pas-de-Calais;Nord;Ascq 59020=59009;E3.1417;N50.1;13;
3;FRA;Nord-Pas-de-Calais;Nord;Assevent 59021;E4.0167;N50.2833;13;
3;FRA;Nord-Pas-de-Calais;Nord;Attiches 59022;E3.0500;N50.5167;13;
3;FRA;Nord-Pas-de-Calais;Nord;Aubencheul-au-Bac 59023;E3.1667;N50.2500;13;
3;FRA;Nord-Pas-de-Calais;Nord;Auberchicourt 59024;E3.2333;N50.3333;13;
3;FRA;Nord-Pas-de-Calais;Nord;Aubers 59025;E2.8333;N50.6000;13;
3;FRA;Nord-Pas-de-Calais;Nord;Aubigny-au-Bac 59026;E3.1667;N50.2667;13;
3;FRA;Nord-Pas-de-Calais;Nord;Aubry-du-Hainaut 59027;E3.4595;N50.3697;13;
3;FRA;Nord-Pas-de-Calais;Nord;Auby 59028;E3.0500;N50.4167;13;
3;FRA;Nord-Pas-de-Calais;Nord;Auchy-lez-Orchies 59029;E3.2000;N50.4833;13;
3;FRA;Nord-Pas-de-Calais;Nord;Audencourt 59030=59139;E3.4333;N50.1167;13;
3;FRA;Nord-Pas-de-Calais;Nord;Audignies 59031;E3.8167;N50.2833;13;
3;FRA;Nord-Pas-de-Calais;Nord;Aulnoy-lez-Valenciennes 59032;E3.5288;50.3311;13;
3;FRA;Nord-Pas-de-Calais;Nord;Aulnoye-Aymeries 59033;E3.8333;N50.2000;13;
3;FRA;Nord-Pas-de-Calais;Nord;Avelin 59034;E3.0833;N50.5333;13;
3;FRA;Nord-Pas-de-Calais;Nord;Avesnelles 59035;E3.9500;N50.1167;13;
3;FRA;Nord-Pas-de-Calais;Nord;Avesnes-le-Sec 59038;E3.3833;N50.2500;13;
3;FRA;Nord-Pas-de-Calais;Nord;Avesnes-les-Aubert 59037;E3.3833;N50.2000;13;
3;FRA;Nord-Pas-de-Calais;Nord;Avesnes-sur-Helpe 59036;E3.9333;N50.1167;13;
3;FRA;Nord-Pas-de-Calais;Nord;Awoingt 59039;E3.2833;N50.1500;13;
3;FRA;Nord-Pas-de-Calais;Nord;Aymeries 59040=59033;E3.8333;N50.2000;13;
3;FRA;Nord-Pas-de-Calais;Nord;Bachant 59041;E3.8667;N50.2167;13;
3;FRA;Nord-Pas-de-Calais;Nord;Bachy 59042;E3.2667;N50.5500;13;
3;FRA;Nord-Pas-de-Calais;Nord;Bailleul 59043;E2.7333;N50.7333;13;
3;FRA;Nord-Pas-de-Calais;Nord;Baisieux 59044;E3.2500;N50.6000;13;
3;FRA;Nord-Pas-de-Calais;Nord;Baives 59045;E4.1833;N50.0667;13;
3;FRA;Nord-Pas-de-Calais;Nord;Bambecque 59046;E2.5500;N50.9000;13;
3;FRA;Nord-Pas-de-Calais;Nord;Banteux 59047;E3.2000;N50.0667;13;
3;FRA;Nord-Pas-de-Calais;Nord;Bantigny 59048;E3.2333;N50.2333;13;
3;FRA;Nord-Pas-de-Calais;Nord;Bantouzelle 59049;E3.2000;N50.0500;13;
3;FRA;Nord-Pas-de-Calais;Nord;Bas-Lieu 59050;E3.9500;N50.1333;13;
3;FRA;Nord-Pas-de-Calais;Nord;Bauvin 59052;E2.8833;N50.5167;13;
3;FRA;Nord-Pas-de-Calais;Nord;Bavay 59053;E3.7833;N50.3000;13;
3;FRA;Nord-Pas-de-Calais;Nord;Bavinchove 59054;E2.4667;N50.7833;13;
3;FRA;Nord-Pas-de-Calais;Nord;Bazuel 59055;E3.5833;N50.1000;13;
3;FRA;Nord-Pas-de-Calais;Nord;Beaucamps-Ligny 59056;E2.9167;N50.6000;13;
3;FRA;Nord-Pas-de-Calais;Nord;Beaudignies 59057;E3.5833;N50.2333;13;
3;FRA;Nord-Pas-de-Calais;Nord;Beaufort 59058;E3.9667;N50.2167;13;
3;FRA;Nord-Pas-de-Calais;Nord;Beaumont-en-Cambrésis 59059;E3.4500;N50.1167;13;
3;FRA;Nord-Pas-de-Calais;Nord;Beaurain 59060;E3.5500;N50.1667;13;
3;FRA;Nord-Pas-de-Calais;Nord;Beaurepaire-sur-Sambre 59061;E3.8000;N50.0500;13;
3;FRA;Nord-Pas-de-Calais;Nord;Beaurieux 59062;E4.1167;N50.1833;13;
3;FRA;Nord-Pas-de-Calais;Nord;Beauvois-en-Cambrésis 59063;E3.3833;N50.1333;13;
3;FRA;Nord-Pas-de-Calais;Nord;Bellaing 59064;E3.4333;N50.3667;13;
3;FRA;Nord-Pas-de-Calais;Nord;Bellignies 59065;E3.7667;N50.3333;13;
3;FRA;Nord-Pas-de-Calais;Nord;Bérelles 59066;E4.1000;N50.2167;13;
3;FRA;Nord-Pas-de-Calais;Nord;Bergues 59067;E2.4333;N50.9667;13;
3;FRA;Nord-Pas-de-Calais;Nord;Berlaimont 59068;E3.8167;N50.2000;13;
3;FRA;Nord-Pas-de-Calais;Nord;Bermerain 59069;E3.5333;N50.2500;13;
3;FRA;Nord-Pas-de-Calais;Nord;Bermeries 59070;E3.7667;N50.2833;13;
3;FRA;Nord-Pas-de-Calais;Nord;Bersée 59071;E3.1500;N50.4833;13;
3;FRA;Nord-Pas-de-Calais;Nord;Bersillies 59072;E4.0000;N50.3167;13;
3;FRA;Nord-Pas-de-Calais;Nord;Berthen 59073;E2.7000;N50.7833;13;
3;FRA;Nord-Pas-de-Calais;Nord;Bertry 59074;E3.4500;N50.0833;13;
3;FRA;Nord-Pas-de-Calais;Nord;Béthencourt 59075;E3.4333;N50.1333;13;
3;FRA;Nord-Pas-de-Calais;Nord;Bettignies 59076;E3.9667;N50.3333;13;
3;FRA;Nord-Pas-de-Calais;Nord;Bettrechies 59077;E3.7500;N50.3167;13;
3;FRA;Nord-Pas-de-Calais;Nord;Beugnies 59078;E4.0167;N50.1667;13;
3;FRA;Nord-Pas-de-Calais;Nord;Beuvrages 59079;E3.5000;N50.3833;13;
3;FRA;Nord-Pas-de-Calais;Nord;Beuvry-la-Forêt 59080;E3.3833;N50.1500;13;
3;FRA;Nord-Pas-de-Calais;Nord;Bévillers 59081;E2.4167;N50.9667;13;
3;FRA;Nord-Pas-de-Calais;Nord;Bierne 59082;E2.4167;N50.9167;13;
3;FRA;Nord-Pas-de-Calais;Nord;Bissezeele 59083;E3.6667;N50.4000;13;
3;FRA;Nord-Pas-de-Calais;Nord;Blaringhem 59084;E2.4000;N50.7000;13;
3;FRA;Nord-Pas-de-Calais;Nord;Blécourt 59085;E3.2167;N50.2167;13;
3;FRA;Nord-Pas-de-Calais;Nord;Boeschepe 59086;E2.7000;N50.8000;13;
3;FRA;Nord-Pas-de-Calais;Nord;Boëseghem 59087;E2.4500;N50.6667;13;
3;FRA;Nord-Pas-de-Calais;Nord;Bois-Grenier 59088;E2.8833;N50.6500;13;
3;FRA;Nord-Pas-de-Calais;Nord;Bollezeele 59089;E2.3333;N50.8667;13;
3;FRA;Nord-Pas-de-Calais;Nord;Bondues 59090;E3.1000;N50.7000;13;
3;FRA;Nord-Pas-de-Calais;Nord;Borre 59091;E2.5833;N50.7333;13;
3;FRA;Nord-Pas-de-Calais;Nord;Bouchain 59092;E3.3167;N50.2833;13;
3;FRA;Nord-Pas-de-Calais;Nord;Boulogne-sur-Helpe 59093;E3.9000;N50.0833;13;
3;FRA;Nord-Pas-de-Calais;Nord;Bourbourg 59094;E2.2000;N50.9500;13;
3;FRA;Nord-Pas-de-Calais;Nord;Bourbourg-Campagne 59095=59094;E2.2000;N50.9500;13;
3;FRA;Nord-Pas-de-Calais;Nord;Bourghelles 59096;E3.2500;N50.5667;13;
3;FRA;Nord-Pas-de-Calais;Nord;Boursies 59097;E3.0166;N50.1333;13;
3;FRA;Nord-Pas-de-Calais;Nord;Bousbecque 59098;E3.0833;N50.7667;13;
3;FRA;Nord-Pas-de-Calais;Nord;Bousies 59099;E3.6167;N50.1500;13;
3;FRA;Nord-Pas-de-Calais;Nord;Bousignies 59100;E3.3500;N50.4333;13;
3;FRA;Nord-Pas-de-Calais;Nord;Bousignies-sur-Roc 59101;E4.1833;N50.2667;13;
3;FRA;Nord-Pas-de-Calais;Nord;Boussières-en-Cambrésis 59102;E3.3667;N50.1654;13;
3;FRA;Nord-Pas-de-Calais;Nord;Boussières-sur-Sambre 59103;E3.8833;N50.2333;13;
3;FRA;Nord-Pas-de-Calais;Nord;Boussois 59104;E4.0500;N50.2833;13;
3;FRA;Nord-Pas-de-Calais;Nord;Bouvignies 59105;E3.2500;N50.4333;13;
3;FRA;Nord-Pas-de-Calais;Nord;Bouvines 59106;E3.1833;N50.5833;13;
3;FRA;Nord-Pas-de-Calais;Nord;Bray-Dunes 59107;E2.5167;N51.0833;13;
3;FRA;Nord-Pas-de-Calais;Nord;Briastre 59108;E3.4833;N50.1667;13;
3;FRA;Nord-Pas-de-Calais;Nord;Brillon 59109;E3.3333;N50.4333;13;
3;FRA;Nord-Pas-de-Calais;Nord;Brouckerque 59110;E2.2833;N50.9500;13;
3;FRA;Nord-Pas-de-Calais;Nord;Broxeele 59111;E2.3167;N50.8333;13;
3;FRA;Nord-Pas-de-Calais;Nord;Bruay-sur-l'Escaut 59112;E3.5333;N50.3833;13;
3;FRA;Nord-Pas-de-Calais;Nord;Bruille-lez-Marchiennes 59113;E3.2500;N50.3667;13;
3;FRA;Nord-Pas-de-Calais;Nord;Bruille-Saint-Amand 59114;E3.5000;N50.4667;13;
3;FRA;Nord-Pas-de-Calais;Nord;Brunémont 59115;E3.1333;N50.2667;13;
3;FRA;Nord-Pas-de-Calais;Nord;Bry 59116;E3.6833;N50.3167;13;
3;FRA;Nord-Pas-de-Calais;Nord;Bugnicourt 59117;E3.1500;N50.3000;13;
3;FRA;Nord-Pas-de-Calais;Nord;Busigny 59118;E3.4667;N50.0333;13;
3;FRA;Nord-Pas-de-Calais;Nord;Buysscheure 59119;E2.3333;N50.8000;13;
3;FRA;Nord-Pas-de-Calais;Nord;Caëstre 59120;E2.6000;N50.7500;13;
3;FRA;Nord-Pas-de-Calais;Nord;Cagnoncles 59121;E3.3000;N50.1833;13;
3;FRA;Nord-Pas-de-Calais;Nord;Cambrai 59122;E3.2333;N50.1667;13;
3;FRA;Nord-Pas-de-Calais;Nord;Camphin-en-Carembault 59123;E2.9833;N50.5167;13;
3;FRA;Nord-Pas-de-Calais;Nord;Camphin-en-Pévèle 59124;E3.2500;N50.5833;13;
3;FRA;Nord-Pas-de-Calais;Nord;Cantaing-sur-Escaut 59125;E3.1667;N50.1500;13;
3;FRA;Nord-Pas-de-Calais;Nord;Cantin 59126;E3.1167;N50.3000;13;
3;FRA;Nord-Pas-de-Calais;Nord;Capelle 59127;E3.5500;N50.2333;13;
3;FRA;Nord-Pas-de-Calais;Nord;Capinghem 59128;E2.9667;N50.6500;13;
3;FRA;Nord-Pas-de-Calais;Nord;Cappelle-Brouck 59130;E2.2213;N50.9034;13;
3;FRA;Nord-Pas-de-Calais;Nord;Cappelle-en-Pévèle 59129;E3.1667;N50.5167;13;
3;FRA;Nord-Pas-de-Calais;Nord;Cappelle-la-Grande 59131;E2.3500;N51.0000;13;
3;FRA;Nord-Pas-de-Calais;Nord;Carnières 59132;E3.3500;N50.1667;13;
3;FRA;Nord-Pas-de-Calais;Nord;Carnin 59133;E2.9667;N50.5167;13;
3;FRA;Nord-Pas-de-Calais;Nord;Cartignies 59134;E3.8500;N50.1000;13;
3;FRA;Nord-Pas-de-Calais;Nord;Cassel 59135;E2.4833;N50.8000;13;
3;FRA;Nord-Pas-de-Calais;Nord;Catillon-sur-Sambre 59137;E3.6333;N50.0667;13;
3;FRA;Nord-Pas-de-Calais;Nord;Cattenières 59138;E3.3333;N50.1333;13;
3;FRA;Nord-Pas-de-Calais;Nord;Caudry 59139;E3.4167;N50.1333;13;
3;FRA;Nord-Pas-de-Calais;Nord;Caullery 59140;E3.3667;N50.0833;13;
3;FRA;Nord-Pas-de-Calais;Nord;Cauroir 59141;E3.3000;N50.1667;13;
3;FRA;Nord-Pas-de-Calais;Nord;Cerfontaine 59142;E4.0333;N50.2667;13;
3;FRA;Nord-Pas-de-Calais;Nord;Château-l'Abbaye 59144;E3.4667;N50.4833;13;
3;FRA;Nord-Pas-de-Calais;Nord;Chemy 59145;E2.9833;N50.5333;13;
3;FRA;Nord-Pas-de-Calais;Nord;Chéreng 59146;E3.2167;N50.6167;13;
3;FRA;Nord-Pas-de-Calais;Nord;Choisies 59147;E4.0500;N50.2167;13;
3;FRA;Nord-Pas-de-Calais;Nord;Clairfayts 59148;E4.1167;N50.1500;13;
3;FRA;Nord-Pas-de-Calais;Nord;Clary 59149;E3.4000;N50.0833;13;
3;FRA;Nord-Pas-de-Calais;Nord;Cobrieux 59150;E3.2333;N50.5500;13;
3;FRA;Nord-Pas-de-Calais;Nord;Colleret 59151;E4.0833;N50.2500;13;
3;FRA;Nord-Pas-de-Calais;Nord;Comines 59152;E3.0167;N50.7667;13;
3;FRA;Nord-Pas-de-Calais;Nord;Condé-sur-l'Escaut 59153;E3.5833;N50.4500;13;
3;FRA;Nord-Pas-de-Calais;Nord;Coudekerque 59154;E2.4167;N51.0000;13;
3;FRA;Nord-Pas-de-Calais;Nord;Coudekerque-Branche 59155;E2.4000;N51.0333;13;
3;FRA;Nord-Pas-de-Calais;Nord;Courchelettes 59156;E3.0500;N50.3500;13;
3;FRA;Nord-Pas-de-Calais;Nord;Cousolre 59157;E4.1500;N50.2500;13;
3;FRA;Nord-Pas-de-Calais;Nord;Coutiches 59158;E3.2000;N50.4500;13;
3;FRA;Nord-Pas-de-Calais;Nord;Craywick 59159;E2.2333;N50.9667;13;
3;FRA;Nord-Pas-de-Calais;Nord;Crespin 59160;E3.6500;N50.4167;13;
3;FRA;Nord-Pas-de-Calais;Nord;Crèvecoeur-sur-l'Escaut 59161;E3.2500;N50.1000;13;
3;FRA;Nord-Pas-de-Calais;Nord;Crochte 59162;E2.3833;N50.9333;13;
3;FRA;Nord-Pas-de-Calais;Nord;Croix 59163;E3.1500;N50.6667;13;
3;FRA;Nord-Pas-de-Calais;Nord;Croix-Caluyau 59164;E3.5833;N50.1500;13;
3;FRA;Nord-Pas-de-Calais;Nord;Cuincy 59165;E3.0500;N50.3833;13;
3;FRA;Nord-Pas-de-Calais;Nord;Curgies 59166;E3.6000;N50.3333;13;
3;FRA;Nord-Pas-de-Calais;Nord;Cuvillers 59167;E3.2333;N50.2167;13;
3;FRA;Nord-Pas-de-Calais;Nord;Cysoing 59168;E3.2167;N50.5667;13;
3;FRA;Nord-Pas-de-Calais;Nord;Damousies 59169;E4.0167;N50.2167;13;
3;FRA;Nord-Pas-de-Calais;Nord;Dechy 59170;E3.1167;N50.3500;13;
3;FRA;Nord-Pas-de-Calais;Nord;Dehéries 59171;E3.3167;N50.0500;13;
3;FRA;Nord-Pas-de-Calais;Nord;Denain 59172;E3.3833;N50.3333;13;
3;FRA;Nord-Pas-de-Calais;Nord;Deûlémont 59173;E2.9500;N50.7333;13;
3;FRA;Nord-Pas-de-Calais;Nord;Dimechaux 59174;E4.0333;N50.2000;13;
3;FRA;Nord-Pas-de-Calais;Nord;Dimont 59175;E4.0167;N50.1833;13;
3;FRA;Nord-Pas-de-Calais;Nord;Doignies 59176;E3.0000;N50.1166;13;
3;FRA;Nord-Pas-de-Calais;Nord;Dompierre-sur-Helpe 59177;E3.8667;N50.1417;13;
3;FRA;Nord-Pas-de-Calais;Nord;Don 59670;E2.9167;N50.5500;13;
3;FRA;Nord-Pas-de-Calais;Nord;Douai 59178;E3.0667;N50.3667;13;
3;FRA;Nord-Pas-de-Calais;Nord;Douchy-les-Mines 59179;E3.3833;N50.3000;13;
3;FRA;Nord-Pas-de-Calais;Nord;Dourlers 59181;E3.9333;N50.1667;13;
3;FRA;Nord-Pas-de-Calais;Nord;Drincham 59182;E2.3167;N50.9000;13;
3;FRA;Nord-Pas-de-Calais;Nord;Dunkerque 59183;E2.3667;N51.0500;13;
3;FRA;Nord-Pas-de-Calais;Nord;Ebblinghem 59184;E2.4000;N50.7333;13;
3;FRA;Nord-Pas-de-Calais;Nord;Écaillon 59185;E3.2167;N50.3500;13;
3;FRA;Nord-Pas-de-Calais;Nord;Eccles 59186;E4.1000;N50.2000;13;
3;FRA;Nord-Pas-de-Calais;Nord;Éclaibes 59187;E3.9333;N50.2000;13;
3;FRA;Nord-Pas-de-Calais;Nord;Écuélin 59188;E3.9167;N50.1936;13;
3;FRA;Nord-Pas-de-Calais;Nord;Eecke 59189;E2.6000;N50.7833;13;
3;FRA;Nord-Pas-de-Calais;Nord;Élesmes 59190;E4.0167;N50.3000;13;
3;FRA;Nord-Pas-de-Calais;Nord;Élincourt 59191;E3.3667;N50.0456;13;
3;FRA;Nord-Pas-de-Calais;Nord;Émerchicourt 59192;E3.2500;N50.3167;13;
3;FRA;Nord-Pas-de-Calais;Nord;Emmerin 59193;E3.0000;N50.6000;13;
3;FRA;Nord-Pas-de-Calais;Nord;Englefontaine 59194;E3.6500;N50.1833;13;
3;FRA;Nord-Pas-de-Calais;Nord;Englos 59195;E2.9667;N50.6333;13;
3;FRA;Nord-Pas-de-Calais;Nord;Ennetières-en-Weppes 59196;E2.9500;N50.6333;13;
3;FRA;Nord-Pas-de-Calais;Nord;Ennevelin 59197;E3.1333;N50.5333;13;
3;FRA;Nord-Pas-de-Calais;Nord;Eppe-Sauvage 59198;E4.1833;N50.1167;13;
3;FRA;Nord-Pas-de-Calais;Nord;Erchin 59199;E3.1667;N50.3167;13;
3;FRA;Nord-Pas-de-Calais;Nord;Eringhem 59200;E2.3500;N50.9000;13;
3;FRA;Nord-Pas-de-Calais;Nord;Erquinghem-le-Sec 59201;E2.9333;N50.6167;13;
3;FRA;Nord-Pas-de-Calais;Nord;Erquinghem-Lys 59202;E2.8500;N50.6833;13;
3;FRA;Nord-Pas-de-Calais;Nord;Erre 59203;E3.3167;N50.3667;13;
3;FRA;Nord-Pas-de-Calais;Nord;Escarmain 59204;E3.5500;N50.2333;13;
3;FRA;Nord-Pas-de-Calais;Nord;Escaudain 59205;E3.3500;N50.3333;13;
3;FRA;Nord-Pas-de-Calais;Nord;Escaudoeuvres 59206;E3.2667;N50.2000;13;
3;FRA;Nord-Pas-de-Calais;Nord;Escautpont 59207;E3.5667;N50.4167;13;
3;FRA;Nord-Pas-de-Calais;Nord;Escobecques 59208;E2.9333;N50.6167;13;
3;FRA;Nord-Pas-de-Calais;Nord;Esnes 59209;E3.3167;N50.1000;13;
3;FRA;Nord-Pas-de-Calais;Nord;Esquelbecq 59210;E2.4333;N50.8833;13;
3;FRA;Nord-Pas-de-Calais;Nord;Esquerchin 59211;E3.0167;N50.3667;13;
3;FRA;Nord-Pas-de-Calais;Nord;Estaires 59212;E2.7167;N50.6333;13;
3;FRA;Nord-Pas-de-Calais;Nord;Estourmel 59213;E3.3333;N50.1333;13;
3;FRA;Nord-Pas-de-Calais;Nord;Estrées 59214;E3.0667;N50.3000;13;
3;FRA;Nord-Pas-de-Calais;Nord;Estreux 59215;E3.6000;N50.3500;13;
3;FRA;Nord-Pas-de-Calais;Nord;Estrun 59219;E3.2833;N50.2500;13;
3;FRA;Nord-Pas-de-Calais;Nord;Eswars 59216;E3.2667;N50.2167;13;
3;FRA;Nord-Pas-de-Calais;Nord;Eth 59217;E3.6667;N50.3167;13;
3;FRA;Nord-Pas-de-Calais;Nord;Étroeungt 59218;E3.9333;N50.0500;13;
3;FRA;Nord-Pas-de-Calais;Nord;Faches-Thumesnil 59220;E3.0667;N50.5833;13;
3;FRA;Nord-Pas-de-Calais;Nord;Famars 59221;E3.5167;N50.3167;13;
3;FRA;Nord-Pas-de-Calais;Nord;Faumont 59222;E3.1333;N50.4667;13;
3;FRA;Nord-Pas-de-Calais;Nord;Féchain 59224;E3.2167;N50.2667;13;
3;FRA;Nord-Pas-de-Calais;Nord;Feignies 59225;E3.9167;N50.3000;13;
3;FRA;Nord-Pas-de-Calais;Nord;Felleries 59226;E4.0333;N50.1500;13;
3;FRA;Nord-Pas-de-Calais;Nord;Fenain 59227;E3.3000;N50.3667;13;
3;FRA;Nord-Pas-de-Calais;Nord;Férin 59228;E3.0667;N50.3333;13;
3;FRA;Nord-Pas-de-Calais;Nord;Féron 59229;E4.0167;N50.0333;13;
3;FRA;Nord-Pas-de-Calais;Nord;Ferrière-la-Grande 59230;E4.0000;N50.2500;13;
3;FRA;Nord-Pas-de-Calais;Nord;Ferrière-la-Petite 59231;E4.0167;N50.2333;13;
3;FRA;Nord-Pas-de-Calais;Nord;Flaumont-Waudrechies 59233;E3.9667;N50.1167;13;
3;FRA;Nord-Pas-de-Calais;Nord;Flers-en-Escrebieux 59234;E3.0500;N50.4000;13;
3;FRA;Nord-Pas-de-Calais;Nord;Flers-lez-Lille 59235=59009;E3.1333;N50.6333;13;
3;FRA;Nord-Pas-de-Calais;Nord;Flesquières 59236;E3.1167;N50.1167;13;
3;FRA;Nord-Pas-de-Calais;Nord;Flêtre 59237;E2.6500;N50.7500;13;
3;FRA;Nord-Pas-de-Calais;Nord;Flines-lès-Mortagne 59238;E3.1666;N50.4333;13;
3;FRA;Nord-Pas-de-Calais;Nord;Flines-lez-Raches 59239;E3.1807;N50.4275;13;
3;FRA;Nord-Pas-de-Calais;Nord;Floursies 59240;E3.9667;N50.1833;13;
3;FRA;Nord-Pas-de-Calais;Nord;Floyon 59241;E3.9000;N50.0333;13;
3;FRA;Nord-Pas-de-Calais;Nord;Fontaine-au-Bois 59242;E3.6500;N50.1500;13;
3;FRA;Nord-Pas-de-Calais;Nord;Fontaine-au-Pire 59243;E3.3667;N50.1333;13;
3;FRA;Nord-Pas-de-Calais;Nord;Fontaine-Notre-Dame 59244;E3.1667;N50.1667;13;
3;FRA;Nord-Pas-de-Calais;Nord;Forenville 59245=59567;E3.2667;N50.1167;13;
3;FRA;Nord-Pas-de-Calais;Nord;Forest-en-Cambrésis 59246;E3.5667;N50.1333;13;
3;FRA;Nord-Pas-de-Calais;Nord;Forest-sur-Marque 59247;E3.1833;N50.6333;13;
3;FRA;Nord-Pas-de-Calais;Nord;Fort-Mardyck 59248;E2.3000;N51.0333;13;
3;FRA;Nord-Pas-de-Calais;Nord;Fourmies 59249;E4.0500;N50.0000;13;
3;FRA;Nord-Pas-de-Calais;Nord;Fournes-en-Weppes 59250;E2.8833;N50.5833;13;
3;FRA;Nord-Pas-de-Calais;Nord;Frasnoy 59251;E3.6833;N50.2667;13;
3;FRA;Nord-Pas-de-Calais;Nord;Frelinghien 59252;E2.9333;N50.7167;13;
3;FRA;Nord-Pas-de-Calais;Nord;Fresnes-sur-Escaut 59253;E3.5833;N50.4333;13;
3;FRA;Nord-Pas-de-Calais;Nord;Fressain 59254;E3.2000;N50.2833;13;
3;FRA;Nord-Pas-de-Calais;Nord;Fressies 59255;E3.2000;N50.2500;13;
3;FRA;Nord-Pas-de-Calais;Nord;Fretin 59256;E3.1333;N50.5500;13;
3;FRA;Nord-Pas-de-Calais;Nord;Fromelles 59257;E2.8500;N50.6000;13;
3;FRA;Nord-Pas-de-Calais;Nord;Genech 59258;E3.2167;N50.5333;13;
3;FRA;Nord-Pas-de-Calais;Nord;Ghissignies 59259;E3.6167;N50.2333;13;
3;FRA;Nord-Pas-de-Calais;Nord;Ghyvelde 59260;E2.5333;N51.0500;13;
3;FRA;Nord-Pas-de-Calais;Nord;Glageon 59261;E4.0667;N50.0500;13;
3;FRA;Nord-Pas-de-Calais;Nord;Godewaersvelde 59262;E2.6500;N50.8000;13;
3;FRA;Nord-Pas-de-Calais;Nord;Gognies-Chaussée 59264;E3.9500;N50.3333;13;
3;FRA;Nord-Pas-de-Calais;Nord;Gommegnies 59265;E3.7167;N50.2667;13;
3;FRA;Nord-Pas-de-Calais;Nord;Gondecourt 59266;E2.9833;N50.5500;13;
3;FRA;Nord-Pas-de-Calais;Nord;Gonnelieu 59267;E3.1500;N50.0500;13;
3;FRA;Nord-Pas-de-Calais;Nord;Goeulzin 59263;E3.1000;N50.3167;13;
3;FRA;Nord-Pas-de-Calais;Nord;Gouzeaucourt 59269;E3.1167;N50.0500;13;
3;FRA;Nord-Pas-de-Calais;Nord;Grand-Fayt 59270;E3.8167;N50.1000;13;
3;FRA;Nord-Pas-de-Calais;Nord;Grand-Fort-Philippe 59272;E2.1083;N51.0000;13;
3;FRA;Nord-Pas-de-Calais;Nord;Grande-Synthe 59271;E2.2833;N51.0167;13;
3;FRA;Nord-Pas-de-Calais;Nord;Gravelines 59273;E2.1250;N50.9833;13;
3;FRA;Nord-Pas-de-Calais;Nord;Gruson 59275;E3.2167;N50.6000;13;
3;FRA;Nord-Pas-de-Calais;Nord;Guesnain 59276;E3.1500;N50.3500;13;
3;FRA;Nord-Pas-de-Calais;Nord;Gussignies 59277;E3.7500;N50.3333;13;
3;FRA;Nord-Pas-de-Calais;Nord;Hallennes-lez-Haubourdin 59278;E2.95;N50.6000;13;
3;FRA;Nord-Pas-de-Calais;Nord;Halluin 59279;E3.1333;N50.7833;13;
3;FRA;Nord-Pas-de-Calais;Nord;Hamel 59280;E3.0833;N50.2833;13;
3;FRA;Nord-Pas-de-Calais;Nord;Hantay 59281;E2.8667;N50.5333;13;
3;FRA;Nord-Pas-de-Calais;Nord;Hardifort 59282;E2.4833;N50.8167;13;
3;FRA;Nord-Pas-de-Calais;Nord;Hargnies 59283;E3.8500;N50.2500;13;
3;FRA;Nord-Pas-de-Calais;Nord;Hasnon 59284;E3.3833;N50.4167;13;
3;FRA;Nord-Pas-de-Calais;Nord;Haspres 59285;E3.4167;N50.2500;13;
3;FRA;Nord-Pas-de-Calais;Nord;Haubourdin 59286;E2.9833;N50.6000;13;
3;FRA;Nord-Pas-de-Calais;Nord;Haucourt-en-Cambrésis 59287;E3.3500;N50.1000;13;
3;FRA;Nord-Pas-de-Calais;Nord;Haulchin 59288;E3.4333;N50.3167;13;
3;FRA;Nord-Pas-de-Calais;Nord;Haussy 59289;E3.4833;N50.2167;13;
3;FRA;Nord-Pas-de-Calais;Nord;Haut-Lieu 59290;E3.9000;E50.1;13;
3;FRA;Nord-Pas-de-Calais;Nord;Hautmont 59291;E3.9333;N50.2500;13;
3;FRA;Nord-Pas-de-Calais;Nord;Haveluy 59292;E3.4000;N50.3500;13;
3;FRA;Nord-Pas-de-Calais;Nord;Haverskerque 59293;E2.5469;N50.6436;13;
3;FRA;Nord-Pas-de-Calais;Nord;Haynecourt 59294;E3.1667;N50.2167;13;
3;FRA;Nord-Pas-de-Calais;Nord;Hazebrouck 59295;E2.5333;N50.7167;13;
3;FRA;Nord-Pas-de-Calais;Nord;Hecq 59296;E3.6333;N50.1833;13;
3;FRA;Nord-Pas-de-Calais;Nord;Hélesmes 59297;E3.3667;N50.3667;13;
3;FRA;Nord-Pas-de-Calais;Nord;Hellemmes-Lille 59298=59350;E3.1167;N50.6167;13;
3;FRA;Nord-Pas-de-Calais;Nord;Hem 59299;E3.2000;N50.6500;13;
3;FRA;Nord-Pas-de-Calais;Nord;Hem-Lenglet 59300;E3.2333;N50.2500;13;
3;FRA;Nord-Pas-de-Calais;Nord;Hergnies 59301;E3.5167;N50.4667;13;
3;FRA;Nord-Pas-de-Calais;Nord;Hérin 59302;E3.4500;N50.3500;13;
3;FRA;Nord-Pas-de-Calais;Nord;Herlies 59303;E2.8500;N50.5667;13;
3;FRA;Nord-Pas-de-Calais;Nord;Herrin 59304;E2.9667;N50.5500;13;
3;FRA;Nord-Pas-de-Calais;Nord;Herzeele 59305;E2.5333;N50.8833;13;
3;FRA;Nord-Pas-de-Calais;Nord;Hestrud 59306;E4.1333;N50.2000;13;
3;FRA;Nord-Pas-de-Calais;Nord;Holque 59307;E2.2000;N50.8500;13;
3;FRA;Nord-Pas-de-Calais;Nord;Hon-Hergies 59310;E3.8333;N50.3333;13;
3;FRA;Nord-Pas-de-Calais;Nord;Hondeghem 59308;E2.5217;N50.7573;13;
3;FRA;Nord-Pas-de-Calais;Nord;Hondschoote 59309;E2.5833;N50.9833;13;
3;FRA;Nord-Pas-de-Calais;Nord;Honnechy 59311;E3.4500;N50.0667;13;
3;FRA;Nord-Pas-de-Calais;Nord;Honnecourt-sur-Escaut 59312;E3.1998;N50.0384;13;
3;FRA;Nord-Pas-de-Calais;Nord;Hordain 59313;E3.3167;N50.2667;13;
3;FRA;Nord-Pas-de-Calais;Nord;Hornaing 59314;E3.3333;N50.3667;13;
3;FRA;Nord-Pas-de-Calais;Nord;Houdain-lez-Bavay 59315;E3.7833;N50.3167;13;
3;FRA;Nord-Pas-de-Calais;Nord;Houplin-Ancoisne 59316;E3.0000;N50.5667;13;
3;FRA;Nord-Pas-de-Calais;Nord;Houplines 59317;E2.9167;N50.7000;13;
3;FRA;Nord-Pas-de-Calais;Nord;Houtkerque 59318;E2.6000;N50.8833;13;
3;FRA;Nord-Pas-de-Calais;Nord;Hoymille 59319;E2.4500;N50.9833;13;
3;FRA;Nord-Pas-de-Calais;Nord;Illies 59320;E2.8333;N50.5667;13;
3;FRA;Nord-Pas-de-Calais;Nord;Inchy 59321;E3.4667;N50.1167;13;
3;FRA;Nord-Pas-de-Calais;Nord;Iwuy 59322;E3.3167;N50.2333;13;
3;FRA;Nord-Pas-de-Calais;Nord;Jenlain 59323;E3.6167;N50.3167;13;
3;FRA;Nord-Pas-de-Calais;Nord;Jeumont 59324;E4.1000;N50.3000;13;
3;FRA;Nord-Pas-de-Calais;Nord;Jolimetz 59325;E3.6833;N50.2333;13;
3;FRA;Nord-Pas-de-Calais;Nord;Killem 59326;E2.5667;N50.9667;13;
3;FRA;Nord-Pas-de-Calais;Nord;La Bassée 59051;E2.8000;N50.5333;13;
3;FRA;Nord-Pas-de-Calais;Nord;La Chapelle-d'Armentières 59143;E2.9;N50.6833;13;
3;FRA;Nord-Pas-de-Calais;Nord;La Flamengrie 59232;E3.7167;N50.3167;13;
3;FRA;Nord-Pas-de-Calais;Nord;La Gorgue 59268;E2.7000;N50.6333;13;
3;FRA;Nord-Pas-de-Calais;Nord;La Groise 59274;E3.6833;N50.0833;13;
3;FRA;Nord-Pas-de-Calais;Nord;La Longueville 59357;E3.8667;N50.2833;13;
3;FRA;Nord-Pas-de-Calais;Nord;La Madeleine 59368;E3.0667;N50.6500;13;
3;FRA;Nord-Pas-de-Calais;Nord;La Neuville 59427;E3.0500;N50.5000;13;
3;FRA;Nord-Pas-de-Calais;Nord;La Sentinelle 59564;E3.4833;N50.3500;13;
3;FRA;Nord-Pas-de-Calais;Nord;Lallaing 59327;E3.1667;N50.3833;13;
3;FRA;Nord-Pas-de-Calais;Nord;Lambersart 59328;E3.0333;N50.6500;13;
3;FRA;Nord-Pas-de-Calais;Nord;Lambres-lez-Douai 59329;E3.0667;N50.35;13;
3;FRA;Nord-Pas-de-Calais;Nord;Landas 59330;E3.3000;N50.4833;13;
3;FRA;Nord-Pas-de-Calais;Nord;Landrecies 59331;E3.7000;N50.1333;13;
3;FRA;Nord-Pas-de-Calais;Nord;Lannoy 59332;E3.2167;N50.6667;13;
3;FRA;Nord-Pas-de-Calais;Nord;Larouillies 59333;E3.9333;N50.0333;13;
3;FRA;Nord-Pas-de-Calais;Nord;Lauwin-Planque 59334;E3.0500;N50.3833;13;
3;FRA;Nord-Pas-de-Calais;Nord;Le Cateau-Cambrésis 59136;E3.5391;N50.1082;13;
3;FRA;Nord-Pas-de-Calais;Nord;Le Doulieu 59180;E2.7167;N50.6833;13;
3;FRA;Nord-Pas-de-Calais;Nord;Le Favril 59223;E3.7333;N50.1000;13;
3;FRA;Nord-Pas-de-Calais;Nord;Le Maisnil 59371;E2.8833;N50.6167;13;
3;FRA;Nord-Pas-de-Calais;Nord;Le Quesnoy 59481;E3.6333;N50.2500;13;
3;FRA;Nord-Pas-de-Calais;Nord;Lecelles 59335;E3.4000;N50.4667;13;
3;FRA;Nord-Pas-de-Calais;Nord;Lécluse 59336;E3.0333;N50.2667;13;
3;FRA;Nord-Pas-de-Calais;Nord;Lederzeele 59337;E2.2833;N50.8167;13;
3;FRA;Nord-Pas-de-Calais;Nord;Ledringhem 59338;E2.4333;N50.8500;13;
3;FRA;Nord-Pas-de-Calais;Nord;Leers 59339;E3.2500;N50.6833;13;
3;FRA;Nord-Pas-de-Calais;Nord;Leffrinckoucke 59340;E2.4667;N51.0333;13;
3;FRA;Nord-Pas-de-Calais;Nord;Les Moëres 59404;E2.5500;N51.0167;13;
3;FRA;Nord-Pas-de-Calais;Nord;Les Rues-des-Vignes 59517;E3.2333;N50.0936;13;
3;FRA;Nord-Pas-de-Calais;Nord;Lesdain 59341;E3.2667;N50.1000;13;
3;FRA;Nord-Pas-de-Calais;Nord;Lesquin 59343;E3.1167;N50.5833;13;
3;FRA;Nord-Pas-de-Calais;Nord;Leval 59344;E3.8333;N50.1833;13;
3;FRA;Nord-Pas-de-Calais;Nord;Lewarde 59345;E3.1667;N50.3500;13;
3;FRA;Nord-Pas-de-Calais;Nord;Lez-Fontaine 59342;E4.05;N50.1667;13;
3;FRA;Nord-Pas-de-Calais;Nord;Lezennes 59346;E3.1167;N50.6167;13;
3;FRA;Nord-Pas-de-Calais;Nord;Liessies 59347;E4.0833;N50.1167;13;
3;FRA;Nord-Pas-de-Calais;Nord;Lieu-Saint-Amand 59348;E3.3500;N50.2667;13;
3;FRA;Nord-Pas-de-Calais;Nord;Ligny-en-Cambrésis 59349;E3.3666667;N50.1;13;
3;FRA;Nord-Pas-de-Calais;Nord;Lille 59350;E3.0667;N50.6333;13;
3;FRA;Nord-Pas-de-Calais;Nord;Limont-Fontaine 59351;E3.9333;N50.2000;13;
3;FRA;Nord-Pas-de-Calais;Nord;Linselles 59352;E3.0833;N50.7333;13;
3;FRA;Nord-Pas-de-Calais;Nord;Locquignol 59353;E3.7167;N50.2000;13;
3;FRA;Nord-Pas-de-Calais;Nord;Loffre 59354;E3.1667;N50.3500;13;
3;FRA;Nord-Pas-de-Calais;Nord;Lomme 59355=59350;E2.9833;N50.6500;13;
3;FRA;Nord-Pas-de-Calais;Nord;Lompret 59356;E3.0000;N50.6667;13;
3;FRA;Nord-Pas-de-Calais;Nord;Looberghe 59358;E2.2667;N50.9167;13;
3;FRA;Nord-Pas-de-Calais;Nord;Loon-Plage 59359;E2.2167;N50.9833;13;
3;FRA;Nord-Pas-de-Calais;Nord;Loos 59360;E3.0167;N50.6167;13;
3;FRA;Nord-Pas-de-Calais;Nord;Lourches 59361;E3.3500;N50.3167;13;
3;FRA;Nord-Pas-de-Calais;Nord;Louvignies-Bavay 59362=59053;E3.8000;N50.3000;13;
3;FRA;Nord-Pas-de-Calais;Nord;Louvignies-Quesnoy 59363;E3.6333;N50.2333;13;
3;FRA;Nord-Pas-de-Calais;Nord;Louvil 59364;E3.2000;N50.5500;13;
3;FRA;Nord-Pas-de-Calais;Nord;Louvroil 59365;E3.9667;N50.2667;13;
3;FRA;Nord-Pas-de-Calais;Nord;Lynde 59366;E2.4167;N50.7167;13;
3;FRA;Nord-Pas-de-Calais;Nord;Lys-lez-Lannoy 59367;E3.2167;N50.6667;13;
3;FRA;Nord-Pas-de-Calais;Nord;Maing 59369;E3.4833;N50.3000;13;
3;FRA;Nord-Pas-de-Calais;Nord;Mairieux 59370;E3.9833;N50.3167;13;
3;FRA;Nord-Pas-de-Calais;Nord;Malincourt 59372;E3.3167;N50.0333;13;
3;FRA;Nord-Pas-de-Calais;Nord;Malo-les-Bains 59373=59183;E2.4000;N51.0500;13;
3;FRA;Nord-Pas-de-Calais;Nord;Marbaix 59374;E3.8500;N50.1333;13;
3;FRA;Nord-Pas-de-Calais;Nord;Marchiennes 59375;E3.2667;N50.4000;13;
3;FRA;Nord-Pas-de-Calais;Nord;Marchiennes-Campagne 59376=59501;E3.2666;N50.3833;13;
3;FRA;Nord-Pas-de-Calais;Nord;Marcoing 59377;E3.1833;N50.1167;13;
3;FRA;Nord-Pas-de-Calais;Nord;Marcq-en-Baroeul 59378;E3.0833;N50.6667;13;
3;FRA;Nord-Pas-de-Calais;Nord;Marcq-en-Ostrevent 59379;E3.2500;N50.2833;13;
3;FRA;Nord-Pas-de-Calais;Nord;Mardyck 59380=59183;E2.2500;N51.0167;13;
3;FRA;Nord-Pas-de-Calais;Nord;Maresches 59381;E3.5833;N50.3000;13;
3;FRA;Nord-Pas-de-Calais;Nord;Maretz 59382;E3.4167;N50.0500;13;
3;FRA;Nord-Pas-de-Calais;Nord;Marly 59383;E3.5500;N50.3500;13;
3;FRA;Nord-Pas-de-Calais;Nord;Maroilles 59384;E3.7500;N50.1333;13;
3;FRA;Nord-Pas-de-Calais;Nord;Marpent 59385;E4.0833;N50.3000;13;
3;FRA;Nord-Pas-de-Calais;Nord;Marquette-en-Ostrevant 59387;E3.2667;N50.2833;13;
3;FRA;Nord-Pas-de-Calais;Nord;Marquette-lez-Lille 59386;E3.0655;N50.6775;13;
3;FRA;Nord-Pas-de-Calais;Nord;Marquillies 59388;E2.8667;N50.5500;13;
3;FRA;Nord-Pas-de-Calais;Nord;Masnières 59389;E3.2167;N50.1167;13;
3;FRA;Nord-Pas-de-Calais;Nord;Masny 59390;E3.2000;N50.3500;13;
3;FRA;Nord-Pas-de-Calais;Nord;Mastaing 59391;E3.3000;N50.3000;13;
3;FRA;Nord-Pas-de-Calais;Nord;Maubeuge 59392;E3.9667;N50.2833;13;
3;FRA;Nord-Pas-de-Calais;Nord;Maulde 59393;E3.4333;N50.5000;13;
3;FRA;Nord-Pas-de-Calais;Nord;Maurois 59394;E3.4500;N50.0667;13;
3;FRA;Nord-Pas-de-Calais;Nord;Mazinghien 59395;E3.6000;N50.0500;13;
3;FRA;Nord-Pas-de-Calais;Nord;Mecquignies 59396;E3.8000;N50.2833;13;
3;FRA;Nord-Pas-de-Calais;Nord;Merckeghem 59397;E2.2833;N50.8667;13;
3;FRA;Nord-Pas-de-Calais;Nord;Mérignies 59398;E3.1167;N50.5000;13;
3;FRA;Nord-Pas-de-Calais;Nord;Merris 59399;E2.6667;N50.7167;13;
3;FRA;Nord-Pas-de-Calais;Nord;Merville 59400;E2.6333;N50.6333;13;
3;FRA;Nord-Pas-de-Calais;Nord;Méteren 59401;E2.7000;N50.7333;13;
3;FRA;Nord-Pas-de-Calais;Nord;Millam 59402;E2.2500;N50.8500;13;
3;FRA;Nord-Pas-de-Calais;Nord;Millonfosse 59403;E3.4000;N50.4333;13;
3;FRA;Nord-Pas-de-Calais;Nord;Monceau-Saint-Waast 59406;E3.8500;N50.1667;13;
3;FRA;Nord-Pas-de-Calais;Nord;Monchaux-sur-Écaillon 59407;E3.4667;N50.2833;13;
3;FRA;Nord-Pas-de-Calais;Nord;Moncheaux 59408;E3.0833;N50.4500;13;
3;FRA;Nord-Pas-de-Calais;Nord;Monchecourt 59409;E3.2167;N50.3000;13;
3;FRA;Nord-Pas-de-Calais;Nord;Mons-en-Baroeul 59410;E3.1107;N50.6416;13;
3;FRA;Nord-Pas-de-Calais;Nord;Mons-en-Pévèle 59411;E3.1000;N50.4833333;13;
3;FRA;Nord-Pas-de-Calais;Nord;Montay 59412;E3.5500;N50.1167;13;
3;FRA;Nord-Pas-de-Calais;Nord;Montigny-en-Cambrésis 59413;E3.4167;N50.1000;13;
3;FRA;Nord-Pas-de-Calais;Nord;Montigny-en-Ostrevent 59414;E3.185;N50.365;13;
3;FRA;Nord-Pas-de-Calais;Nord;Montrécourt 59415;E3.4500;N50.2333;13;
3;FRA;Nord-Pas-de-Calais;Nord;Morbecque 59416;E2.5167;N50.6931;13;
3;FRA;Nord-Pas-de-Calais;Nord;Morenchies 59417=59122;E3.2333333;N50.2000;13;
3;FRA;Nord-Pas-de-Calais;Nord;Mortagne-du-Nord 59418;E3.4500;N50.5000;13;
3;FRA;Nord-Pas-de-Calais;Nord;Mouchin 59419;E3.2833;N50.5167;13;
3;FRA;Nord-Pas-de-Calais;Nord;Moustier-en-Fagne 59420;E4.1833;N50.1000;13;
3;FRA;Nord-Pas-de-Calais;Nord;Mouvaux 59421;E3.1333;N50.7000;13;
3;FRA;Nord-Pas-de-Calais;Nord;Moeuvres 59405;E3.0667;N50.15;13;
3;FRA;Nord-Pas-de-Calais;Nord;Naves 59422;E3.3000;N50.2000;13;
3;FRA;Nord-Pas-de-Calais;Nord;Neuf-Berquin 59423;E2.6667;N50.6500;13;
3;FRA;Nord-Pas-de-Calais;Nord;Neuf-Mesnil 59424;E3.9000;N50.2667;13;
3;FRA;Nord-Pas-de-Calais;Nord;Neuville-en-Avesnois 59425;E3.5833;N50.2000;13;
3;FRA;Nord-Pas-de-Calais;Nord;Neuville-en-Ferrain 59426;E3.1500;N50.7500;13;
3;FRA;Nord-Pas-de-Calais;Nord;Neuville-Saint-Rémy 59428;E3.2333;N50.1833;13;
3;FRA;Nord-Pas-de-Calais;Nord;Neuville-sur-Escaut 59429;E3.35;N50.3;13;
3;FRA;Nord-Pas-de-Calais;Nord;Neuvilly 59430;E3.5167;N50.1333;13;
3;FRA;Nord-Pas-de-Calais;Nord;Nieppe 59431;E2.8333;N50.7000;13;
3;FRA;Nord-Pas-de-Calais;Nord;Niergnies 59432;E3.2500;N50.1500;13;
3;FRA;Nord-Pas-de-Calais;Nord;Nieurlet 59433;E2.2833;N50.7833;13;
3;FRA;Nord-Pas-de-Calais;Nord;Nivelle 59434;E3.4667;N50.4667;13;
3;FRA;Nord-Pas-de-Calais;Nord;Nomain 59435;E3.2500;N50.5000;13;
3;FRA;Nord-Pas-de-Calais;Nord;Noordpeene 59436;E3.2500;N50.5000;13;
3;FRA;Nord-Pas-de-Calais;Nord;Noyelles-lès-Seclin 59437;E2.4000;N50.8000;13;
3;FRA;Nord-Pas-de-Calais;Nord;Noyelles-sur-Escaut 59438;E3.0167;N50.5833;13;
3;FRA;Nord-Pas-de-Calais;Nord;Noyelles-sur-Sambre 59439;E3.8000;N50.1570;13;
3;FRA;Nord-Pas-de-Calais;Nord;Noyelles-sur-Selle 59440;E3.3833;N50.2833;13;
3;FRA;Nord-Pas-de-Calais;Nord;Obies 59441;E3.7833;N50.2667;13;
3;FRA;Nord-Pas-de-Calais;Nord;Obrechies 59442;E4.0333;N50.2167;13;
3;FRA;Nord-Pas-de-Calais;Nord;Ochtezeele 59443;E2.4000;N50.8167;13;
3;FRA;Nord-Pas-de-Calais;Nord;Odomez 59444;E3.5500;N50.4500;13;
3;FRA;Nord-Pas-de-Calais;Nord;Ohain 59445;E4.1167;N50.0500;13;
3;FRA;Nord-Pas-de-Calais;Nord;Oisy 59446;E3.4333;N50.3500;13;
3;FRA;Nord-Pas-de-Calais;Nord;Onnaing 59447;E3.6000;N50.3833;13;
3;FRA;Nord-Pas-de-Calais;Nord;Oost-Cappel 59448;E2.6000;N50.9167;13;
3;FRA;Nord-Pas-de-Calais;Nord;Orchies 59449;E3.2333;N50.4667;13;
3;FRA;Nord-Pas-de-Calais;Nord;Ors 59450;E3.6333;N50.1000;13;
3;FRA;Nord-Pas-de-Calais;Nord;Orsinval 59451;E3.6333;N50.2667;13;
3;FRA;Nord-Pas-de-Calais;Nord;Ostricourt 59452;E3.0333;N50.4500;13;
3;FRA;Nord-Pas-de-Calais;Nord;Oudezeele 59453;E2.5167;N50.8393;13;
3;FRA;Nord-Pas-de-Calais;Nord;Oxelaëre 59454;E2.4833;N50.7833;13;
3;FRA;Nord-Pas-de-Calais;Nord;Paillencourt 59455;E3.2833;N50.2500;13;
3;FRA;Nord-Pas-de-Calais;Nord;Pecquencourt 59456;E3.2167;N50.3833;13;
3;FRA;Nord-Pas-de-Calais;Nord;Pérenchies 59457;E2.9667;N50.6667;13;
3;FRA;Nord-Pas-de-Calais;Nord;Péronne-en-Mélantois 59458;E3.1667;N50.5667;13;
3;FRA;Nord-Pas-de-Calais;Nord;Petit-Fayt 59461;E3.8333;N50.1000;13;
3;FRA;Nord-Pas-de-Calais;Nord;Petite-Forêt 59459;E3.4833;N50.3667;13;
3;FRA;Nord-Pas-de-Calais;Nord;Petite-Synthe 59460=59183;E2.3167;N51.0167;13;
3;FRA;Nord-Pas-de-Calais;Nord;Phalempin 59462;E3.0167;N50.5167;13;
3;FRA;Nord-Pas-de-Calais;Nord;Pitgam 59463;E2.3333;N50.9333;13;
3;FRA;Nord-Pas-de-Calais;Nord;Poix-du-Nord 59464;E3.6000;N50.2000;13;
3;FRA;Nord-Pas-de-Calais;Nord;Pommereuil 59465;E3.6000;N50.1000;13;
3;FRA;Nord-Pas-de-Calais;Nord;Pont-à-Marcq 59466;E3.1167;N50.5167;13;
3;FRA;Nord-Pas-de-Calais;Nord;Pont-sur-Sambre 59467;E3.8333;N50.2167;13;
3;FRA;Nord-Pas-de-Calais;Nord;Potelle 59468;E3.6773;N50.2461;13;
3;FRA;Nord-Pas-de-Calais;Nord;Pradelles 59469;E2.6000;N50.7333;13;
3;FRA;Nord-Pas-de-Calais;Nord;Prémesques 59470;E2.9500;N50.6500;13;
3;FRA;Nord-Pas-de-Calais;Nord;Préseau 59471;E3.5667;N50.3167;13;
3;FRA;Nord-Pas-de-Calais;Nord;Preux-au-Bois 59472;E3.6500;N50.1667;13;
3;FRA;Nord-Pas-de-Calais;Nord;Preux-au-Sart 59473;E3.6833;N50.2833;13;
3;FRA;Nord-Pas-de-Calais;Nord;Prisches 59474;E3.7667;N50.0833;13;
3;FRA;Nord-Pas-de-Calais;Nord;Prouvy 59475;E3.4500;N50.3167;13;
3;FRA;Nord-Pas-de-Calais;Nord;Proville 59476;E3.2000;N50.1667;13;
3;FRA;Nord-Pas-de-Calais;Nord;Provin 59477;E2.9167;N50.5167;13;
3;FRA;Nord-Pas-de-Calais;Nord;Quaëdypre 59478;E2.4667;N50.9333;13;
3;FRA;Nord-Pas-de-Calais;Nord;Quarouble 59479;E3.6167;N50.3833;13;
3;FRA;Nord-Pas-de-Calais;Nord;Quérénaing 59480;E3.5167;N50.2833;13;
3;FRA;Nord-Pas-de-Calais;Nord;Quesnoy-sur-Deûle 59482;E3.0000;N50.7167;13;
3;FRA;Nord-Pas-de-Calais;Nord;Quiévelon 59483;E4.0833;N50.2333;13;
3;FRA;Nord-Pas-de-Calais;Nord;Quiévrechain 59484;E3.6667;N50.3833;13;
3;FRA;Nord-Pas-de-Calais;Nord;Quiévy 59485;E3.4167;N50.1667;13;
3;FRA;Nord-Pas-de-Calais;Nord;Râches 59486;E3.1333;N50.4167;13;
3;FRA;Nord-Pas-de-Calais;Nord;Radinghem-en-Weppes 59487;E2.9167;N50.6167;13;
3;FRA;Nord-Pas-de-Calais;Nord;Raillencourt-Sainte-Olle 59488;E3.1667;N50.1833;13;
3;FRA;Nord-Pas-de-Calais;Nord;Raimbeaucourt 59489;E3.0833;N50.4333;13;
3;FRA;Nord-Pas-de-Calais;Nord;Rainsars 59490;E4.0000;N50.0667;13;
3;FRA;Nord-Pas-de-Calais;Nord;Raismes 59491;E3.4833;N50.3833;13;
3;FRA;Nord-Pas-de-Calais;Nord;Ramillies 59492;E3.2500;N50.2000;13;
3;FRA;Nord-Pas-de-Calais;Nord;Ramousies 59493;E4.0333;N50.1167;13;
3;FRA;Nord-Pas-de-Calais;Nord;Raucourt-au-Bois 59494;E3.6500;N50.2167;13;
3;FRA;Nord-Pas-de-Calais;Nord;Recquignies 59495;E4.0500;N50.2833;13;
3;FRA;Nord-Pas-de-Calais;Nord;Rejet-de-Beaulieu 59496;E3.6167;N50.0333;13;
3;FRA;Nord-Pas-de-Calais;Nord;Renescure 59497;E2.3667;N50.7333;13;
3;FRA;Nord-Pas-de-Calais;Nord;Reumont 59498;E3.4833;N50.0833;13;
3;FRA;Nord-Pas-de-Calais;Nord;Rexpoëde 59499;E2.5333;N50.9333;13;
3;FRA;Nord-Pas-de-Calais;Nord;Ribécourt-la-Tour 59500;E3.1167;N50.1000;13;
3;FRA;Nord-Pas-de-Calais;Nord;Rieulay 59501;E3.2667;N50.3833;13;
3;FRA;Nord-Pas-de-Calais;Nord;Rieux-en-Cambrésis 59502;E3.3500;N50.2000;13;
3;FRA;Nord-Pas-de-Calais;Nord;Robersart 59503;E3.6333;N50.1500;13;
3;FRA;Nord-Pas-de-Calais;Nord;Rombies-et-Marchipont 59505;E3.6500;N50.3667;13;
3;FRA;Nord-Pas-de-Calais;Nord;Romeries 59506;E3.5333;N50.2000;13;
3;FRA;Nord-Pas-de-Calais;Nord;Ronchin 59507;E3.1000;N50.6000;13;
3;FRA;Nord-Pas-de-Calais;Nord;Roncq 59508;E3.1167;N50.7500;13;
3;FRA;Nord-Pas-de-Calais;Nord;Roost-Warendin 59509;E3.0833;N50.4167;13;
3;FRA;Nord-Pas-de-Calais;Nord;Rosendaël 59510=59183;E2.4000;N51.0333;13;
3;FRA;Nord-Pas-de-Calais;Nord;Rosult 59511;E3.3500;N50.4500;13;
3;FRA;Nord-Pas-de-Calais;Nord;Roubaix 59512;E3.1667;N50.7000;13;
3;FRA;Nord-Pas-de-Calais;Nord;Roucourt 59513;E3.1500;N50.3333;13;
3;FRA;Nord-Pas-de-Calais;Nord;Roeulx 59504;E3.3333;N50.3;13;
3;FRA;Nord-Pas-de-Calais;Nord;Rousies 59514;E4.0000;N50.2667;13;
3;FRA;Nord-Pas-de-Calais;Nord;Rouvignies 59515;E3.4333;N50.3333;13;
3;FRA;Nord-Pas-de-Calais;Nord;Rubrouck 59516;E2.3500;N50.8333;13;
3;FRA;Nord-Pas-de-Calais;Nord;Ruesnes 59518;E3.5833;N50.2667;13;
3;FRA;Nord-Pas-de-Calais;Nord;Rumegies 59519;E3.3500;N50.4833;13;
3;FRA;Nord-Pas-de-Calais;Nord;Rumilly-en-Cambrésis 59520;E3.2167;N50.1333;13;
3;FRA;Nord-Pas-de-Calais;Nord;Sailly-lez-Cambrai 59521;E3.1667;N50.2000;13;
3;FRA;Nord-Pas-de-Calais;Nord;Sailly-lez-Lannoy 59522;E3.2166667;N50.65;13;
3;FRA;Nord-Pas-de-Calais;Nord;Sainghin-en-Mélantois 59523;E3.1667;N50.5833;13;
3;FRA;Nord-Pas-de-Calais;Nord;Sainghin-en-Weppes 59524;E2.9000;N50.5500;13;
3;FRA;Nord-Pas-de-Calais;Nord;Sains-du-Nord 59525;E4.0000;N50.1000;13;
3;FRA;Nord-Pas-de-Calais;Nord;Saint-Amand-les-Eaux 59526;E3.4333;N50.4333;13;
3;FRA;Nord-Pas-de-Calais;Nord;Saint-André-lez-Lille 59527;E3.0500;N50.6667;13;
3;FRA;Nord-Pas-de-Calais;Nord;Saint-Aubert 59528;E3.4167;N50.2167;13;
3;FRA;Nord-Pas-de-Calais;Nord;Saint-Aubin 59529;E3.9167;N50.1667;13;
3;FRA;Nord-Pas-de-Calais;Nord;Saint-Aybert 59530;E3.6500;N50.4500;13;
3;FRA;Nord-Pas-de-Calais;Nord;Saint-Benin 59531;E3.5167;N50.0667;13;
3;FRA;Nord-Pas-de-Calais;Nord;Saint-Georges-sur-l'Aa 59532;E2.1667;N50.9667;13;
3;FRA;Nord-Pas-de-Calais;Nord;Saint-Hilaire-lez-Cambrai 59533;E3.9000;N50.1333;13;
3;FRA;Nord-Pas-de-Calais;Nord;Saint-Hilaire-sur-Helpe 59534;E3.9;N50.1333;13;
3;FRA;Nord-Pas-de-Calais;Nord;Saint-Jans-Cappel 59535;E2.7167;N50.7667;13;
3;FRA;Nord-Pas-de-Calais;Nord;Saint-Martin-sur-Écaillon 59537;E3.5333;N50.2500;13;
3;FRA;Nord-Pas-de-Calais;Nord;Saint-Momelin 59538;E2.2500;N50.8000;13;
3;FRA;Nord-Pas-de-Calais;Nord;Saint-Pierre-Brouck 59539;E2.1833;N50.9000;13;
3;FRA;Nord-Pas-de-Calais;Nord;Saint-Pol-sur-Mer 59540;E2.3500;N51.0333;13;
3;FRA;Nord-Pas-de-Calais;Nord;Saint-Python 59541;E3.4833;N50.1833;13;
3;FRA;Nord-Pas-de-Calais;Nord;Saint-Remy-Chaussée 59542;E3.8667;N50.1667;13;
3;FRA;Nord-Pas-de-Calais;Nord;Saint-Remy-du-Nord 59543;E3.9167;N50.2333;13;
3;FRA;Nord-Pas-de-Calais;Nord;Saint-Saulve 59544;E3.5500;N50.3667;13;
3;FRA;Nord-Pas-de-Calais;Nord;Saint-Souplet 59545;E3.5333;N50.0500;13;
3;FRA;Nord-Pas-de-Calais;Nord;Saint-Sylvestre-Cappel 59546;E2.5526;N50.7757;13;
3;FRA;Nord-Pas-de-Calais;Nord;Saint-Vaast-en-Cambrésis 59547;E3.4167;N50.1833;13;
3;FRA;Nord-Pas-de-Calais;Nord;Saint-Waast 59548;E3.2696;N50.128;13;
3;FRA;Nord-Pas-de-Calais;Nord;Sainte-Marie-Cappel 59536;E2.5092;N50.7848;13;
3;FRA;Nord-Pas-de-Calais;Nord;Salesches 59549;E3.5833;N50.2000;13;
3;FRA;Nord-Pas-de-Calais;Nord;Salomé 59550;E2.8333;N50.5333;13;
3;FRA;Nord-Pas-de-Calais;Nord;Saméon 59551;E3.3333;N50.4833;13;
3;FRA;Nord-Pas-de-Calais;Nord;Sancourt 59552;E3.2000;N50.2167;13;
3;FRA;Nord-Pas-de-Calais;Nord;Santes 59553;E2.9500;N50.6000;13;
3;FRA;Nord-Pas-de-Calais;Nord;Sars-et-Rosières 59554;E3.3333;N50.4500;13;
3;FRA;Nord-Pas-de-Calais;Nord;Sars-Poteries 59555;E4.0167;N50.1667;13;
3;FRA;Nord-Pas-de-Calais;Nord;Sassegnies 59556;E3.8000;N50.1833;13;
3;FRA;Nord-Pas-de-Calais;Nord;Saultain 59557;E3.5833;N50.3333;13;
3;FRA;Nord-Pas-de-Calais;Nord;Saulzoir 59558;E3.4500;N50.2333;13;
3;FRA;Nord-Pas-de-Calais;Nord;Sebourg 59559;E3.6500;N50.3500;13;
3;FRA;Nord-Pas-de-Calais;Nord;Seclin 59560;E3.0333;N50.5500;13;
3;FRA;Nord-Pas-de-Calais;Nord;Selvigny 59561=59631;E3.3500;N50.0667;13;
3;FRA;Nord-Pas-de-Calais;Nord;Sémeries 59562;E4.0000;N50.1167;13;
3;FRA;Nord-Pas-de-Calais;Nord;Semousies 59563;E3.9667;N50.1667;13;
3;FRA;Nord-Pas-de-Calais;Nord;Sepmeries 59565;E3.5667;N50.2833;13;
3;FRA;Nord-Pas-de-Calais;Nord;Sequedin 59566;E2.9833;N50.6167;13;
3;FRA;Nord-Pas-de-Calais;Nord;Séranvillers-Forenville 59567;E1.5666;N50.1167;13;
3;FRA;Nord-Pas-de-Calais;Nord;Sercus 59568;E2.4500;N50.7000;13;
3;FRA;Nord-Pas-de-Calais;Nord;Sin-le-Noble 59569;E3.1167;N50.3667;13;
3;FRA;Nord-Pas-de-Calais;Nord;Socx 59570;E2.4167;N50.9333;13;
3;FRA;Nord-Pas-de-Calais;Nord;Solesmes 59571;E3.5000;N50.1833;13;
3;FRA;Nord-Pas-de-Calais;Nord;Solre-le-Château 59572;E4.0833;N50.1667;13;
3;FRA;Nord-Pas-de-Calais;Nord;Solrinnes 59573;E4.0667;N50.2000;13;
3;FRA;Nord-Pas-de-Calais;Nord;Somain 59574;E3.2833;N50.3667;13;
3;FRA;Nord-Pas-de-Calais;Nord;Sommaing 59575;E3.5000;N50.2667;13;
3;FRA;Nord-Pas-de-Calais;Nord;Spycker 59576;E2.3167;N50.9667;13;
3;FRA;Nord-Pas-de-Calais;Nord;Staple 59577;E2.4500;N50.7500;13;
3;FRA;Nord-Pas-de-Calais;Nord;Steenbecque 59578;E2.4833;N50.6667;13;
3;FRA;Nord-Pas-de-Calais;Nord;Steene 59579;E2.3833;N50.9500;13;
3;FRA;Nord-Pas-de-Calais;Nord;Steenvoorde 59580;E2.5833;N50.8096;13;
3;FRA;Nord-Pas-de-Calais;Nord;Steenwerck 59581;E2.7833;N50.7000;13;
3;FRA;Nord-Pas-de-Calais;Nord;Strazeele 59582;E2.6333;N50.7167;13;
3;FRA;Nord-Pas-de-Calais;Nord;Taisnières-en-Thiérache 59583;E3.8167;N50.1500;13;
3;FRA;Nord-Pas-de-Calais;Nord;Taisnières-sur-Hon 59584;E3.8500;N50.3167;13;
3;FRA;Nord-Pas-de-Calais;Nord;Templemars 59585;E3.0500;N50.5667;13;
3;FRA;Nord-Pas-de-Calais;Nord;Templeuve 59586;E3.1667;N50.5333;13;
3;FRA;Nord-Pas-de-Calais;Nord;Terdeghem 59587;E2.5384;N50.8000;13;
3;FRA;Nord-Pas-de-Calais;Nord;Téteghem 59588;E2.4333;N51.0167;13;
3;FRA;Nord-Pas-de-Calais;Nord;Thiant 59589;E3.4500;N50.3000;13;
3;FRA;Nord-Pas-de-Calais;Nord;Thiennes 59590;E2.4667;N50.6500;13;
3;FRA;Nord-Pas-de-Calais;Nord;Thivencelle 59591;E3.6333;N50.4333;13;
3;FRA;Nord-Pas-de-Calais;Nord;Thumeries 59592;E3.0500;N50.4833;13;
3;FRA;Nord-Pas-de-Calais;Nord;Thun-l'Évêque 59593;E3.2833;N50.2333;13;
3;FRA;Nord-Pas-de-Calais;Nord;Thun-Saint-Amand 59594;E3.4500;N50.4667;13;
3;FRA;Nord-Pas-de-Calais;Nord;Thun-Saint-Martin 59595;E3.3000;N50.2167;13;
3;FRA;Nord-Pas-de-Calais;Nord;Tilloy-lez-Cambrai 59597;E3.3167;N50.4333;13;
3;FRA;Nord-Pas-de-Calais;Nord;Tilloy-lez-Marchiennes 59596;E3.3166699;N50.4333;13;
3;FRA;Nord-Pas-de-Calais;Nord;Toufflers 59598;E3.2333;N50.6667;13;
3;FRA;Nord-Pas-de-Calais;Nord;Tourcoing 59599;E3.1500;N50.7167;13;
3;FRA;Nord-Pas-de-Calais;Nord;Tourmignies 59600;E3.0833;N50.5000;13;
3;FRA;Nord-Pas-de-Calais;Nord;Trélon 59601;E4.1000;N50.0667;13;
3;FRA;Nord-Pas-de-Calais;Nord;Tressin 59602;E3.2000;N50.6000;13;
3;FRA;Nord-Pas-de-Calais;Nord;Trith-Saint-Léger 59603;E3.4833;N50.3167;13;
3;FRA;Nord-Pas-de-Calais;Nord;Troisvilles 59604;E3.4667;N50.1000;13;
3;FRA;Nord-Pas-de-Calais;Nord;Uxem 59605;E2.4833;N51.0167;13;
3;FRA;Nord-Pas-de-Calais;Nord;Valenciennes 59606;E3.5333;N50.3500;13;
3;FRA;Nord-Pas-de-Calais;Nord;Vendegies-au-Bois 59607;E3.5833;N50.1833;13;
3;FRA;Nord-Pas-de-Calais;Nord;Vendegies-sur-Écaillon 59608;E3.5167;N50.2667;13;
3;FRA;Nord-Pas-de-Calais;Nord;Vendeville 59609;E3.0667;N50.5667;13;
3;FRA;Nord-Pas-de-Calais;Nord;Verchain-Maugré 59610;E3.4833;N50.2674;13;
3;FRA;Nord-Pas-de-Calais;Nord;Verlinghem 59611;E3.0000;N50.6833;13;
3;FRA;Nord-Pas-de-Calais;Nord;Vertain 59612;E3.5333;N50.2167;13;
3;FRA;Nord-Pas-de-Calais;Nord;Vicq 59613;E3.6000;N50.4167;13;
3;FRA;Nord-Pas-de-Calais;Nord;Viesly 59614;E3.4667;N50.1500;13;
3;FRA;Nord-Pas-de-Calais;Nord;Vieux-Berquin 59615;E2.6333;N50.7000;13;
3;FRA;Nord-Pas-de-Calais;Nord;Vieux-Condé 59616;E3.3333;N50.4833;13;
3;FRA;Nord-Pas-de-Calais;Nord;Vieux-Mesnil 59617;E3.8667;N50.2500;13;
3;FRA;Nord-Pas-de-Calais;Nord;Vieux-Reng 59618;E4.0500;N50.3333;13;
3;FRA;Nord-Pas-de-Calais;Nord;Villeneuve-d'Ascq 59009;E3.1417;N50.1;13;
3;FRA;Nord-Pas-de-Calais;Nord;Villereau 59619;E3.6667;N50.2500;13;
3;FRA;Nord-Pas-de-Calais;Nord;Villers-au-Tertre 59620;E3.1833;N50.3000;13;
3;FRA;Nord-Pas-de-Calais;Nord;Villers-Campeau 59621=59574;E3.2833333;N50.3666667;13;
3;FRA;Nord-Pas-de-Calais;Nord;Villers-en-Cauchies 59622;E3.4000;N50.2167;13;
3;FRA;Nord-Pas-de-Calais;Nord;Villers-Guislain 59623;E3.1500;N50.0333;13;
3;FRA;Nord-Pas-de-Calais;Nord;Villers-Outréaux 59624;E3.3000;N50.0333;13;
3;FRA;Nord-Pas-de-Calais;Nord;Villers-Plouich 59625;E3.1333;N50.0833;13;
3;FRA;Nord-Pas-de-Calais;Nord;Villers-Pol 59626;E3.6167;N50.2833;13;
3;FRA;Nord-Pas-de-Calais;Nord;Villers-Sire-Nicole 59627;E4.0167;N50.3333;13;
3;FRA;Nord-Pas-de-Calais;Nord;Volckerinckhove 59628;E2.3000;N50.8333;13;
3;FRA;Nord-Pas-de-Calais;Nord;Vred 59629;E3.2333;N50.4000;13;
3;FRA;Nord-Pas-de-Calais;Nord;Wahagnies 59630;E3.0333;N50.4833;13;
3;FRA;Nord-Pas-de-Calais;Nord;Walincourt-Selvigny 59631;E3.3333;N50.0667;13;
3;FRA;Nord-Pas-de-Calais;Nord;Wallers 59632;E3.4000;N50.3667;13;
3;FRA;Nord-Pas-de-Calais;Nord;Wallers-Trélon 59633;E4.1667;N50.0667;13;
3;FRA;Nord-Pas-de-Calais;Nord;Wallon-Cappel 59634;E2.4833;N50.7333;13;
3;FRA;Nord-Pas-de-Calais;Nord;Wambaix 59635;E3.3000;N50.1333;13;
3;FRA;Nord-Pas-de-Calais;Nord;Wambrechies 59636;E3.0500;N50.6833;13;
3;FRA;Nord-Pas-de-Calais;Nord;Wandignies-Hamage 59637;E3.3167;N50.4000;13;
3;FRA;Nord-Pas-de-Calais;Nord;Wannehain 59638;E3.2667;N50.5667;13;
3;FRA;Nord-Pas-de-Calais;Nord;Wargnies-le-Grand 59639;E3.6500;N50.3167;13;
3;FRA;Nord-Pas-de-Calais;Nord;Wargnies-le-Petit 59640;E3.6667;N50.3000;13;
3;FRA;Nord-Pas-de-Calais;Nord;Warhem 59641;E2.5000;N50.9833;13;
3;FRA;Nord-Pas-de-Calais;Nord;Warlaing 59642;E3.3333;N50.4167;13;
3;FRA;Nord-Pas-de-Calais;Nord;Warneton 59643;E2.9557;N50.7478;13;
3;FRA;Nord-Pas-de-Calais;Nord;Warneton-Sud 59644=59643;E2.953;N50.748;13;
3;FRA;Nord-Pas-de-Calais;Nord;Wasnes-au-Bac 59645;E3.2667;N50.2667;13;
3;FRA;Nord-Pas-de-Calais;Nord;Wasquehal 59646;E3.1500;N50.6667;13;
3;FRA;Nord-Pas-de-Calais;Nord;Watten 59647;E2.2167;N50.8342;13;
3;FRA;Nord-Pas-de-Calais;Nord;Wattignies 59648;E3.0500;N50.5833;13;
3;FRA;Nord-Pas-de-Calais;Nord;Wattignies-la-Victoire 59649;E4.0167;N50.2000;13;
3;FRA;Nord-Pas-de-Calais;Nord;Wattrelos 59650;E3.2167;N50.7000;13;
3;FRA;Nord-Pas-de-Calais;Nord;Wavrechain-sous-Denain 59651;E3.4167;N50.3333;13;
3;FRA;Nord-Pas-de-Calais;Nord;Wavrechain-sous-Faulx 59652;E3.2833;N50.2667;13;
3;FRA;Nord-Pas-de-Calais;Nord;Wavrin 59653;E2.9167;N50.5667;13;
3;FRA;Nord-Pas-de-Calais;Nord;Waziers 59654;E3.1167;N50.3833;13;
3;FRA;Nord-Pas-de-Calais;Nord;Wemaers-Cappel 59655;E2.4500;N50.8000;13;
3;FRA;Nord-Pas-de-Calais;Nord;Wervicq-Sud 59656;E3.0500;N50.7667;13;
3;FRA;Nord-Pas-de-Calais;Nord;West-Cappel 59657;E2.5000;N50.9333;13;
3;FRA;Nord-Pas-de-Calais;Nord;Wicres 59658;E2.8667;N50.5667;13;
3;FRA;Nord-Pas-de-Calais;Nord;Wignehies 59659;E4.0000;N50.0167;13;
3;FRA;Nord-Pas-de-Calais;Nord;Willems 59660;E3.2333;N50.6333;13;
3;FRA;Nord-Pas-de-Calais;Nord;Willies 59661;E4.1000;N50.1167;13;
3;FRA;Nord-Pas-de-Calais;Nord;Winnezeele 59662;E2.5500;N50.8414;13;
3;FRA;Nord-Pas-de-Calais;Nord;Wormhout 59663;E2.4667;N50.8833;13;
3;FRA;Nord-Pas-de-Calais;Nord;Wulverdinghe 59664;E2.2500;N50.8333;13;
3;FRA;Nord-Pas-de-Calais;Nord;Wylder 59665;E2.5000;N50.9167;13;
3;FRA;Nord-Pas-de-Calais;Nord;Zegerscappel 59666;E2.3866;N50.8880;13;
3;FRA;Nord-Pas-de-Calais;Nord;Zermezeele 59667;E2.4505;N50.8248;13;
3;FRA;Nord-Pas-de-Calais;Nord;Zuydcoote 59668;E2.4901;N51.0664;13;
3;FRA;Nord-Pas-de-Calais;Nord;Zuytpeene 59669;E2.4300;N50.7947;13;
2;FRA;Nord-Pas-de-Calais;Pas-de-Calais;;E3.0333;N50.53;9;
3;FRA;Nord-Pas-de-Calais;Pas-de-Calais;Ablain-Saint-Nazaire 62001;E2.7100;N50.3930;13;
3;FRA;Nord-Pas-de-Calais;Pas-de-Calais;Ablainzevelle 62002;E2.7333;N50.1500;13;
3;FRA;Nord-Pas-de-Calais;Pas-de-Calais;Acheville 62003;E2.8833;N50.3833;13;
3;FRA;Nord-Pas-de-Calais;Pas-de-Calais;Achicourt 62004;E2.7667;N50.2667;13;
3;FRA;Nord-Pas-de-Calais;Pas-de-Calais;Achiet-le-Grand 62005;E2.7833;N50.1333;13;
3;FRA;Nord-Pas-de-Calais;Pas-de-Calais;Achiet-le-Petit 62006;E2.7500;N50.1167;13;
3;FRA;Nord-Pas-de-Calais;Pas-de-Calais;Acq 62007;E2.6500;N50.3500;13;
3;FRA;Nord-Pas-de-Calais;Pas-de-Calais;Acquin-Westbécourt 62008;E1.1833333;N49.1666667;13;
3;FRA;Nord-Pas-de-Calais;Pas-de-Calais;Adinfer 62009;E2.7000;N50.1833;13;
3;FRA;Nord-Pas-de-Calais;Pas-de-Calais;Affringues 62010;E2.0761;N50.6899;13;
3;FRA;Nord-Pas-de-Calais;Pas-de-Calais;Agnez-lès-Duisans 62011;E2.6585;N50.3085;13;
3;FRA;Nord-Pas-de-Calais;Pas-de-Calais;Agnières 62012;E2.6000;N50.3500;13;
3;FRA;Nord-Pas-de-Calais;Pas-de-Calais;Agny 62013;E2.7667;N50.2667;13;
3;FRA;Nord-Pas-de-Calais;Pas-de-Calais;Aire-sur-la-Lys 62014;E2.4000;N50.6333;13;
3;FRA;Nord-Pas-de-Calais;Pas-de-Calais;Airon-Notre-Dame 62015;E1.6667;N50.4333;13;
3;FRA;Nord-Pas-de-Calais;Pas-de-Calais;Airon-Saint-Vaast 62016;E1.6667;N50.4333;13;
3;FRA;Nord-Pas-de-Calais;Pas-de-Calais;Aix-en-Ergny 62017;E2.0000;N50.5833;13;
3;FRA;Nord-Pas-de-Calais;Pas-de-Calais;Aix-en-Issart 62018;E1.8500;N50.4833;13;
3;FRA;Nord-Pas-de-Calais;Pas-de-Calais;Aix-Noulette 62019;E2.7000;N50.4167;13;
3;FRA;Nord-Pas-de-Calais;Pas-de-Calais;Alembon 62020;E1.8833;N50.7833;13;
3;FRA;Nord-Pas-de-Calais;Pas-de-Calais;Alette 62021;E1.8167;N50.5167;13;
3;FRA;Nord-Pas-de-Calais;Pas-de-Calais;Alincthun 62022;E1.8000;N50.7333;13;
3;FRA;Nord-Pas-de-Calais;Pas-de-Calais;Allouagne 62023;E2.5000;N50.5333;13;
3;FRA;Nord-Pas-de-Calais;Pas-de-Calais;Alquines 62024;E2.0000;N50.7500;13;
3;FRA;Nord-Pas-de-Calais;Pas-de-Calais;Ambleteuse 62025;E1.6000;N50.8000;13;
3;FRA;Nord-Pas-de-Calais;Pas-de-Calais;Ambricourt 62026;E2.1833;N50.4667;13;
3;FRA;Nord-Pas-de-Calais;Pas-de-Calais;Ambrines 62027;E2.4667;N50.3167;13;
3;FRA;Nord-Pas-de-Calais;Pas-de-Calais;Ames 62028;E2.4167;N50.5500;13;
3;FRA;Nord-Pas-de-Calais;Pas-de-Calais;Amettes 62029;E2.4000;N50.5333;13;
3;FRA;Nord-Pas-de-Calais;Pas-de-Calais;Amplier 62030;E2.4000;N50.1333;13;
3;FRA;Nord-Pas-de-Calais;Pas-de-Calais;Andres 62031;E1.9167;N50.8667;13;
3;FRA;Nord-Pas-de-Calais;Pas-de-Calais;Angres 62032;E2.7500;N50.4167;13;
3;FRA;Nord-Pas-de-Calais;Pas-de-Calais;Annay 62033;E2.8833;N50.4667;13;
3;FRA;Nord-Pas-de-Calais;Pas-de-Calais;Annequin 62034;E2.7167;N50.5000;13;
3;FRA;Nord-Pas-de-Calais;Pas-de-Calais;Annezin 62035;E2.6167;N50.5333;13;
3;FRA;Nord-Pas-de-Calais;Pas-de-Calais;Anvin 62036;E2.2500;N50.4500;13;
3;FRA;Nord-Pas-de-Calais;Pas-de-Calais;Anzin-Saint-Aubin 62037;E2.7500;N50.3167;13;
3;FRA;Nord-Pas-de-Calais;Pas-de-Calais;Ardres 62038;E1.9833;N50.8500;13;
3;FRA;Nord-Pas-de-Calais;Pas-de-Calais;Arleux-en-Gohelle 62039;E2.8667;N50.3667;13;
3;FRA;Nord-Pas-de-Calais;Pas-de-Calais;Arques 62040;E2.2833;N50.7333;13;
3;FRA;Nord-Pas-de-Calais;Pas-de-Calais;Arras 62041;E2.7833;N50.2833;13;
3;FRA;Nord-Pas-de-Calais;Pas-de-Calais;Athies 62042;E2.8333;N50.3000;13;
3;FRA;Nord-Pas-de-Calais;Pas-de-Calais;Attin 62044;E1.7500;N50.4833;13;
3;FRA;Nord-Pas-de-Calais;Pas-de-Calais;Aubigny-en-Artois 62045;E2.5833333;N50.35;13;
3;FRA;Nord-Pas-de-Calais;Pas-de-Calais;Aubin-Saint-Vaast 62046;E1.9833;N50.4000;13;
3;FRA;Nord-Pas-de-Calais;Pas-de-Calais;Aubrometz 62047;E2.1833;N50.3000;13;
3;FRA;Nord-Pas-de-Calais;Pas-de-Calais;Auchel 62048;E2.4667;N50.5000;13;
3;FRA;Nord-Pas-de-Calais;Pas-de-Calais;Auchy-au-Bois 62049;E2.3667;N50.5500;13;
3;FRA;Nord-Pas-de-Calais;Pas-de-Calais;Auchy-lès-Hesdin 62050;E2.1000;N50.4000;13;
3;FRA;Nord-Pas-de-Calais;Pas-de-Calais;Auchy-les-Mines 62051;E2.7833;N50.5167;13;
3;FRA;Nord-Pas-de-Calais;Pas-de-Calais;Audembert 62052;E1.7000;N50.8667;13;
3;FRA;Nord-Pas-de-Calais;Pas-de-Calais;Audincthun 62053;E2.1333333;N50.5833333;13;
3;FRA;Nord-Pas-de-Calais;Pas-de-Calais;Audinghen 62054;E1.6000;N50.8500;13;
3;FRA;Nord-Pas-de-Calais;Pas-de-Calais;Audrehem 62055;E1.9833;N50.7833;13;
3;FRA;Nord-Pas-de-Calais;Pas-de-Calais;Audresselles 62056;E1.5833;N50.8167;13;
3;FRA;Nord-Pas-de-Calais;Pas-de-Calais;Audruicq 62057;E2.0833;N50.8833;13;
3;FRA;Nord-Pas-de-Calais;Pas-de-Calais;Aumerval 62058;E2.4000;N50.5167;13;
3;FRA;Nord-Pas-de-Calais;Pas-de-Calais;Autingues 62059;E1.9833;N50.8333;13;
3;FRA;Nord-Pas-de-Calais;Pas-de-Calais;Auxi-le-Château 62060;E2.1167;N50.2333;13;
3;FRA;Nord-Pas-de-Calais;Pas-de-Calais;Averdoingt 62061;E2.4500;N50.3500;13;
3;FRA;Nord-Pas-de-Calais;Pas-de-Calais;Avesnes 62062;E1.9667;N50.5500;13;
3;FRA;Nord-Pas-de-Calais;Pas-de-Calais;Avesnes-le-Comte 62063;E2.5333;N50.2833;13;
3;FRA;Nord-Pas-de-Calais;Pas-de-Calais;Avesnes-lès-Bapaume 62064;E2.8333;N50.1000;13;
3;FRA;Nord-Pas-de-Calais;Pas-de-Calais;Avion 62065;E2.8333;N50.4000;13;
3;FRA;Nord-Pas-de-Calais;Pas-de-Calais;Avondance 62066;E2.1000;N50.4833;13;
3;FRA;Nord-Pas-de-Calais;Pas-de-Calais;Avroult 62067;E2.1500;N50.6333;13;
3;FRA;Nord-Pas-de-Calais;Pas-de-Calais;Ayette 62068;E2.7333;N50.1667;13;
3;FRA;Nord-Pas-de-Calais;Pas-de-Calais;Azincourt 62069;E2.1333;N50.4667;13;
3;FRA;Nord-Pas-de-Calais;Pas-de-Calais;Bailleul-aux-Cornailles 62070;E2.4500;N50.3667;13;
3;FRA;Nord-Pas-de-Calais;Pas-de-Calais;Bailleul-lès-Pernes 62071;E2.3833;N50.5167;13;
3;FRA;Nord-Pas-de-Calais;Pas-de-Calais;Bailleul-Sir-Berthoult 62073;E2.8500;N50.3333;13;
3;FRA;Nord-Pas-de-Calais;Pas-de-Calais;Bailleulmont 62072;E2.6167;N50.2167;13;
3;FRA;Nord-Pas-de-Calais;Pas-de-Calais;Bailleulval 62074;E2.6333;N50.2167;13;
3;FRA;Nord-Pas-de-Calais;Pas-de-Calais;Baincthun 62075;E1.6833;N50.7167;13;
3;FRA;Nord-Pas-de-Calais;Pas-de-Calais;Bainghen 62076;E1.9000;N50.7500;13;
3;FRA;Nord-Pas-de-Calais;Pas-de-Calais;Bajus 62077;E2.4833;N50.4167;13;
3;FRA;Nord-Pas-de-Calais;Pas-de-Calais;Balinghem 62078;E1.9500;N50.8667;13;
3;FRA;Nord-Pas-de-Calais;Pas-de-Calais;Bancourt 62079;E2.8833;N50.1000;13;
3;FRA;Nord-Pas-de-Calais;Pas-de-Calais;Bapaume 62080;E2.8500;N50.1000;13;
3;FRA;Nord-Pas-de-Calais;Pas-de-Calais;Baralle 62081;E3.0500;N50.2167;13;
3;FRA;Nord-Pas-de-Calais;Pas-de-Calais;Barastre 62082;E2.9333;N50.0667;13;
3;FRA;Nord-Pas-de-Calais;Pas-de-Calais;Barlin 62083;E2.6167;N50.4500;13;
3;FRA;Nord-Pas-de-Calais;Pas-de-Calais;Barly 62084;E2.5500;N50.2500;13;
3;FRA;Nord-Pas-de-Calais;Pas-de-Calais;Basseux 62085;E2.6500;N50.2333;13;
3;FRA;Nord-Pas-de-Calais;Pas-de-Calais;Bavincourt 62086;E2.5667;N50.2333;13;
3;FRA;Nord-Pas-de-Calais;Pas-de-Calais;Bayenghem-lès-Éperlecques 62087;E2.1167;N50.8000;13;
3;FRA;Nord-Pas-de-Calais;Pas-de-Calais;Bayenghem-lès-Seninghem 62088;E2.0833;N50.7000;13;
3;FRA;Nord-Pas-de-Calais;Pas-de-Calais;Bazinghen 62089;E1.6667;N50.8333;13;
3;FRA;Nord-Pas-de-Calais;Pas-de-Calais;Béalencourt 62090;E2.1167;N50.4333;13;
3;FRA;Nord-Pas-de-Calais;Pas-de-Calais;Beaudricourt 62091;E2.4167;N50.2500;13;
3;FRA;Nord-Pas-de-Calais;Pas-de-Calais;Beaufort-Blavincourt 62092;E2.5000;N50.2833;13;
3;FRA;Nord-Pas-de-Calais;Pas-de-Calais;Beaulencourt 62093;E2.8667;N50.0667;13;
3;FRA;Nord-Pas-de-Calais;Pas-de-Calais;Beaumerie-Saint-Martin 62094;E1.8000;N50.4500;13;
3;FRA;Nord-Pas-de-Calais;Pas-de-Calais;Beaumetz-lès-Aire 62095;E2.2333;N50.5333;13;
3;FRA;Nord-Pas-de-Calais;Pas-de-Calais;Beaumetz-lès-Cambrai 62096;E2.9833;N50.1167;13;
3;FRA;Nord-Pas-de-Calais;Pas-de-Calais;Beaumetz-lès-Loges 62097;E2.6500;N50.2333;13;
3;FRA;Nord-Pas-de-Calais;Pas-de-Calais;Beaumont 62098=62427;E1.6833;N50.3333;13;
3;FRA;Nord-Pas-de-Calais;Pas-de-Calais;Beaurains 62099;E2.7833;N50.2667;13;
3;FRA;Nord-Pas-de-Calais;Pas-de-Calais;Beaurainville 62100;E1.9000;N50.4167;13;
3;FRA;Nord-Pas-de-Calais;Pas-de-Calais;Beauvoir-Wavans 62881;E2.15;N50.2167;13;
3;FRA;Nord-Pas-de-Calais;Pas-de-Calais;Beauvois 62101;E2.2333;N50.3667;13;
3;FRA;Nord-Pas-de-Calais;Pas-de-Calais;Bécourt 62102;E1.9167;N50.6333;13;
3;FRA;Nord-Pas-de-Calais;Pas-de-Calais;Béhagnies 62103;E2.8333;N50.1333;13;
3;FRA;Nord-Pas-de-Calais;Pas-de-Calais;Belle-et-Houllefort 62105;E1.7500;N50.7500;13;
3;FRA;Nord-Pas-de-Calais;Pas-de-Calais;Bellebrune 62104;E1.7833;N50.7333;13;
3;FRA;Nord-Pas-de-Calais;Pas-de-Calais;Bellonne 62106;E3.0500;N50.3000;13;
3;FRA;Nord-Pas-de-Calais;Pas-de-Calais;Bénifontaine 62107;E2.8333;N50.4833;13;
3;FRA;Nord-Pas-de-Calais;Pas-de-Calais;Berck 62108;E1.5666;N50.4075;13;
3;FRA;Nord-Pas-de-Calais;Pas-de-Calais;Bergueneuse 62109;E2.2500;N50.4667;13;
3;FRA;Nord-Pas-de-Calais;Pas-de-Calais;Berguette 62110=62473;E2.4667;N50.6000;13;
3;FRA;Nord-Pas-de-Calais;Pas-de-Calais;Berlencourt-le-Cauroy 62111;E2.4333;N50.2833;13;
3;FRA;Nord-Pas-de-Calais;Pas-de-Calais;Berles-au-Bois 62112;E2.6333;N50.2000;13;
3;FRA;Nord-Pas-de-Calais;Pas-de-Calais;Berles-Monchel 62113;E2.5333;N50.3500;13;
3;FRA;Nord-Pas-de-Calais;Pas-de-Calais;Bermicourt 62114;E2.2333;N50.4167;13;
3;FRA;Nord-Pas-de-Calais;Pas-de-Calais;Berneville 62115;E2.6667;N50.2667;13;
3;FRA;Nord-Pas-de-Calais;Pas-de-Calais;Bernieulles 62116;E1.7667;N50.5500;13;
3;FRA;Nord-Pas-de-Calais;Pas-de-Calais;Bertincourt 62117;E2.9833;N50.0833;13;
3;FRA;Nord-Pas-de-Calais;Pas-de-Calais;Béthonsart 62118;E2.5500;N50.3833;13;
3;FRA;Nord-Pas-de-Calais;Pas-de-Calais;Béthune 62119;E2.6333;N50.5333;13;
3;FRA;Nord-Pas-de-Calais;Pas-de-Calais;Beugin 62120;E2.5167;N50.4500;13;
3;FRA;Nord-Pas-de-Calais;Pas-de-Calais;Beugnâtre 62121;E2.8833;N50.1167;13;
3;FRA;Nord-Pas-de-Calais;Pas-de-Calais;Beugny 62122;E2.9333;N50.1167;13;
3;FRA;Nord-Pas-de-Calais;Pas-de-Calais;Beussent 62123;E1.8000;N50.5500;13;
3;FRA;Nord-Pas-de-Calais;Pas-de-Calais;Beutin 62124;E1.7167;N50.4833;13;
3;FRA;Nord-Pas-de-Calais;Pas-de-Calais;Beuvrequen 62125;E1.6667;N50.8000;13;
3;FRA;Nord-Pas-de-Calais;Pas-de-Calais;Beuvry 62126;E2.6833;N50.5167;13;
3;FRA;Nord-Pas-de-Calais;Pas-de-Calais;Bezinghem 62127;E1.8167;N50.6000;13;
3;FRA;Nord-Pas-de-Calais;Pas-de-Calais;Biache-Saint-Vaast 62128;E2.9500;N50.3000;13;
3;FRA;Nord-Pas-de-Calais;Pas-de-Calais;Biefvillers-lès-Bapaume 62129;E2.8167;N50.1167;13;
3;FRA;Nord-Pas-de-Calais;Pas-de-Calais;Bienvillers-au-Bois 62130;E2.6167;N50.1667;13;
3;FRA;Nord-Pas-de-Calais;Pas-de-Calais;Bihucourt 62131;E2.7833;N50.1167;13;
3;FRA;Nord-Pas-de-Calais;Pas-de-Calais;Billy-Berclau 62132;E2.8667;N50.5167;13;
3;FRA;Nord-Pas-de-Calais;Pas-de-Calais;Billy-Montigny 62133;E2.9000;N50.4167;13;
3;FRA;Nord-Pas-de-Calais;Pas-de-Calais;Bimont 62134;E1.9000;N50.5500;13;
3;FRA;Nord-Pas-de-Calais;Pas-de-Calais;Blairville 62135;E2.7167;N50.2167;13;
3;FRA;Nord-Pas-de-Calais;Pas-de-Calais;Blangermont 62136=62137;E2.2167;N50.3333;13;
3;FRA;Nord-Pas-de-Calais;Pas-de-Calais;Blangerval-Blangermont 62137;E2.2333;N50.3167;13;
3;FRA;Nord-Pas-de-Calais;Pas-de-Calais;Blangy-sur-Ternoise 62138;E2.1667;N50.4167;13;
3;FRA;Nord-Pas-de-Calais;Pas-de-Calais;Blendecques 62139;E2.2667;N50.7167;13;
3;FRA;Nord-Pas-de-Calais;Pas-de-Calais;Bléquin 62140;E1.9833;N50.6667;13;
3;FRA;Nord-Pas-de-Calais;Pas-de-Calais;Blessy 62141;E2.3333;N50.6167;13;
3;FRA;Nord-Pas-de-Calais;Pas-de-Calais;Blingel 62142;E2.1500;N50.4167;13;
3;FRA;Nord-Pas-de-Calais;Pas-de-Calais;Boffles 62143;E2.2000;N50.2500;13;
3;FRA;Nord-Pas-de-Calais;Pas-de-Calais;Boiry-Becquerelle 62144;E2.8167;N50.2167;13;
3;FRA;Nord-Pas-de-Calais;Pas-de-Calais;Boiry-Notre-Dame 62145;E2.9500;N50.2667;13;
3;FRA;Nord-Pas-de-Calais;Pas-de-Calais;Boiry-Saint-Martin 62146;E2.7667;N50.2000;13;
3;FRA;Nord-Pas-de-Calais;Pas-de-Calais;Boiry-Sainte-Rictrude 62147;E2.7500;N50.2000;13;
3;FRA;Nord-Pas-de-Calais;Pas-de-Calais;Bois-Bernard 62148;E2.9167;N50.3833;13;
3;FRA;Nord-Pas-de-Calais;Pas-de-Calais;Boisdinghem 62149;E1.9833;N50.8667;13;
3;FRA;Nord-Pas-de-Calais;Pas-de-Calais;Boisjean 62150;E2.1000;N50.7500;13;
3;FRA;Nord-Pas-de-Calais;Pas-de-Calais;Boisleux-au-Mont 62151;E2.7833;N50.2000;13;
3;FRA;Nord-Pas-de-Calais;Pas-de-Calais;Boisleux-Saint-Marc 62152;E2.8000;N50.2167;13;
3;FRA;Nord-Pas-de-Calais;Pas-de-Calais;Bomy 62153;E2.2333;N50.5667;13;
3;FRA;Nord-Pas-de-Calais;Pas-de-Calais;Bonnières 62154;E2.2500;N50.2500;13;
3;FRA;Nord-Pas-de-Calais;Pas-de-Calais;Bonningues-lès-Ardres 62155;E2.0167;N50.7833;13;
3;FRA;Nord-Pas-de-Calais;Pas-de-Calais;Bonningues-lès-Calais 62156;E1.7833;N50.8833;13;
3;FRA;Nord-Pas-de-Calais;Pas-de-Calais;Boubers-lès-Hesmond 62157;E1.9500;N50.4667;13;
3;FRA;Nord-Pas-de-Calais;Pas-de-Calais;Boubers-sur-Canche 62158;E2.2333;N50.2833;13;
3;FRA;Nord-Pas-de-Calais;Pas-de-Calais;Bouin 62159=62661;E1.9833;N50.3833;13;
3;FRA;Nord-Pas-de-Calais;Pas-de-Calais;Bouin-Plumoison 62661;E1.9833;N50.3667;13;
3;FRA;Nord-Pas-de-Calais;Pas-de-Calais;Boulogne-sur-Mer 62160;E1.6167;N50.7167;13;
3;FRA;Nord-Pas-de-Calais;Pas-de-Calais;Bouquehault 62161;E1.9000;N50.8167;13;
3;FRA;Nord-Pas-de-Calais;Pas-de-Calais;Bourecq 62162;E2.4333;N50.5667;13;
3;FRA;Nord-Pas-de-Calais;Pas-de-Calais;Bouret-sur-Canche 62163;E3.1000;N50.1667;13;
3;FRA;Nord-Pas-de-Calais;Pas-de-Calais;Bourlon 62164;E1.8500;N50.7000;13;
3;FRA;Nord-Pas-de-Calais;Pas-de-Calais;Bournonville 62165;E2.4167;N50.4500;13;
3;FRA;Nord-Pas-de-Calais;Pas-de-Calais;Bours 62166;E3.0167;N50.1333;13;
3;FRA;Nord-Pas-de-Calais;Pas-de-Calais;Boursin 62167;E1.8333;N50.7667;13;
3;FRA;Nord-Pas-de-Calais;Pas-de-Calais;Bourthes 62168;E1.9333;N50.6000;13;
3;FRA;Nord-Pas-de-Calais;Pas-de-Calais;Bouvelinghem 62169;E2.0333;N50.7333;13;
3;FRA;Nord-Pas-de-Calais;Pas-de-Calais;Bouvigny-Boyeffles 62170;E2.6667;N50.4167;13;
3;FRA;Nord-Pas-de-Calais;Pas-de-Calais;Boyaval 62171;E2.3000;N50.4667;13;
3;FRA;Nord-Pas-de-Calais;Pas-de-Calais;Boyelles 62172;E2.8167;N50.2000;13;
3;FRA;Nord-Pas-de-Calais;Pas-de-Calais;Brebières 62173;E3.0167;N50.3333;13;
3;FRA;Nord-Pas-de-Calais;Pas-de-Calais;Brêmes 62174;E1.9667;N50.8500;13;
3;FRA;Nord-Pas-de-Calais;Pas-de-Calais;Brévillers 62175;E2.0167;N50.3500;13;
3;FRA;Nord-Pas-de-Calais;Pas-de-Calais;Bréxent-Énocq 62176;E1.7333;N50.5167;13;
3;FRA;Nord-Pas-de-Calais;Pas-de-Calais;Brias 62180;E2.3833;N50.4000;13;
3;FRA;Nord-Pas-de-Calais;Pas-de-Calais;Brimeux 62177;E1.8333;N50.4500;13;
3;FRA;Nord-Pas-de-Calais;Pas-de-Calais;Bruay-la-Buissière 62178;E2.5333;N50.4667;13;
3;FRA;Nord-Pas-de-Calais;Pas-de-Calais;Brunembert 62179;E1.9000;N50.7167;13;
3;FRA;Nord-Pas-de-Calais;Pas-de-Calais;Bucquoy 62181;E2.7000;N50.1333;13;
3;FRA;Nord-Pas-de-Calais;Pas-de-Calais;Buire-au-Bois 62182;E2.1500;N50.2667;13;
3;FRA;Nord-Pas-de-Calais;Pas-de-Calais;Buire-le-Sec 62183;E1.8333;N50.3833;13;
3;FRA;Nord-Pas-de-Calais;Pas-de-Calais;Buissy 62184;E3.0333;N50.2000;13;
3;FRA;Nord-Pas-de-Calais;Pas-de-Calais;Bullecourt 62185;E2.9167;N50.1833;13;
3;FRA;Nord-Pas-de-Calais;Pas-de-Calais;Bully-les-Mines 62186;E2.7167;N50.4333;13;
3;FRA;Nord-Pas-de-Calais;Pas-de-Calais;Buneville 62187;E2.3500;N50.3167;13;
3;FRA;Nord-Pas-de-Calais;Pas-de-Calais;Burbure 62188;E2.4667;N50.5333;13;
3;FRA;Nord-Pas-de-Calais;Pas-de-Calais;Bus 62189;E2.9667;N50.0500;13;
3;FRA;Nord-Pas-de-Calais;Pas-de-Calais;Busnes 62190;E2.5167;N50.5833;13;
3;FRA;Nord-Pas-de-Calais;Pas-de-Calais;Caffiers 62191;E1.8000;N50.8333;13;
3;FRA;Nord-Pas-de-Calais;Pas-de-Calais;Cagnicourt 62192;E3.0000;N50.2167;13;
3;FRA;Nord-Pas-de-Calais;Pas-de-Calais;Calais 62193;E1.8333;N50.9500;13;
3;FRA;Nord-Pas-de-Calais;Pas-de-Calais;Calonne-Ricouart 62194;E2.4833;N50.4833;13;
3;FRA;Nord-Pas-de-Calais;Pas-de-Calais;Calonne-sur-la-Lys 62195;E2.6167;N50.6167;13;
3;FRA;Nord-Pas-de-Calais;Pas-de-Calais;Camblain-Châtelain 62197;E2.4667;N50.4833;13;
3;FRA;Nord-Pas-de-Calais;Pas-de-Calais;Camblain-l'Abbé 62199;E2.6333;N50.3667;13;
3;FRA;Nord-Pas-de-Calais;Pas-de-Calais;Cambligneul 62198;E2.6167;N50.3833;13;
3;FRA;Nord-Pas-de-Calais;Pas-de-Calais;Cambrin 62200;E2.7333;N50.5000;13;
3;FRA;Nord-Pas-de-Calais;Pas-de-Calais;Camiers 62201;E1.6167;N50.5667;13;
3;FRA;Nord-Pas-de-Calais;Pas-de-Calais;Campagne-lès-Boulonnais 62202;E1.9833;N50.6167;13;
3;FRA;Nord-Pas-de-Calais;Pas-de-Calais;Campagne-lès-Guines 62203;E1.9000;N50.8333;13;
3;FRA;Nord-Pas-de-Calais;Pas-de-Calais;Campagne-lès-Hesdin 62204;E1.8667;N50.4000;13;
3;FRA;Nord-Pas-de-Calais;Pas-de-Calais;Campagne-lès-Wardrecques 62205;E2.3333;N50.7167;13;
3;FRA;Nord-Pas-de-Calais;Pas-de-Calais;Campigneulles-les-Grandes 62206;E1.7167;N50.4333;13;
3;FRA;Nord-Pas-de-Calais;Pas-de-Calais;Campigneulles-les-Petites 62207;E1.7333;N50.4500;13;
3;FRA;Nord-Pas-de-Calais;Pas-de-Calais;Canettemont 62208;E2.3667;N50.2833;13;
3;FRA;Nord-Pas-de-Calais;Pas-de-Calais;Canlers 62209;E2.1500;N50.4833;13;
3;FRA;Nord-Pas-de-Calais;Pas-de-Calais;Canteleux 62210;E2.3;N50.2;13;
3;FRA;Nord-Pas-de-Calais;Pas-de-Calais;Capelle-Fermont 62211;E2.6167;N50.3500;13;
3;FRA;Nord-Pas-de-Calais;Pas-de-Calais;Capelle-lès-Hesdin 62212;E2.0000;N50.3333;13;
3;FRA;Nord-Pas-de-Calais;Pas-de-Calais;Carency 62213;E2.7000;N50.3833;13;
3;FRA;Nord-Pas-de-Calais;Pas-de-Calais;Carly 62214;E1.7000;N50.6500;13;
3;FRA;Nord-Pas-de-Calais;Pas-de-Calais;Carvin 62215;E2.9667;N50.4833;13;
3;FRA;Nord-Pas-de-Calais;Pas-de-Calais;Cauchy-à-la-Tour 62217;E2.4500;N50.5000;13;
3;FRA;Nord-Pas-de-Calais;Pas-de-Calais;Caucourt 62218;E2.5667;N50.4000;13;
3;FRA;Nord-Pas-de-Calais;Pas-de-Calais;Caumont 62219;E2.0333;N50.2833;13;
3;FRA;Nord-Pas-de-Calais;Pas-de-Calais;Cavron-Saint-Martin 62220;E2.0000;N50.4167;13;
3;FRA;Nord-Pas-de-Calais;Pas-de-Calais;Chelers 62221;E2.4833;N50.3667;13;
3;FRA;Nord-Pas-de-Calais;Pas-de-Calais;Chériennes 62222;E2.0333;N50.3167;13;
3;FRA;Nord-Pas-de-Calais;Pas-de-Calais;Chérisy 62223;E2.9167;N50.2333;13;
3;FRA;Nord-Pas-de-Calais;Pas-de-Calais;Chocques 62224;E2.5667;N50.5333;13;
3;FRA;Nord-Pas-de-Calais;Pas-de-Calais;Clairmarais 62225;E2.3000;N50.7667;13;
3;FRA;Nord-Pas-de-Calais;Pas-de-Calais;Clarques 62226;E2.2833;N50.6500;13;
3;FRA;Nord-Pas-de-Calais;Pas-de-Calais;Clenleu 62227;E1.8833;N50.5333;13;
3;FRA;Nord-Pas-de-Calais;Pas-de-Calais;Clerques 62228;E2.0000;N50.8000;13;
3;FRA;Nord-Pas-de-Calais;Pas-de-Calais;Cléty 62229;E2.1833;N50.6500;13;
3;FRA;Nord-Pas-de-Calais;Pas-de-Calais;Colembert 62230;E1.8333;N50.7500;13;
3;FRA;Nord-Pas-de-Calais;Pas-de-Calais;Colline-Beaumont 62231;E1.6833;N50.3333;13;
3;FRA;Nord-Pas-de-Calais;Pas-de-Calais;Conchil-le-Temple 62233;E1.6667;N50.3667;13;
3;FRA;Nord-Pas-de-Calais;Pas-de-Calais;Conchy-sur-Canche 62234;E2.2000;N50.3000;13;
3;FRA;Nord-Pas-de-Calais;Pas-de-Calais;Condette 62235;E1.6500;N50.6500;13;
3;FRA;Nord-Pas-de-Calais;Pas-de-Calais;Contes 62236;E1.9667;N50.4000;13;
3;FRA;Nord-Pas-de-Calais;Pas-de-Calais;Conteville-en-Ternois 62238;E2.3167;N50.4167;13;
3;FRA;Nord-Pas-de-Calais;Pas-de-Calais;Conteville-lès-Boulogne 62237;E1.7333;N50.7500;13;
3;FRA;Nord-Pas-de-Calais;Pas-de-Calais;Coquelles 62239;E1.8000;N50.9333;13;
3;FRA;Nord-Pas-de-Calais;Pas-de-Calais;Corbehem 62240;E3.0500;N50.3333;13;
3;FRA;Nord-Pas-de-Calais;Pas-de-Calais;Cormont 62241;E1.7333;N50.5667;13;
3;FRA;Nord-Pas-de-Calais;Pas-de-Calais;Couin 62242;E2.5333;N50.1333;13;
3;FRA;Nord-Pas-de-Calais;Pas-de-Calais;Coullemont 62243;E2.4833;N50.2000;13;
3;FRA;Nord-Pas-de-Calais;Pas-de-Calais;Coulogne 62244;E1.8833;N50.9167;13;
3;FRA;Nord-Pas-de-Calais;Pas-de-Calais;Coulomby 62245;E2.0000;N50.7000;13;
3;FRA;Nord-Pas-de-Calais;Pas-de-Calais;Coupelle-Neuve 62246;E2.1167;N50.5000;13;
3;FRA;Nord-Pas-de-Calais;Pas-de-Calais;Coupelle-Vieille 62247;E2.1000;N50.5333;13;
3;FRA;Nord-Pas-de-Calais;Pas-de-Calais;Courcelles-le-Comte 62248;E2.7833;N50.1667;13;
3;FRA;Nord-Pas-de-Calais;Pas-de-Calais;Courcelles-lès-Lens 62249;E3.0167;N50.4167;13;
3;FRA;Nord-Pas-de-Calais;Pas-de-Calais;Courrières 62250;E2.9333;N50.4500;13;
3;FRA;Nord-Pas-de-Calais;Pas-de-Calais;Courset 62251;E1.8333;N50.6500;13;
3;FRA;Nord-Pas-de-Calais;Pas-de-Calais;Couturelle 62253;E2.5000;N50.2000;13;
3;FRA;Nord-Pas-de-Calais;Pas-de-Calais;Coyecques 62254;E2.1833;N50.6000;13;
3;FRA;Nord-Pas-de-Calais;Pas-de-Calais;Crémarest 62255;E1.7833;N50.7000;13;
3;FRA;Nord-Pas-de-Calais;Pas-de-Calais;Crépy 62256;E2.2000;N50.4833;13;
3;FRA;Nord-Pas-de-Calais;Pas-de-Calais;Créquy 62257;E2.0500;N50.4833;13;
3;FRA;Nord-Pas-de-Calais;Pas-de-Calais;Croisette 62258;E2.2500;N50.3500;13;
3;FRA;Nord-Pas-de-Calais;Pas-de-Calais;Croisilles 62259;E2.8833;N50.2000;13;
3;FRA;Nord-Pas-de-Calais;Pas-de-Calais;Croix-en-Ternois 62260;E2.2667;N50.3833;13;
3;FRA;Nord-Pas-de-Calais;Pas-de-Calais;Cucq 62261;E1.6167;N50.4833;13;
3;FRA;Nord-Pas-de-Calais;Pas-de-Calais;Cuinchy 62262;E2.7500;N50.5167;13;
3;FRA;Nord-Pas-de-Calais;Pas-de-Calais;Dainville 62263;E2.7167;N50.2833;13;
3;FRA;Nord-Pas-de-Calais;Pas-de-Calais;Dannes 62264;E1.6000;N50.5833;13;
3;FRA;Nord-Pas-de-Calais;Pas-de-Calais;Delettes 62265;E2.2000;N50.6167;13;
3;FRA;Nord-Pas-de-Calais;Pas-de-Calais;Denier 62266;E2.4500;N50.2833;13;
3;FRA;Nord-Pas-de-Calais;Pas-de-Calais;Dennebroeucq 62267;E2.1500;N50.5667;13;
3;FRA;Nord-Pas-de-Calais;Pas-de-Calais;Desvres 62268;E1.8333;N50.6667;13;
3;FRA;Nord-Pas-de-Calais;Pas-de-Calais;Diéval 62269;E2.4500;N50.4333;13;
3;FRA;Nord-Pas-de-Calais;Pas-de-Calais;Divion 62270;E2.5000;N50.4667;13;
3;FRA;Nord-Pas-de-Calais;Pas-de-Calais;Dohem 62271;E2.1833;N50.6333;13;
3;FRA;Nord-Pas-de-Calais;Pas-de-Calais;Douchy-lès-Ayette 62272;E3.0000;N50.1167;13;
3;FRA;Nord-Pas-de-Calais;Pas-de-Calais;Doudeauville 62273;E2.7167;N50.1667;13;
3;FRA;Nord-Pas-de-Calais;Pas-de-Calais;Dourges 62274;E1.8333;N50.6167;13;
3;FRA;Nord-Pas-de-Calais;Pas-de-Calais;Douriez 62275;E2.9833;N50.4333;13;
3;FRA;Nord-Pas-de-Calais;Pas-de-Calais;Douvrin 62276;E1.8833;N50.3333;13;
3;FRA;Nord-Pas-de-Calais;Pas-de-Calais;Drocourt 62277;E2.8333;N50.5167;13;
3;FRA;Nord-Pas-de-Calais;Pas-de-Calais;Drouvin-le-Marais 62278;E2.9167;N50.3833;13;
3;FRA;Nord-Pas-de-Calais;Pas-de-Calais;Duisans 62279;E2.6833;N50.3000;13;
3;FRA;Nord-Pas-de-Calais;Pas-de-Calais;Dury 62280;E3.0167;N50.2500;13;
3;FRA;Nord-Pas-de-Calais;Pas-de-Calais;Echinghen 62281;E1.6500;N50.7000;13;
3;FRA;Nord-Pas-de-Calais;Pas-de-Calais;Éclimeux 62282;E2.1833;N50.4000;13;
3;FRA;Nord-Pas-de-Calais;Pas-de-Calais;Écoivres 62283;E2.2917;N50.3250;13;
3;FRA;Nord-Pas-de-Calais;Pas-de-Calais;Écourt-Saint-Quentin 62284;E3.0667;N50.2500;13;
3;FRA;Nord-Pas-de-Calais;Pas-de-Calais;Écoust-Saint-Mein 62285;E2.9167;N50.1833;13;
3;FRA;Nord-Pas-de-Calais;Pas-de-Calais;Ecquedecques 62286;E2.4500;N50.5667;13;
3;FRA;Nord-Pas-de-Calais;Pas-de-Calais;Ecquemicourt 62287=62552;E1.9167;N50.4;13;
3;FRA;Nord-Pas-de-Calais;Pas-de-Calais;Ecques 62288;E2.2833;N50.6667;13;
3;FRA;Nord-Pas-de-Calais;Pas-de-Calais;Écuires 62289;E1.7667;N50.4500;13;
3;FRA;Nord-Pas-de-Calais;Pas-de-Calais;Écurie 62290;E2.7667;N50.3333;13;
3;FRA;Nord-Pas-de-Calais;Pas-de-Calais;Éleu-dit-Leauwette 62291;E2.8167;N50.4167;13;
3;FRA;Nord-Pas-de-Calais;Pas-de-Calais;Elnes 62292;E2.1333;N50.6833;13;
3;FRA;Nord-Pas-de-Calais;Pas-de-Calais;Embry 62293;E1.9667;N50.4833;13;
3;FRA;Nord-Pas-de-Calais;Pas-de-Calais;Enguinegatte 62294;E2.2667;N50.6;13;
3;FRA;Nord-Pas-de-Calais;Pas-de-Calais;Enquin-les-Mines 62295;E2.2833;N50.5833;13;
3;FRA;Nord-Pas-de-Calais;Pas-de-Calais;Enquin-sur-Baillons 62296;E1.8333;N50.5667;13;
3;FRA;Nord-Pas-de-Calais;Pas-de-Calais;Éperlecques 62297;E2.1500;N50.8000;13;
3;FRA;Nord-Pas-de-Calais;Pas-de-Calais;Épinoy 62298;E3.15;N50.2167;13;
3;FRA;Nord-Pas-de-Calais;Pas-de-Calais;Eps 62299;E2.3000;N50.4500;13;
3;FRA;Nord-Pas-de-Calais;Pas-de-Calais;Équihen-Plage 62300;E1.5667;N50.6833;13;
3;FRA;Nord-Pas-de-Calais;Pas-de-Calais;Équirre 62301;E2.2333;N50.4667;13;
3;FRA;Nord-Pas-de-Calais;Pas-de-Calais;Ergny 62302;E1.9833;N50.5833;13;
3;FRA;Nord-Pas-de-Calais;Pas-de-Calais;Érin 62303;E2.2167;N50.4333;13;
3;FRA;Nord-Pas-de-Calais;Pas-de-Calais;Erny-Saint-Julien 62304;E2.2500;N50.5833;13;
3;FRA;Nord-Pas-de-Calais;Pas-de-Calais;Erquières 62305=62834;E2.0833;N50.3167;13;
3;FRA;Nord-Pas-de-Calais;Pas-de-Calais;Ervillers 62306;E2.8333;N50.1667;13;
3;FRA;Nord-Pas-de-Calais;Pas-de-Calais;Escalles 62307;E1.7167;N50.9167;13;
3;FRA;Nord-Pas-de-Calais;Pas-de-Calais;Escoeuilles 62308;E1.9333;N50.7333;13;
3;FRA;Nord-Pas-de-Calais;Pas-de-Calais;Esquerdes 62309;E2.1833;N50.7000;13;
3;FRA;Nord-Pas-de-Calais;Pas-de-Calais;Essars 62310;E2.6667;N50.5500;13;
3;FRA;Nord-Pas-de-Calais;Pas-de-Calais;Estevelles 62311;E2.9167;N50.4667;13;
3;FRA;Nord-Pas-de-Calais;Pas-de-Calais;Estrée 62312;E1.7833;N50.5000;13;
3;FRA;Nord-Pas-de-Calais;Pas-de-Calais;Estrée-Blanche 62313;E2.3167;N50.5833;13;
3;FRA;Nord-Pas-de-Calais;Pas-de-Calais;Estrée-Cauchy 62314;E2.6167;N50.4000;13;
3;FRA;Nord-Pas-de-Calais;Pas-de-Calais;Estrée-Wamin 62316;E2.4000;N50.2833;13;
3;FRA;Nord-Pas-de-Calais;Pas-de-Calais;Estréelles 62315;E1.7833;N50.5000;13;
3;FRA;Nord-Pas-de-Calais;Pas-de-Calais;Étaing 62317;E3.0000;N50.2667;13;
3;FRA;Nord-Pas-de-Calais;Pas-de-Calais;Étaples 62318;E1.6500;N50.5167;13;
3;FRA;Nord-Pas-de-Calais;Pas-de-Calais;Éterpigny 62319;E2.9833;N50.2667;13;
3;FRA;Nord-Pas-de-Calais;Pas-de-Calais;Étrun 62320;E2.7000;N50.3167;13;
3;FRA;Nord-Pas-de-Calais;Pas-de-Calais;Évin-Malmaison 62321;E3.0333;N50.4333;13;
3;FRA;Nord-Pas-de-Calais;Pas-de-Calais;Famechon 62322;E2.4667;N50.1333;13;
3;FRA;Nord-Pas-de-Calais;Pas-de-Calais;Fampoux 62323;E2.8833;N50.3000;13;
3;FRA;Nord-Pas-de-Calais;Pas-de-Calais;Farbus 62324;E2.8333;N50.3500;13;
3;FRA;Nord-Pas-de-Calais;Pas-de-Calais;Fauquembergues 62325;E2.0833;N50.6000;13;
3;FRA;Nord-Pas-de-Calais;Pas-de-Calais;Favreuil 62326;E2.8500;N50.1167;13;
3;FRA;Nord-Pas-de-Calais;Pas-de-Calais;Febvin-Palfart 62327;E2.3167;N50.5333;13;
3;FRA;Nord-Pas-de-Calais;Pas-de-Calais;Ferfay 62328;E2.4167;N50.5167;13;
3;FRA;Nord-Pas-de-Calais;Pas-de-Calais;Ferques 62329;E1.7667;N50.8333;13;
3;FRA;Nord-Pas-de-Calais;Pas-de-Calais;Festubert 62330;E2.7333;N50.5500;13;
3;FRA;Nord-Pas-de-Calais;Pas-de-Calais;Feuchy 62331;E2.8500;N50.2833;13;
3;FRA;Nord-Pas-de-Calais;Pas-de-Calais;Ficheux 62332;E2.7333;N50.2333;13;
3;FRA;Nord-Pas-de-Calais;Pas-de-Calais;Fiefs 62333;E2.3167;N50.5000;13;
3;FRA;Nord-Pas-de-Calais;Pas-de-Calais;Fiennes 62334;E1.8333;N50.8333;13;
3;FRA;Nord-Pas-de-Calais;Pas-de-Calais;Fillièvres 62335;E2.1667;N50.3167;13;
3;FRA;Nord-Pas-de-Calais;Pas-de-Calais;Fléchin 62336;E2.2833;N50.5500;13;
3;FRA;Nord-Pas-de-Calais;Pas-de-Calais;Flers 62337;E2.2500;N50.3167;13;
3;FRA;Nord-Pas-de-Calais;Pas-de-Calais;Fleurbaix 62338;E2.8333;N50.6500;13;
3;FRA;Nord-Pas-de-Calais;Pas-de-Calais;Fleury 62339;E2.2500;N50.4167;13;
3;FRA;Nord-Pas-de-Calais;Pas-de-Calais;Floringhem 62340;E2.4333;N50.5000;13;
3;FRA;Nord-Pas-de-Calais;Pas-de-Calais;Foncquevillers 62341;E2.6333;N50.1333;13;
3;FRA;Nord-Pas-de-Calais;Pas-de-Calais;Fontaine-l'Étalon 62345;E2.0667;N50.3000;13;
3;FRA;Nord-Pas-de-Calais;Pas-de-Calais;Fontaine-lès-Boulans 62342;E2.2667;N50.5000;13;
3;FRA;Nord-Pas-de-Calais;Pas-de-Calais;Fontaine-lès-Croisilles 62343;E2.9167;N50.2167;13;
3;FRA;Nord-Pas-de-Calais;Pas-de-Calais;Fontaine-lès-Hermans 62344;E2.3500;N50.5333;13;
3;FRA;Nord-Pas-de-Calais;Pas-de-Calais;Fortel-en-Artois 62346;E2.2333;N50.2500;13;
3;FRA;Nord-Pas-de-Calais;Pas-de-Calais;Fosseux 62347;E2.5667;N50.2500;13;
3;FRA;Nord-Pas-de-Calais;Pas-de-Calais;Foufflin-Ricametz 62348;E2.3833;N50.3500;13;
3;FRA;Nord-Pas-de-Calais;Pas-de-Calais;Fouquereuil 62349;E2.6000;N50.5167;13;
3;FRA;Nord-Pas-de-Calais;Pas-de-Calais;Fouquières-lès-Béthune 62350;E2.6167;N50.5167;13;
3;FRA;Nord-Pas-de-Calais;Pas-de-Calais;Fouquières-lès-Lens 62351;E2.9167;N50.4333;13;
3;FRA;Nord-Pas-de-Calais;Pas-de-Calais;Framecourt 62352;E2.3000;N50.3333;13;
3;FRA;Nord-Pas-de-Calais;Pas-de-Calais;Frémicourt 62353;E2.9000;N50.1167;13;
3;FRA;Nord-Pas-de-Calais;Pas-de-Calais;Frencq 62354;E1.7000;N50.5667;13;
3;FRA;Nord-Pas-de-Calais;Pas-de-Calais;Fresnes-lès-Montauban 62355;E2.9167;N50.35;13;
3;FRA;Nord-Pas-de-Calais;Pas-de-Calais;Fresnicourt-le-Dolmen 62356;E2.6000;N50.4167;13;
3;FRA;Nord-Pas-de-Calais;Pas-de-Calais;Fresnoy 62357;E2.1333;N50.3667;13;
3;FRA;Nord-Pas-de-Calais;Pas-de-Calais;Fresnoy-en-Gohelle 62358;E2.8833;N50.3667;13;
3;FRA;Nord-Pas-de-Calais;Pas-de-Calais;Fressin 62359;E2.0500;N50.4500;13;
3;FRA;Nord-Pas-de-Calais;Pas-de-Calais;Fréthun 62360;E1.8167;N50.9167;13;
3;FRA;Nord-Pas-de-Calais;Pas-de-Calais;Frévent 62361;E2.2833;N50.2667;13;
3;FRA;Nord-Pas-de-Calais;Pas-de-Calais;Frévillers 62362;E2.5167;N50.4000;13;
3;FRA;Nord-Pas-de-Calais;Pas-de-Calais;Frévin-Capelle 62363;E2.6333;N50.3500;13;
3;FRA;Nord-Pas-de-Calais;Pas-de-Calais;Fruges 62364;E2.1333;N50.5167;13;
3;FRA;Nord-Pas-de-Calais;Pas-de-Calais;Galametz 62365;E2.1333;N50.3333;13;
3;FRA;Nord-Pas-de-Calais;Pas-de-Calais;Gauchin-Légal 62366;E2.5833;N50.4167;13;
3;FRA;Nord-Pas-de-Calais;Pas-de-Calais;Gauchin-Verloingt 62367;E2.3167;N50.3833;13;
3;FRA;Nord-Pas-de-Calais;Pas-de-Calais;Gaudiempré 62368;E2.5333;N50.1833;13;
3;FRA;Nord-Pas-de-Calais;Pas-de-Calais;Gavrelle 62369;E2.8833;N50.3333;13;
3;FRA;Nord-Pas-de-Calais;Pas-de-Calais;Gennes-Ivergny 62370;E2.0333;N50.2667;13;
3;FRA;Nord-Pas-de-Calais;Pas-de-Calais;Givenchy-en-Gohelle 62371;E2.7667;N50.3833;13;
3;FRA;Nord-Pas-de-Calais;Pas-de-Calais;Givenchy-le-Noble 62372;E2.5000;N50.3000;13;
3;FRA;Nord-Pas-de-Calais;Pas-de-Calais;Givenchy-lès-la-Bassée 62373;E2.75;N50.5167;13;
3;FRA;Nord-Pas-de-Calais;Pas-de-Calais;Gomiécourt 62374;E2.8000;N50.1333;13;
3;FRA;Nord-Pas-de-Calais;Pas-de-Calais;Gommecourt 62375;E2.6500;N50.1333;13;
3;FRA;Nord-Pas-de-Calais;Pas-de-Calais;Gonnehem 62376;E2.5667;N50.5667;13;
3;FRA;Nord-Pas-de-Calais;Pas-de-Calais;Gosnay 62377;E2.5833;N50.5167;13;
3;FRA;Nord-Pas-de-Calais;Pas-de-Calais;Gouves 62378;E2.6333;N50.3000;13;
3;FRA;Nord-Pas-de-Calais;Pas-de-Calais;Gouy-en-Artois 62379;E2.5833;N50.2500;13;
3;FRA;Nord-Pas-de-Calais;Pas-de-Calais;Gouy-en-Ternois 62381;E2.4167;N50.3167;13;
3;FRA;Nord-Pas-de-Calais;Pas-de-Calais;Gouy-Saint-André 62382;E1.9000;N50.3667;13;
3;FRA;Nord-Pas-de-Calais;Pas-de-Calais;Gouy-Servins 62380;E2.65;N50.4;13;
3;FRA;Nord-Pas-de-Calais;Pas-de-Calais;Gouy-sous-Bellonne 62383;E3.0500;N50.3167;13;
3;FRA;Nord-Pas-de-Calais;Pas-de-Calais;Graincourt-lès-Havrincourt 62384;E3.1;50.1333;13;
3;FRA;Nord-Pas-de-Calais;Pas-de-Calais;Grand-Rullecourt 62385;E2.4833;N50.2500;13;
3;FRA;Nord-Pas-de-Calais;Pas-de-Calais;Grenay 62386;E2.7333;N50.4500;13;
3;FRA;Nord-Pas-de-Calais;Pas-de-Calais;Grévillers 62387;E2.8167;N50.1000;13;
3;FRA;Nord-Pas-de-Calais;Pas-de-Calais;Grigny 62388;E2.0667;N50.3833;13;
3;FRA;Nord-Pas-de-Calais;Pas-de-Calais;Grincourt-lès-Pas 62389;E2.5000;N50.1667;13;
3;FRA;Nord-Pas-de-Calais;Pas-de-Calais;Groffliers 62390;E1.6167;N50.3833;13;
3;FRA;Nord-Pas-de-Calais;Pas-de-Calais;Guarbecque 62391;E2.4833;N50.6167;13;
3;FRA;Nord-Pas-de-Calais;Pas-de-Calais;Guémappe 62392;E2.8833;N50.2500;13;
3;FRA;Nord-Pas-de-Calais;Pas-de-Calais;Guemps 62393;E2.0000;N50.9167;13;
3;FRA;Nord-Pas-de-Calais;Pas-de-Calais;Guémy 62394=62827;E2.0333333;N50.8;13;
3;FRA;Nord-Pas-de-Calais;Pas-de-Calais;Guigny 62395;E2.0000;N50.3333;13;
3;FRA;Nord-Pas-de-Calais;Pas-de-Calais;Guinecourt 62396;E2.2333;N50.3500;13;
3;FRA;Nord-Pas-de-Calais;Pas-de-Calais;Guînes 62397;E1.8667;N50.8667;13;
3;FRA;Nord-Pas-de-Calais;Pas-de-Calais;Guisy 62398;E2.0000;N50.3833;13;
3;FRA;Nord-Pas-de-Calais;Pas-de-Calais;Habarcq 62399;E2.6167;N50.3000;13;
3;FRA;Nord-Pas-de-Calais;Pas-de-Calais;Haillicourt 62400;E2.5833;N50.4667;13;
3;FRA;Nord-Pas-de-Calais;Pas-de-Calais;Haisnes 62401;E2.8000;N50.5167;13;
3;FRA;Nord-Pas-de-Calais;Pas-de-Calais;Halinghen 62402;E1.7000;N50.6000;13;
3;FRA;Nord-Pas-de-Calais;Pas-de-Calais;Hallines 62403;E2.2167;N50.7167;13;
3;FRA;Nord-Pas-de-Calais;Pas-de-Calais;Halloy 62404;E2.4167;N50.1667;13;
3;FRA;Nord-Pas-de-Calais;Pas-de-Calais;Ham-en-Artois 62407;E2.4667;N50.5833;13;
3;FRA;Nord-Pas-de-Calais;Pas-de-Calais;Hamblain-les-Prés 62405;E2.9667;N50.3000;13;
3;FRA;Nord-Pas-de-Calais;Pas-de-Calais;Hamelincourt 62406;E2.8167;N50.1833;13;
3;FRA;Nord-Pas-de-Calais;Pas-de-Calais;Hames-Boucres 62408;E1.8500;N50.8833;13;
3;FRA;Nord-Pas-de-Calais;Pas-de-Calais;Hannescamps 62409;E2.6333;N50.1667;13;
3;FRA;Nord-Pas-de-Calais;Pas-de-Calais;Haplincourt 62410;E2.9333;N50.0833;13;
3;FRA;Nord-Pas-de-Calais;Pas-de-Calais;Haravesnes 62411;E2.1333;N50.2833;13;
3;FRA;Nord-Pas-de-Calais;Pas-de-Calais;Hardinghen 62412;E1.8167;N50.8000;13;
3;FRA;Nord-Pas-de-Calais;Pas-de-Calais;Harnes 62413;E2.9000;N50.4500;13;
3;FRA;Nord-Pas-de-Calais;Pas-de-Calais;Haucourt 62414;E2.9500;N50.2500;13;
3;FRA;Nord-Pas-de-Calais;Pas-de-Calais;Haut-Loquin 62419;E1.9667;N50.7333;13;
3;FRA;Nord-Pas-de-Calais;Pas-de-Calais;Haut-Maînil 62420=62683;E2.1167;N50.3000;13;
3;FRA;Nord-Pas-de-Calais;Pas-de-Calais;Haute-Avesnes 62415;E2.6333;N50.3333;13;
3;FRA;Nord-Pas-de-Calais;Pas-de-Calais;Hautecloque 62416;E2.3000;N50.3333;13;
3;FRA;Nord-Pas-de-Calais;Pas-de-Calais;Hautecôte 62417=62631;E2.2833;N50.3000;13;
3;FRA;Nord-Pas-de-Calais;Pas-de-Calais;Hauteville 62418;E2.5667;N50.2667;13;
3;FRA;Nord-Pas-de-Calais;Pas-de-Calais;Havrincourt 62421;E3.0833;N50.1167;13;
3;FRA;Nord-Pas-de-Calais;Pas-de-Calais;Hébuterne 62422;E2.6333;N50.1167;13;
3;FRA;Nord-Pas-de-Calais;Pas-de-Calais;Helfaut 62423;E2.2500;N50.7000;13;
3;FRA;Nord-Pas-de-Calais;Pas-de-Calais;Hendecourt-lès-Cagnicourt 62424;E2.9500;N50.2167;13;
3;FRA;Nord-Pas-de-Calais;Pas-de-Calais;Hendecourt-lès-Ransart 62425;E2.7333;N50.2000;13;
3;FRA;Nord-Pas-de-Calais;Pas-de-Calais;Hénin-Beaumont 62427;E2.9333;N50.4167;13;
3;FRA;Nord-Pas-de-Calais;Pas-de-Calais;Hénin-sur-Cojeul 62428;E2.8333;N50.2333;13;
3;FRA;Nord-Pas-de-Calais;Pas-de-Calais;Héninel 62426;E2.8667;N50.2333;13;
3;FRA;Nord-Pas-de-Calais;Pas-de-Calais;Henneveux 62429;E1.8500;N50.7167;13;
3;FRA;Nord-Pas-de-Calais;Pas-de-Calais;Hénu 62430;E2.5333;N50.1500;13;
3;FRA;Nord-Pas-de-Calais;Pas-de-Calais;Herbelles 62431;E2.2167;N50.6500;13;
3;FRA;Nord-Pas-de-Calais;Pas-de-Calais;Herbinghen 62432;E1.9167;N50.7667;13;
3;FRA;Nord-Pas-de-Calais;Pas-de-Calais;Héricourt 62433;E2.2500;N50.3500;13;
3;FRA;Nord-Pas-de-Calais;Pas-de-Calais;Herlin-le-Sec 62436;E2.3333;N50.3500;13;
3;FRA;Nord-Pas-de-Calais;Pas-de-Calais;Herlincourt 62435;E2.3000;N50.3500;13;
3;FRA;Nord-Pas-de-Calais;Pas-de-Calais;Herly 62437;E1.9833;N50.5500;13;
3;FRA;Nord-Pas-de-Calais;Pas-de-Calais;Hermaville 62438;E2.5833;N50.3167;13;
3;FRA;Nord-Pas-de-Calais;Pas-de-Calais;Hermelinghen 62439;E1.8500;N50.8000;13;
3;FRA;Nord-Pas-de-Calais;Pas-de-Calais;Hermies 62440;E3.0333;N50.1167;13;
3;FRA;Nord-Pas-de-Calais;Pas-de-Calais;Hermin 62441;E2.5500;N50.4167;13;
3;FRA;Nord-Pas-de-Calais;Pas-de-Calais;Hernicourt 62442;E2.3000;N50.4000;13;
3;FRA;Nord-Pas-de-Calais;Pas-de-Calais;Hersin-Coupigny 62443;E2.6500;N50.4500;13;
3;FRA;Nord-Pas-de-Calais;Pas-de-Calais;Hervelinghen 62444;E1.7167;N50.8833;13;
3;FRA;Nord-Pas-de-Calais;Pas-de-Calais;Hesdigneul-lès-Béthune 62445;E2.6000;N50.5000;13;
3;FRA;Nord-Pas-de-Calais;Pas-de-Calais;Hesdigneul-lès-Boulogne 62446;E1.6667;N50.6500;13;
3;FRA;Nord-Pas-de-Calais;Pas-de-Calais;Hesdin 62447;E2.0333;N50.3667;13;
3;FRA;Nord-Pas-de-Calais;Pas-de-Calais;Hesdin-l'Abbé 62448;E1.6833;N50.6667;13;
3;FRA;Nord-Pas-de-Calais;Pas-de-Calais;Hesmond 62449;E1.9500;N50.4500;13;
3;FRA;Nord-Pas-de-Calais;Pas-de-Calais;Hestrus 62450;E2.3333;N50.4500;13;
3;FRA;Nord-Pas-de-Calais;Pas-de-Calais;Heuchin 62451;E2.2667;N50.4667;13;
3;FRA;Nord-Pas-de-Calais;Pas-de-Calais;Heuringhem 62452;E2.2833;N50.7000;13;
3;FRA;Nord-Pas-de-Calais;Pas-de-Calais;Hézecques 62453;E2.1833;N50.5333;13;
3;FRA;Nord-Pas-de-Calais;Pas-de-Calais;Hinges 62454;E2.6167;N50.5667;13;
3;FRA;Nord-Pas-de-Calais;Pas-de-Calais;Hocquinghen 62455;E1.9333;N50.7667;13;
3;FRA;Nord-Pas-de-Calais;Pas-de-Calais;Houchin 62456;E2.6167;N50.4833;13;
3;FRA;Nord-Pas-de-Calais;Pas-de-Calais;Houdain 62457;E2.5333;N50.4500;13;
3;FRA;Nord-Pas-de-Calais;Pas-de-Calais;Houlle 62458;E2.1667;N50.8000;13;
3;FRA;Nord-Pas-de-Calais;Pas-de-Calais;Houvin-Houvigneul 62459;E2.3833;N50.3000;13;
3;FRA;Nord-Pas-de-Calais;Pas-de-Calais;Hubersent 62460;E1.7333;N50.5833;13;
3;FRA;Nord-Pas-de-Calais;Pas-de-Calais;Huby-Saint-Leu 62461;E2.0333;N50.3833;13;
3;FRA;Nord-Pas-de-Calais;Pas-de-Calais;Huclier 62462;E2.3500;N50.4333;13;
3;FRA;Nord-Pas-de-Calais;Pas-de-Calais;Hucqueliers 62463;E1.9000;N50.5667;13;
3;FRA;Nord-Pas-de-Calais;Pas-de-Calais;Hulluch 62464;E2.8167;N50.4833;13;
3;FRA;Nord-Pas-de-Calais;Pas-de-Calais;Humbercamps 62465;E2.5753;N50.1847;13;
3;FRA;Nord-Pas-de-Calais;Pas-de-Calais;Humbert 62466;E1.9000;N50.5000;13;
3;FRA;Nord-Pas-de-Calais;Pas-de-Calais;Humeroeuille 62467;E2.2167;N50.4000;13;
3;FRA;Nord-Pas-de-Calais;Pas-de-Calais;Humières 62468;E2.2000;N50.3833;13;
3;FRA;Nord-Pas-de-Calais;Pas-de-Calais;Inchy-en-Artois 62469;E3.0500;N50.1667;13;
3;FRA;Nord-Pas-de-Calais;Pas-de-Calais;Incourt 62470;E2.1500;N50.3833;13;
3;FRA;Nord-Pas-de-Calais;Pas-de-Calais;Inghem 62471;E2.2500;N50.6667;13;
3;FRA;Nord-Pas-de-Calais;Pas-de-Calais;Inxent 62472;E1.7833;N50.5333;13;
3;FRA;Nord-Pas-de-Calais;Pas-de-Calais;Isbergues 62473;E2.4500;N50.6167;13;
3;FRA;Nord-Pas-de-Calais;Pas-de-Calais;Isques 62474;E1.6500;N50.6667;13;
3;FRA;Nord-Pas-de-Calais;Pas-de-Calais;Ivergny 62475;E2.4000;N50.2333;13;
3;FRA;Nord-Pas-de-Calais;Pas-de-Calais;Izel-lès-Équerchin 62476;E2.9500;N50.3667;13;
3;FRA;Nord-Pas-de-Calais;Pas-de-Calais;Izel-les-Hameaux 62477;E2.5333;N50.3167;13;
3;FRA;Nord-Pas-de-Calais;Pas-de-Calais;Journy 62478;E1.9833;N50.7500;13;
3;FRA;Nord-Pas-de-Calais;Pas-de-Calais;La Calotterie 62196;E1.7167;N50.4833;13;
3;FRA;Nord-Pas-de-Calais;Pas-de-Calais;La Capelle-lès-Boulogne 62908;E1.7061;N50.7327;13;
3;FRA;Nord-Pas-de-Calais;Pas-de-Calais;La Cauchie 62216;E2.5833;N50.2000;13;
3;FRA;Nord-Pas-de-Calais;Pas-de-Calais;La Comté 62232;E2.5000;N50.4333;13;
3;FRA;Nord-Pas-de-Calais;Pas-de-Calais;La Couture 62252;E2.7167;N50.5833;13;
3;FRA;Nord-Pas-de-Calais;Pas-de-Calais;La Herlière 62434;E2.5500;N50.2167;13;
3;FRA;Nord-Pas-de-Calais;Pas-de-Calais;La Loge 62521;E2.0333;N50.4000;13;
3;FRA;Nord-Pas-de-Calais;Pas-de-Calais;La Madelaine-sous-Montreuil 62535;E1.75;N50.4666667;13;
3;FRA;Nord-Pas-de-Calais;Pas-de-Calais;La Thieuloye 62813;E2.4333;N50.4167;13;
3;FRA;Nord-Pas-de-Calais;Pas-de-Calais;Labeuvrière 62479;E2.5667;N50.5167;13;
3;FRA;Nord-Pas-de-Calais;Pas-de-Calais;Labourse 62480;E2.7000;N50.5000;13;
3;FRA;Nord-Pas-de-Calais;Pas-de-Calais;Labroye 62481;E1.9833;N50.2833;13;
3;FRA;Nord-Pas-de-Calais;Pas-de-Calais;Labuissière 62482=62178;E2.5667;N50.4833;13;
3;FRA;Nord-Pas-de-Calais;Pas-de-Calais;Lacres 62483;E1.7500;N50.6000;13;
3;FRA;Nord-Pas-de-Calais;Pas-de-Calais;Lagnicourt-Marcel 62484;E2.9500;N50.1500;13;
3;FRA;Nord-Pas-de-Calais;Pas-de-Calais;Laires 62485;E2.2500;N50.5333;13;
3;FRA;Nord-Pas-de-Calais;Pas-de-Calais;Lambres 62486;E2.4000;N50.6167;13;
3;FRA;Nord-Pas-de-Calais;Pas-de-Calais;Landrethun-le-Nord 62487;E1.7833;N50.8500;13;
3;FRA;Nord-Pas-de-Calais;Pas-de-Calais;Landrethun-lès-Ardres 62488;E1.9667;N50.8167;13;
3;FRA;Nord-Pas-de-Calais;Pas-de-Calais;Lapugnoy 62489;E2.5333;N50.5167;13;
3;FRA;Nord-Pas-de-Calais;Pas-de-Calais;Lattre-Saint-Quentin 62490;E2.5833;N50.2833;13;
3;FRA;Nord-Pas-de-Calais;Pas-de-Calais;Laventie 62491;E2.7667;N50.6333;13;
3;FRA;Nord-Pas-de-Calais;Pas-de-Calais;Le Parcq 62647;E2.1000;N50.3833;13;
3;FRA;Nord-Pas-de-Calais;Pas-de-Calais;Le Ponchel 62665;E2.0790;N50.2580;13;
3;FRA;Nord-Pas-de-Calais;Pas-de-Calais;Le Portel 62667;E1.5667;N50.7000;13;
3;FRA;Nord-Pas-de-Calais;Pas-de-Calais;Le Quesnoy-en-Artois 62677;E2.0500;N50.3333;13;
3;FRA;Nord-Pas-de-Calais;Pas-de-Calais;Le Sars 62777;E2.7833;N50.0667;13;
3;FRA;Nord-Pas-de-Calais;Pas-de-Calais;Le Souich 62802;E2.3667;N50.2167;13;
3;FRA;Nord-Pas-de-Calais;Pas-de-Calais;Le Touquet-Paris-Plage 62826;E1.5833;N50.5167;13;
3;FRA;Nord-Pas-de-Calais;Pas-de-Calais;Le Transloy 62829;E2.8833333;N50.05;13;
3;FRA;Nord-Pas-de-Calais;Pas-de-Calais;Le Wast 62880;E1.8000;N50.7500;13;
3;FRA;Nord-Pas-de-Calais;Pas-de-Calais;Lebiez 62492;E1.9833;N50.4667;13;
3;FRA;Nord-Pas-de-Calais;Pas-de-Calais;Lebucquière 62493;E2.9677;N50.1130;13;
3;FRA;Nord-Pas-de-Calais;Pas-de-Calais;Léchelle 62494;E2.9833;N50.0500;13;
3;FRA;Nord-Pas-de-Calais;Pas-de-Calais;Ledinghem 62495;E1.9833;N50.6500;13;
3;FRA;Nord-Pas-de-Calais;Pas-de-Calais;Lefaux 62496;E1.6500;N50.5500;13;
3;FRA;Nord-Pas-de-Calais;Pas-de-Calais;Leforest 62497;E3.0667;N50.4333;13;
3;FRA;Nord-Pas-de-Calais;Pas-de-Calais;Lens 62498;E2.8333;N50.4333;13;
3;FRA;Nord-Pas-de-Calais;Pas-de-Calais;Lépine 62499;E1.7167;N50.3833;13;
3;FRA;Nord-Pas-de-Calais;Pas-de-Calais;Les Attaques 62043;E1.9333;N50.9000;13;
3;FRA;Nord-Pas-de-Calais;Pas-de-Calais;Lespesses 62500;E2.4167;N50.5667;13;
3;FRA;Nord-Pas-de-Calais;Pas-de-Calais;Lespinoy 62501;E1.8667;N50.4333;13;
3;FRA;Nord-Pas-de-Calais;Pas-de-Calais;Lestrem 62502;E2.6833;N50.6167;13;
3;FRA;Nord-Pas-de-Calais;Pas-de-Calais;Leubringhen 62503;E1.7167;N50.8500;13;
3;FRA;Nord-Pas-de-Calais;Pas-de-Calais;Leulinghem 62504;E2.1667;N50.7333;13;
3;FRA;Nord-Pas-de-Calais;Pas-de-Calais;Leulinghen-Bernes 62505;E1.7167;N50.8333;13;
3;FRA;Nord-Pas-de-Calais;Pas-de-Calais;Libercourt 62907;E3.0167;N50.4833;13;
3;FRA;Nord-Pas-de-Calais;Pas-de-Calais;Licques 62506;E1.9333;N50.7833;13;
3;FRA;Nord-Pas-de-Calais;Pas-de-Calais;Liencourt 62507;E2.4500;N50.2667;13;
3;FRA;Nord-Pas-de-Calais;Pas-de-Calais;Lières 62508;E2.4167;N50.5500;13;
3;FRA;Nord-Pas-de-Calais;Pas-de-Calais;Liettres 62509;E2.3500;N50.6000;13;
3;FRA;Nord-Pas-de-Calais;Pas-de-Calais;Liévin 62510;E2.7667;N50.4167;13;
3;FRA;Nord-Pas-de-Calais;Pas-de-Calais;Lignereuil 62511;E2.4667;N50.2833;13;
3;FRA;Nord-Pas-de-Calais;Pas-de-Calais;Ligny-lès-Aire 62512;E2.3500;N50.5500;13;
3;FRA;Nord-Pas-de-Calais;Pas-de-Calais;Ligny-Saint-Flochel 62514;E2.4333;N50.3500;13;
3;FRA;Nord-Pas-de-Calais;Pas-de-Calais;Ligny-sur-Canche 62513;E2.2500;N50.2833;13;
3;FRA;Nord-Pas-de-Calais;Pas-de-Calais;Ligny-Thilloy 62515;E2.8333;N50.0833;13;
3;FRA;Nord-Pas-de-Calais;Pas-de-Calais;Lillers 62516;E2.4833;N50.5667;13;
3;FRA;Nord-Pas-de-Calais;Pas-de-Calais;Linghem 62517;E2.3667;N50.6000;13;
3;FRA;Nord-Pas-de-Calais;Pas-de-Calais;Linzeux 62518;E2.2000;N50.3500;13;
3;FRA;Nord-Pas-de-Calais;Pas-de-Calais;Lisbourg 62519;E2.2167;N50.5000;13;
3;FRA;Nord-Pas-de-Calais;Pas-de-Calais;Locon 62520;E2.6667;N50.5667;13;
3;FRA;Nord-Pas-de-Calais;Pas-de-Calais;Loison-sous-Lens 62523;E2.8667;N50.4333;13;
3;FRA;Nord-Pas-de-Calais;Pas-de-Calais;Loison-sur-Créquoise 62522;E1.9167;N50.4333;13;
3;FRA;Nord-Pas-de-Calais;Pas-de-Calais;Longfossé 62524;E1.8000;N50.6500;13;
3;FRA;Nord-Pas-de-Calais;Pas-de-Calais;Longuenesse 62525;E2.2333;N50.7333;13;
3;FRA;Nord-Pas-de-Calais;Pas-de-Calais;Longueville 62526;E1.8833;N50.7333;13;
3;FRA;Nord-Pas-de-Calais;Pas-de-Calais;Longvilliers 62527;E1.7167;N50.5500;13;
3;FRA;Nord-Pas-de-Calais;Pas-de-Calais;Loos-en-Gohelle 62528;E2.7833;N50.4500;13;
3;FRA;Nord-Pas-de-Calais;Pas-de-Calais;Lorgies 62529;E2.7833;N50.5667;13;
3;FRA;Nord-Pas-de-Calais;Pas-de-Calais;Lottinghen 62530;E1.9333;N50.6833;13;
3;FRA;Nord-Pas-de-Calais;Pas-de-Calais;Louches 62531;E2.0000;N50.8333;13;
3;FRA;Nord-Pas-de-Calais;Pas-de-Calais;Lozinghem 62532;E2.5000;N50.5167;13;
3;FRA;Nord-Pas-de-Calais;Pas-de-Calais;Lugy 62533;E2.1833;N50.5167;13;
3;FRA;Nord-Pas-de-Calais;Pas-de-Calais;Lumbres 62534;E2.1333;N50.7000;13;
3;FRA;Nord-Pas-de-Calais;Pas-de-Calais;Magnicourt-en-Comte 62536;E2.5000;N50.4000;13;
3;FRA;Nord-Pas-de-Calais;Pas-de-Calais;Magnicourt-sur-Canche 62537;E2.4167;N50.3000;13;
3;FRA;Nord-Pas-de-Calais;Pas-de-Calais;Maintenay 62538;E1.8167;N50.3667;13;
3;FRA;Nord-Pas-de-Calais;Pas-de-Calais;Maisnil 62539;E2.3667;N50.3417;13;
3;FRA;Nord-Pas-de-Calais;Pas-de-Calais;Maisnil-lès-Ruitz 62540;E2.5833;N50.4500;13;
3;FRA;Nord-Pas-de-Calais;Pas-de-Calais;Maisoncelle 62541;E2.1417;N50.4417;13;
3;FRA;Nord-Pas-de-Calais;Pas-de-Calais;Maizières 62542;E2.4500;N50.3167;13;
3;FRA;Nord-Pas-de-Calais;Pas-de-Calais;Mametz 62543;E2.3333;N50.6333;13;
3;FRA;Nord-Pas-de-Calais;Pas-de-Calais;Manin 62544;E2.5167;N50.3000;13;
3;FRA;Nord-Pas-de-Calais;Pas-de-Calais;Maninghem 62545;E1.9500;N50.5333;13;
3;FRA;Nord-Pas-de-Calais;Pas-de-Calais;Maninghen-Henne 62546;E1.6667;N50.7667;13;
3;FRA;Nord-Pas-de-Calais;Pas-de-Calais;Marant 62547;E1.8333;N50.4667;13;
3;FRA;Nord-Pas-de-Calais;Pas-de-Calais;Marck 62548;E1.9500;N50.9500;13;
3;FRA;Nord-Pas-de-Calais;Pas-de-Calais;Marconne 62549;E2.0500;N50.3667;13;
3;FRA;Nord-Pas-de-Calais;Pas-de-Calais;Marconnelle 62550;E2.0167;N50.3667;13;
3;FRA;Nord-Pas-de-Calais;Pas-de-Calais;Marenla 62551;E1.8667;N50.4500;13;
3;FRA;Nord-Pas-de-Calais;Pas-de-Calais;Maresquel-Ecquemicourt 62552;E1.9167;N50.4;13;
3;FRA;Nord-Pas-de-Calais;Pas-de-Calais;Marest 62553;E2.4167;N50.4667;13;
3;FRA;Nord-Pas-de-Calais;Pas-de-Calais;Maresville 62554;E1.7333;N50.5333;13;
3;FRA;Nord-Pas-de-Calais;Pas-de-Calais;Marles-les-Mines 62555;E2.5167;N50.5000;13;
3;FRA;Nord-Pas-de-Calais;Pas-de-Calais;Marles-sur-Canche 62556;E1.8333;N50.4500;13;
3;FRA;Nord-Pas-de-Calais;Pas-de-Calais;Maroeuil 62557;E2.7000;N50.3167;13;
3;FRA;Nord-Pas-de-Calais;Pas-de-Calais;Marquay 62558;E2.4167;N50.3833;13;
3;FRA;Nord-Pas-de-Calais;Pas-de-Calais;Marquion 62559;E3.0833;N50.2167;13;
3;FRA;Nord-Pas-de-Calais;Pas-de-Calais;Marquise 62560;E1.7000;N50.8167;13;
3;FRA;Nord-Pas-de-Calais;Pas-de-Calais;Martinpuich 62561;E2.7667;N50.0333;13;
3;FRA;Nord-Pas-de-Calais;Pas-de-Calais;Matringhem 62562;E2.1667;N50.5500;13;
3;FRA;Nord-Pas-de-Calais;Pas-de-Calais;Mazingarbe 62563;E2.7000;N50.4667;13;
3;FRA;Nord-Pas-de-Calais;Pas-de-Calais;Mazinghem 62564;E2.4000;N50.6000;13;
3;FRA;Nord-Pas-de-Calais;Pas-de-Calais;Mencas 62565;E2.1333;N50.5500;13;
3;FRA;Nord-Pas-de-Calais;Pas-de-Calais;Menneville 62566;E1.8667;N50.6833;13;
3;FRA;Nord-Pas-de-Calais;Pas-de-Calais;Mentque-Nortbécourt 62567;E2.0833;N50.7833;13;
3;FRA;Nord-Pas-de-Calais;Pas-de-Calais;Mercatel 62568;E2.8000;N50.2333;13;
3;FRA;Nord-Pas-de-Calais;Pas-de-Calais;Merck-Saint-Liévin 62569;E2.1167;N50.6167;13;
3;FRA;Nord-Pas-de-Calais;Pas-de-Calais;Méricourt 62570;E2.8667;N50.4000;13;
3;FRA;Nord-Pas-de-Calais;Pas-de-Calais;Merlimont 62571;E1.6167;N50.4500;13;
3;FRA;Nord-Pas-de-Calais;Pas-de-Calais;Metz-en-Couture 62572;E3.0667;N50.0667;13;
3;FRA;Nord-Pas-de-Calais;Pas-de-Calais;Meurchin 62573;E2.8833;N50.5000;13;
3;FRA;Nord-Pas-de-Calais;Pas-de-Calais;Mingoval 62574;E2.5667;N50.3667;13;
3;FRA;Nord-Pas-de-Calais;Pas-de-Calais;Molinghem 62575=62473;E3.0667;N50.1500;13;
3;FRA;Nord-Pas-de-Calais;Pas-de-Calais;Moncheaux-lès-Frévent 62576;E2.4500;N50.6167;13;
3;FRA;Nord-Pas-de-Calais;Pas-de-Calais;Monchel-sur-Canche 62577;E2.2167;N50.3000;13;
3;FRA;Nord-Pas-de-Calais;Pas-de-Calais;Monchiet 62578;E2.6333;N50.2333;13;
3;FRA;Nord-Pas-de-Calais;Pas-de-Calais;Monchy-au-Bois 62579;E2.6667;N50.1833;13;
3;FRA;Nord-Pas-de-Calais;Pas-de-Calais;Monchy-Breton 62580;E2.4333;N50.4000;13;
3;FRA;Nord-Pas-de-Calais;Pas-de-Calais;Monchy-Cayeux 62581;E2.2667;N50.4333;13;
3;FRA;Nord-Pas-de-Calais;Pas-de-Calais;Monchy-le-Preux 62582;E2.9000;N50.2667;13;
3;FRA;Nord-Pas-de-Calais;Pas-de-Calais;Mondicourt 62583;E2.4667;N50.1667;13;
3;FRA;Nord-Pas-de-Calais;Pas-de-Calais;Mont-Bernanchon 62584;E2.5885;N50.5836;13;
3;FRA;Nord-Pas-de-Calais;Pas-de-Calais;Mont-Saint-Éloi 62589;E2.7000;N50.3500;13;
3;FRA;Nord-Pas-de-Calais;Pas-de-Calais;Montcavrel 62585;E1.8000;N50.5167;13;
3;FRA;Nord-Pas-de-Calais;Pas-de-Calais;Montenescourt 62586;E2.6167;N50.3000;13;
3;FRA;Nord-Pas-de-Calais;Pas-de-Calais;Montigny-en-Gohelle 62587;E2.9333;N50.4333;13;
3;FRA;Nord-Pas-de-Calais;Pas-de-Calais;Montreuil 62588;E1.7642;N50.4644;13;
3;FRA;Nord-Pas-de-Calais;Pas-de-Calais;Monts-en-Ternois 62590;E2.3833;N50.3167;13;
3;FRA;Nord-Pas-de-Calais;Pas-de-Calais;Morchies 62591;E2.9500;N50.1333;13;
3;FRA;Nord-Pas-de-Calais;Pas-de-Calais;Moringhem 62592;E2.1333;N50.7667;13;
3;FRA;Nord-Pas-de-Calais;Pas-de-Calais;Morval 62593;E2.8667;N50.0333;13;
3;FRA;Nord-Pas-de-Calais;Pas-de-Calais;Mory 62594;E2.8500;N50.1500;13;
3;FRA;Nord-Pas-de-Calais;Pas-de-Calais;Moulle 62595;E2.1833;N50.7833;13;
3;FRA;Nord-Pas-de-Calais;Pas-de-Calais;Mouriez 62596;E1.9500;N50.3500;13;
3;FRA;Nord-Pas-de-Calais;Pas-de-Calais;Moyenneville 62597;E2.7667;N50.1833;13;
3;FRA;Nord-Pas-de-Calais;Pas-de-Calais;Muncq-Nieurlet 62598;E2.1167;N50.8500;13;
3;FRA;Nord-Pas-de-Calais;Pas-de-Calais;Nabringhen 62599;E1.8667;N50.7500;13;
3;FRA;Nord-Pas-de-Calais;Pas-de-Calais;Nédon 62600;E2.3667;N50.5333;13;
3;FRA;Nord-Pas-de-Calais;Pas-de-Calais;Nédonchel 62601;E2.3667;N50.5167;13;
3;FRA;Nord-Pas-de-Calais;Pas-de-Calais;Nempont-Saint-Firmin 62602;E1.7333;N50.3500;13;
3;FRA;Nord-Pas-de-Calais;Pas-de-Calais;Nesles 62603;E1.6500;N50.6167;13;
3;FRA;Nord-Pas-de-Calais;Pas-de-Calais;Neufchâtel-Hardelot 62604;E1.6333;N50.6167;13;
3;FRA;Nord-Pas-de-Calais;Pas-de-Calais;Neulette 62605;E2.1667;N50.3833;13;
3;FRA;Nord-Pas-de-Calais;Pas-de-Calais;Neuve-Chapelle 62606;E2.7833;N50.5833;13;
3;FRA;Nord-Pas-de-Calais;Pas-de-Calais;Neuville-au-Cornet 62607;E2.3667;N50.3333;13;
3;FRA;Nord-Pas-de-Calais;Pas-de-Calais;Neuville-Bourjonval 62608;E3.021;N50.068;13;
3;FRA;Nord-Pas-de-Calais;Pas-de-Calais;Neuville-Saint-Vaast 62609;E2.7667;N50.3500;13;
3;FRA;Nord-Pas-de-Calais;Pas-de-Calais;Neuville-sous-Montreuil 62610;E1.7667;N50.4667;13;
3;FRA;Nord-Pas-de-Calais;Pas-de-Calais;Neuville-Vitasse 62611;E2.8167;N50.2500;13;
3;FRA;Nord-Pas-de-Calais;Pas-de-Calais;Neuvireuil 62612;E2.9167;N50.3500;13;
3;FRA;Nord-Pas-de-Calais;Pas-de-Calais;Nielles-lès-Ardres 62614;E2.0167;N50.8333;13;
3;FRA;Nord-Pas-de-Calais;Pas-de-Calais;Nielles-lès-Bléquin 62613;E2.0167;N50.6667;13;
3;FRA;Nord-Pas-de-Calais;Pas-de-Calais;Nielles-lès-Calais 62615;E1.8333;N50.9000;13;
3;FRA;Nord-Pas-de-Calais;Pas-de-Calais;Noeux-lès-Auxi 62616;E2.1833;N50.2333;13;
3;FRA;Nord-Pas-de-Calais;Pas-de-Calais;Noeux-les-Mines 62617;E2.6667;N50.4833;13;
3;FRA;Nord-Pas-de-Calais;Pas-de-Calais;Nordausques 62618;E2.0833;N50.8167;13;
3;FRA;Nord-Pas-de-Calais;Pas-de-Calais;Noreuil 62619;E2.9167;N50.1667;13;
3;FRA;Nord-Pas-de-Calais;Pas-de-Calais;Norrent-Fontes 62620;E2.4000;N50.5833;13;
3;FRA;Nord-Pas-de-Calais;Pas-de-Calais;Nort-Leulinghem 62622;E2.1000;N50.8000;13;
3;FRA;Nord-Pas-de-Calais;Pas-de-Calais;Nortkerque 62621;E2.0333;N50.8833;13;
3;FRA;Nord-Pas-de-Calais;Pas-de-Calais;Nouvelle-Église 62623;E2.0500;N50.9333;13;
3;FRA;Nord-Pas-de-Calais;Pas-de-Calais;Noyelle-Vion 62630;E2.5500;N50.3000;13;
3;FRA;Nord-Pas-de-Calais;Pas-de-Calais;Noyelles-Godault 62624;E2.9833;N50.4167;13;
3;FRA;Nord-Pas-de-Calais;Pas-de-Calais;Noyelles-lès-Humières 62625;E2.1667;N50.3667;13;
3;FRA;Nord-Pas-de-Calais;Pas-de-Calais;Noyelles-lès-Vermelles 62626;E2.7167;N50.4833;13;
3;FRA;Nord-Pas-de-Calais;Pas-de-Calais;Noyelles-sous-Bellonne 62627;E3.0333;N50.3167;13;
3;FRA;Nord-Pas-de-Calais;Pas-de-Calais;Noyelles-sous-Lens 62628;E2.8667;N50.4333;13;
3;FRA;Nord-Pas-de-Calais;Pas-de-Calais;Noyellette 62629;E2.6000;N50.3000;13;
3;FRA;Nord-Pas-de-Calais;Pas-de-Calais;Nuncq-Hautecôte 62631;E2.2833;N50.3000;13;
3;FRA;Nord-Pas-de-Calais;Pas-de-Calais;Oblinghem 62632;E2.6000;N50.5500;13;
3;FRA;Nord-Pas-de-Calais;Pas-de-Calais;Oeuf-en-Ternois 62633;E2.2167;N50.3667;13;
3;FRA;Nord-Pas-de-Calais;Pas-de-Calais;Offekerque 62634;E2.0167;N50.9500;13;
3;FRA;Nord-Pas-de-Calais;Pas-de-Calais;Offin 62635;E1.9500;N50.4500;13;
3;FRA;Nord-Pas-de-Calais;Pas-de-Calais;Offrethun 62636;E1.6833;N50.7833;13;
3;FRA;Nord-Pas-de-Calais;Pas-de-Calais;Oignies 62637;E2.9833;N50.4667;13;
3;FRA;Nord-Pas-de-Calais;Pas-de-Calais;Oisy-le-Verger 62638;E3.1167;N50.2500;13;
3;FRA;Nord-Pas-de-Calais;Pas-de-Calais;Oppy 62639;E2.8833;N50.3500;13;
3;FRA;Nord-Pas-de-Calais;Pas-de-Calais;Orville 62640;E2.4167;N50.1167;13;
3;FRA;Nord-Pas-de-Calais;Pas-de-Calais;Ostreville 62641;E2.4000;N50.4000;13;
3;FRA;Nord-Pas-de-Calais;Pas-de-Calais;Ourton 62642;E2.4833;N50.4500;13;
3;FRA;Nord-Pas-de-Calais;Pas-de-Calais;Outreau 62643;E1.5833;N50.7000;13;
3;FRA;Nord-Pas-de-Calais;Pas-de-Calais;Ouve-Wirquin 62644;E2.1333;N50.6500;13;
3;FRA;Nord-Pas-de-Calais;Pas-de-Calais;Oye-Plage 62645;E2.0500;N50.9833;13;
3;FRA;Nord-Pas-de-Calais;Pas-de-Calais;Palluel 62646;E3.1000;N50.2667;13;
3;FRA;Nord-Pas-de-Calais;Pas-de-Calais;Parenty 62648;E1.8000;N50.5833;13;
3;FRA;Nord-Pas-de-Calais;Pas-de-Calais;Pas-en-Artois 62649;E2.5000;N50.1500;13;
3;FRA;Nord-Pas-de-Calais;Pas-de-Calais;Pelves 62650;E2.9167;N50.2833;13;
3;FRA;Nord-Pas-de-Calais;Pas-de-Calais;Penin 62651;E2.4833;N50.3333;13;
3;FRA;Nord-Pas-de-Calais;Pas-de-Calais;Pernes 62652;E2.4167;N50.4833;13;
3;FRA;Nord-Pas-de-Calais;Pas-de-Calais;Pernes-lès-Boulogne 62653;E1.7000;N50.7500;13;
3;FRA;Nord-Pas-de-Calais;Pas-de-Calais;Peuplingues 62654;E1.7667;N50.9167;13;
3;FRA;Nord-Pas-de-Calais;Pas-de-Calais;Pierremont 62655;E2.2667;N50.4000;13;
3;FRA;Nord-Pas-de-Calais;Pas-de-Calais;Pihem 62656;E2.2167;N50.6833;13;
3;FRA;Nord-Pas-de-Calais;Pas-de-Calais;Pihen-lès-Guînes 62657;E1.7833;N50.8667;13;
3;FRA;Nord-Pas-de-Calais;Pas-de-Calais;Pittefaux 62658;E1.6833;N50.7667;13;
3;FRA;Nord-Pas-de-Calais;Pas-de-Calais;Planques 62659;E2.0833;N50.4667;13;
3;FRA;Nord-Pas-de-Calais;Pas-de-Calais;Plouvain 62660;E2.9167;N50.3000;13;
3;FRA;Nord-Pas-de-Calais;Pas-de-Calais;Polincove 62662;E2.1000;N50.8500;13;
3;FRA;Nord-Pas-de-Calais;Pas-de-Calais;Pommera 62663;E2.4333;N50.1667;13;
3;FRA;Nord-Pas-de-Calais;Pas-de-Calais;Pommier 62664;E2.6000;N50.1833;13;
3;FRA;Nord-Pas-de-Calais;Pas-de-Calais;Pont-à-Vendin 62666;E2.8833;N50.4667;13;
3;FRA;Nord-Pas-de-Calais;Pas-de-Calais;Prédefin 62668;E2.2500;N50.5000;13;
3;FRA;Nord-Pas-de-Calais;Pas-de-Calais;Pressy 62669;E2.4000;N50.4833;13;
3;FRA;Nord-Pas-de-Calais;Pas-de-Calais;Preures 62670;E1.8667;N50.5667;13;
3;FRA;Nord-Pas-de-Calais;Pas-de-Calais;Pronville 62671;E3.0000;N50.1667;13;
3;FRA;Nord-Pas-de-Calais;Pas-de-Calais;Puisieux 62672;E2.7000;N50.1167;13;
3;FRA;Nord-Pas-de-Calais;Pas-de-Calais;Quéant 62673;E2.9833;N50.1833;13;
3;FRA;Nord-Pas-de-Calais;Pas-de-Calais;Quelmes 62674;E2.1333;N50.7333;13;
3;FRA;Nord-Pas-de-Calais;Pas-de-Calais;Quercamps 62675;E2.0500;N50.7500;13;
3;FRA;Nord-Pas-de-Calais;Pas-de-Calais;Quernes 62676;E2.3667;N50.6000;13;
3;FRA;Nord-Pas-de-Calais;Pas-de-Calais;Quesques 62678;E1.9333;N50.7000;13;
3;FRA;Nord-Pas-de-Calais;Pas-de-Calais;Questrecques 62679;E1.7500;N50.6667;13;
3;FRA;Nord-Pas-de-Calais;Pas-de-Calais;Quiéry-la-Motte 62680;E2.9833;N50.3667;13;
3;FRA;Nord-Pas-de-Calais;Pas-de-Calais;Quiestède 62681;E2.3333;N50.6833;13;
3;FRA;Nord-Pas-de-Calais;Pas-de-Calais;Quilen 62682;E1.9333;N50.5333;13;
3;FRA;Nord-Pas-de-Calais;Pas-de-Calais;Quoeux-Haut-Maînil 62683;E2.1000;N50.3000;13;
3;FRA;Nord-Pas-de-Calais;Pas-de-Calais;Racquinghem 62684;E2.3667;N50.7000;13;
3;FRA;Nord-Pas-de-Calais;Pas-de-Calais;Radinghem 62685;E2.1333;N50.5500;13;
3;FRA;Nord-Pas-de-Calais;Pas-de-Calais;Ramecourt 62686;E2.3167;N50.3667;13;
3;FRA;Nord-Pas-de-Calais;Pas-de-Calais;Ranchicourt 62687=62693;E2.5500;N50.4333;13;
3;FRA;Nord-Pas-de-Calais;Pas-de-Calais;Rang-du-Fliers 62688;E1.6500;N50.4167;13;
3;FRA;Nord-Pas-de-Calais;Pas-de-Calais;Ransart 62689;E2.6833;N50.2167;13;
3;FRA;Nord-Pas-de-Calais;Pas-de-Calais;Raye-sur-Authie 62690;E1.9500;N50.3000;13;
3;FRA;Nord-Pas-de-Calais;Pas-de-Calais;Rebecques 62691;E2.3000;N50.6500;13;
3;FRA;Nord-Pas-de-Calais;Pas-de-Calais;Rebergues 62692;E1.9667;N50.7500;13;
3;FRA;Nord-Pas-de-Calais;Pas-de-Calais;Rebreuve-Ranchicourt 62693;E2.55;N50.4333;13;
3;FRA;Nord-Pas-de-Calais;Pas-de-Calais;Rebreuve-sur-Canche 62694;E2.3500;N50.2667;13;
3;FRA;Nord-Pas-de-Calais;Pas-de-Calais;Rebreuviette 62695;E2.3667;N50.2667;13;
3;FRA;Nord-Pas-de-Calais;Pas-de-Calais;Reclinghem 62696;E2.1833;N50.5667;13;
3;FRA;Nord-Pas-de-Calais;Pas-de-Calais;Récourt 62697;E3.0333;N50.2500;13;
3;FRA;Nord-Pas-de-Calais;Pas-de-Calais;Recques-sur-Course 62698;E1.7833;N50.5167;13;
3;FRA;Nord-Pas-de-Calais;Pas-de-Calais;Recques-sur-Hem 62699;E2.0833;N50.8333;13;
3;FRA;Nord-Pas-de-Calais;Pas-de-Calais;Regnauville 62700;E2.0167;N50.3167;13;
3;FRA;Nord-Pas-de-Calais;Pas-de-Calais;Rely 62701;E2.3667;N50.5667;13;
3;FRA;Nord-Pas-de-Calais;Pas-de-Calais;Remilly-Wirquin 62702;E2.1667;N50.6667;13;
3;FRA;Nord-Pas-de-Calais;Pas-de-Calais;Rémy 62703;E2.9667;N50.2500;13;
3;FRA;Nord-Pas-de-Calais;Pas-de-Calais;Renty 62704;E2.0667;N50.5833;13;
3;FRA;Nord-Pas-de-Calais;Pas-de-Calais;Rety 62705;E1.7667;N50.8000;13;
3;FRA;Nord-Pas-de-Calais;Pas-de-Calais;Richebourg 62706;E1.6417;N48.825;13;
3;FRA;Nord-Pas-de-Calais;Pas-de-Calais;Richebourg-Saint-Vaast 62707=62706;E2.8833;N50.0833;13;
3;FRA;Nord-Pas-de-Calais;Pas-de-Calais;Riencourt-lès-Bapaume 62708;E2.8833;N50.0833;13;
3;FRA;Nord-Pas-de-Calais;Pas-de-Calais;Riencourt-lès-Cagnicourt 62709;E2.9500;N50.2000;13;
3;FRA;Nord-Pas-de-Calais;Pas-de-Calais;Rimboval 62710;E1.9833;N50.5000;13;
3;FRA;Nord-Pas-de-Calais;Pas-de-Calais;Rinxent 62711;E2.3561;N50.6488;13;
3;FRA;Nord-Pas-de-Calais;Pas-de-Calais;Rivière 62712;E1.7333;N50.8000;13;
3;FRA;Nord-Pas-de-Calais;Pas-de-Calais;Robecq 62713;E2.6833;N50.2333;13;
3;FRA;Nord-Pas-de-Calais;Pas-de-Calais;Roclincourt 62714;E2.5667;N50.6000;13;
3;FRA;Nord-Pas-de-Calais;Pas-de-Calais;Rocquigny 62715;E2.7833;N50.3167;13;
3;FRA;Nord-Pas-de-Calais;Pas-de-Calais;Rodelinghem 62716;E2.9167;N50.0500;13;
3;FRA;Nord-Pas-de-Calais;Pas-de-Calais;Roëllecourt 62717;E1.9333;N50.8333;13;
3;FRA;Nord-Pas-de-Calais;Pas-de-Calais;Roeux 62718;E2.3833;N50.3667;13;
3;FRA;Nord-Pas-de-Calais;Pas-de-Calais;Rollancourt 62719;E2.1167;N50.4167;13;
3;FRA;Nord-Pas-de-Calais;Pas-de-Calais;Rombly 62720;E2.3833;N50.6000;13;
3;FRA;Nord-Pas-de-Calais;Pas-de-Calais;Roquetoire 62721;E2.3500;N50.6667;13;
3;FRA;Nord-Pas-de-Calais;Pas-de-Calais;Rougefay 62722;E2.1667;N50.2667;13;
3;FRA;Nord-Pas-de-Calais;Pas-de-Calais;Roussent 62723;E1.7833;N50.3667;13;
3;FRA;Nord-Pas-de-Calais;Pas-de-Calais;Rouvroy 62724;E2.9000;N50.3833;13;
3;FRA;Nord-Pas-de-Calais;Pas-de-Calais;Royon 62725;E2.0000;N50.4667;13;
3;FRA;Nord-Pas-de-Calais;Pas-de-Calais;Ruisseauville 62726;E2.1167;N50.4833;13;
3;FRA;Nord-Pas-de-Calais;Pas-de-Calais;Ruitz 62727;E2.5833;N50.4667;13;
3;FRA;Nord-Pas-de-Calais;Pas-de-Calais;Rumaucourt 62728;E3.0667;N50.2500;13;
3;FRA;Nord-Pas-de-Calais;Pas-de-Calais;Rumilly 62729;E2.0167;N50.5833;13;
3;FRA;Nord-Pas-de-Calais;Pas-de-Calais;Ruminghem 62730;E2.1500;N50.8667;13;
3;FRA;Nord-Pas-de-Calais;Pas-de-Calais;Ruyaulcourt 62731;E3.0167;N50.0833;13;
3;FRA;Nord-Pas-de-Calais;Pas-de-Calais;Sachin 62732;E2.3833;N50.4833;13;
3;FRA;Nord-Pas-de-Calais;Pas-de-Calais;Sailly-au-Bois 62733;E2.5833;N50.1167;13;
3;FRA;Nord-Pas-de-Calais;Pas-de-Calais;Sailly-en-Ostrevent 62734;E3.0000;N50.2833;13;
3;FRA;Nord-Pas-de-Calais;Pas-de-Calais;Sailly-Labourse 62735;E2.7000;N50.5000;13;
3;FRA;Nord-Pas-de-Calais;Pas-de-Calais;Sailly-sur-la-Lys 62736;E2.7667;N50.6500;13;
3;FRA;Nord-Pas-de-Calais;Pas-de-Calais;Sains-en-Gohelle 62737;E2.6833;N50.4500;13;
3;FRA;Nord-Pas-de-Calais;Pas-de-Calais;Sains-lès-Fressin 62738;E2.0500;N50.4667;13;
3;FRA;Nord-Pas-de-Calais;Pas-de-Calais;Sains-lès-Marquion 62739;E3.0667;N50.2000;13;
3;FRA;Nord-Pas-de-Calais;Pas-de-Calais;Sains-lès-Pernes 62740;E2.3500;N50.4833;13;
3;FRA;Nord-Pas-de-Calais;Pas-de-Calais;Saint-Amand 62741;E2.5667;N50.1667;13;
3;FRA;Nord-Pas-de-Calais;Pas-de-Calais;Saint-Aubin 62742;E1.6667;N50.4583;13;
3;FRA;Nord-Pas-de-Calais;Pas-de-Calais;Saint-Denoeux 62745;E1.9000;N50.4667;13;
3;FRA;Nord-Pas-de-Calais;Pas-de-Calais;Saint-Étienne-au-Mont 62746;E1.6167;N50.6667;13;
3;FRA;Nord-Pas-de-Calais;Pas-de-Calais;Saint-Floris 62747;E2.5667;N50.6167;13;
3;FRA;Nord-Pas-de-Calais;Pas-de-Calais;Saint-Folquin 62748;E2.1333;N50.9667;13;
3;FRA;Nord-Pas-de-Calais;Pas-de-Calais;Saint-Georges 62749;E2.0833;N50.3500;13;
3;FRA;Nord-Pas-de-Calais;Pas-de-Calais;Saint-Hilaire-Cottes 62750;E2.4167;N50.5667;13;
3;FRA;Nord-Pas-de-Calais;Pas-de-Calais;Saint-Inglevert 62751;E1.7400;N50.8736;13;
3;FRA;Nord-Pas-de-Calais;Pas-de-Calais;Saint-Josse 62752;E1.6667;N50.4667;13;
3;FRA;Nord-Pas-de-Calais;Pas-de-Calais;Saint-Laurent-Blangy 62753;E2.8000;N50.3000;13;
3;FRA;Nord-Pas-de-Calais;Pas-de-Calais;Saint-Léger 62754;E2.8500;N50.1833;13;
3;FRA;Nord-Pas-de-Calais;Pas-de-Calais;Saint-Léonard 62755;E1.6167;N50.6833;13;
3;FRA;Nord-Pas-de-Calais;Pas-de-Calais;Saint-Martin-au-Laërt 62757;E2.2333;N50.7500;13;
3;FRA;Nord-Pas-de-Calais;Pas-de-Calais;Saint-Martin-Boulogne 62758;E1.6333;N50.7167;13;
3;FRA;Nord-Pas-de-Calais;Pas-de-Calais;Saint-Martin-Choquel 62759;E1.8833;N50.6667;13;
3;FRA;Nord-Pas-de-Calais;Pas-de-Calais;Saint-Martin-d'Hardinghem 62760;E2.1000;N50.6000;13;
3;FRA;Nord-Pas-de-Calais;Pas-de-Calais;Saint-Martin-sur-Cojeul 62761;E2.8333;N50.2167;13;
3;FRA;Nord-Pas-de-Calais;Pas-de-Calais;Saint-Michel-sous-Bois 62762;E1.9333;N50.5167;13;
3;FRA;Nord-Pas-de-Calais;Pas-de-Calais;Saint-Michel-sur-Ternoise 62763;E2.35;N50.3667;13;
3;FRA;Nord-Pas-de-Calais;Pas-de-Calais;Saint-Nicolas 62764;E2.7750;N50.3000;13;
3;FRA;Nord-Pas-de-Calais;Pas-de-Calais;Saint-Omer 62765;E2.2500;N50.7500;13;
3;FRA;Nord-Pas-de-Calais;Pas-de-Calais;Saint-Omer-Capelle 62766;E2.1000;N50.9333;13;
3;FRA;Nord-Pas-de-Calais;Pas-de-Calais;Saint-Pol-sur-Ternoise 62767;E1.8667;N50.9500;13;
3;FRA;Nord-Pas-de-Calais;Pas-de-Calais;Saint-Rémy-au-Bois 62768;E2.3333;N50.3833;13;
3;FRA;Nord-Pas-de-Calais;Pas-de-Calais;Saint-Tricat 62769;E1.8333;N50.8833;13;
3;FRA;Nord-Pas-de-Calais;Pas-de-Calais;Saint-Venant 62770;E2.5500;N50.6167;13;
3;FRA;Nord-Pas-de-Calais;Pas-de-Calais;Sainte-Austreberthe 62743;E2.0500;N50.3667;13;
3;FRA;Nord-Pas-de-Calais;Pas-de-Calais;Sainte-Catherine 62744;E2.7667;N50.3000;13;
3;FRA;Nord-Pas-de-Calais;Pas-de-Calais;Sainte-Marie-Kerque 62756;E2.1333;N50.9000;13;
3;FRA;Nord-Pas-de-Calais;Pas-de-Calais;Sallaumines 62771;E2.8667;N50.4167;13;
3;FRA;Nord-Pas-de-Calais;Pas-de-Calais;Salperwick 62772;E2.2333;N50.7667;13;
3;FRA;Nord-Pas-de-Calais;Pas-de-Calais;Samer 62773;E1.7500;N50.6333;13;
3;FRA;Nord-Pas-de-Calais;Pas-de-Calais;Sangatte 62774;E1.7500;N50.9333;13;
3;FRA;Nord-Pas-de-Calais;Pas-de-Calais;Sanghen 62775;E1.9000;N50.7833;13;
3;FRA;Nord-Pas-de-Calais;Pas-de-Calais;Sapignies 62776;E2.8333;N50.1333;13;
3;FRA;Nord-Pas-de-Calais;Pas-de-Calais;Sars-le-Bois 62778;E2.4333;N50.3000;13;
3;FRA;Nord-Pas-de-Calais;Pas-de-Calais;Sarton 62779;E2.4333;N50.1167;13;
3;FRA;Nord-Pas-de-Calais;Pas-de-Calais;Sauchy-Cauchy 62780;E3.1000;N50.2333;13;
3;FRA;Nord-Pas-de-Calais;Pas-de-Calais;Sauchy-Lestrée 62781;E3.1167;N50.2333;13;
3;FRA;Nord-Pas-de-Calais;Pas-de-Calais;Saudemont 62782;E3.0500;N50.2500;13;
3;FRA;Nord-Pas-de-Calais;Pas-de-Calais;Saulchoy 62783;E1.8500;N50.3500;13;
3;FRA;Nord-Pas-de-Calais;Pas-de-Calais;Saulty 62784;E2.5167;N50.2;13;
3;FRA;Nord-Pas-de-Calais;Pas-de-Calais;Savy-Berlette 62785;E2.5500;N50.3500;13;
3;FRA;Nord-Pas-de-Calais;Pas-de-Calais;Selles 62786;E1.9000;N50.7000;13;
3;FRA;Nord-Pas-de-Calais;Pas-de-Calais;Sempy 62787;E1.8667;N50.4833;13;
3;FRA;Nord-Pas-de-Calais;Pas-de-Calais;Seninghem 62788;E2.0333;N50.7000;13;
3;FRA;Nord-Pas-de-Calais;Pas-de-Calais;Senlecques 62789;E1.9333;N50.6500;13;
3;FRA;Nord-Pas-de-Calais;Pas-de-Calais;Senlis 62790;E2.1500;N50.5333;13;
3;FRA;Nord-Pas-de-Calais;Pas-de-Calais;Séricourt 62791;E2.3167;N50.3000;13;
3;FRA;Nord-Pas-de-Calais;Pas-de-Calais;Serques 62792;E2.2000;N50.8000;13;
3;FRA;Nord-Pas-de-Calais;Pas-de-Calais;Servins 62793;E2.6500;N50.4167;13;
3;FRA;Nord-Pas-de-Calais;Pas-de-Calais;Setques 62794;E2.1500;N50.7167;13;
3;FRA;Nord-Pas-de-Calais;Pas-de-Calais;Sibiville 62795;E2.3167;N50.3000;13;
3;FRA;Nord-Pas-de-Calais;Pas-de-Calais;Simencourt 62796;E2.6500;N50.2667;13;
3;FRA;Nord-Pas-de-Calais;Pas-de-Calais;Siracourt 62797;E2.2719;N50.3733;13;
3;FRA;Nord-Pas-de-Calais;Pas-de-Calais;Sombrin 62798;E2.5000;N50.2333;13;
3;FRA;Nord-Pas-de-Calais;Pas-de-Calais;Sorrus 62799;E1.7167;N50.4667;13;
3;FRA;Nord-Pas-de-Calais;Pas-de-Calais;Souastre 62800;E2.5667;N50.1500;13;
3;FRA;Nord-Pas-de-Calais;Pas-de-Calais;Souchez 62801;E2.7500;N50.3833;13;
3;FRA;Nord-Pas-de-Calais;Pas-de-Calais;Surques 62803;E1.9167;N50.7333;13;
3;FRA;Nord-Pas-de-Calais;Pas-de-Calais;Sus-Saint-Léger 62804;E2.4302;N50.2395;13;
3;FRA;Nord-Pas-de-Calais;Pas-de-Calais;Tangry 62805;E2.3500;N50.4667;13;
3;FRA;Nord-Pas-de-Calais;Pas-de-Calais;Tardinghen 62806;E1.6333;N50.8667;13;
3;FRA;Nord-Pas-de-Calais;Pas-de-Calais;Tatinghem 62807;E2.2000;N50.7500;13;
3;FRA;Nord-Pas-de-Calais;Pas-de-Calais;Teneur 62808;E2.2167;N50.4500;13;
3;FRA;Nord-Pas-de-Calais;Pas-de-Calais;Ternas 62809;E2.4000;N50.3333;13;
3;FRA;Nord-Pas-de-Calais;Pas-de-Calais;Thélus 62810;E2.8000;N50.3500;13;
3;FRA;Nord-Pas-de-Calais;Pas-de-Calais;Thérouanne 62811;E2.2575;N50.6382;13;
3;FRA;Nord-Pas-de-Calais;Pas-de-Calais;Thiembronne 62812;E2.0567;N50.08;13;
3;FRA;Nord-Pas-de-Calais;Pas-de-Calais;Thièvres 62814;E2.4609;N50.1325;12;
3;FRA;Nord-Pas-de-Calais;Pas-de-Calais;Tigny-Noyelle 62815;E1.7000;N50.3500;13;
3;FRA;Nord-Pas-de-Calais;Pas-de-Calais;Tilloy-lès-Hermaville 62816;E2.5500;N50.3333;13;
3;FRA;Nord-Pas-de-Calais;Pas-de-Calais;Tilloy-lès-Mofflaines 62817;E2.8167;N50.2667;13;
3;FRA;Nord-Pas-de-Calais;Pas-de-Calais;Tilly-Capelle 62818;E2.2000;N50.4500;13;
3;FRA;Nord-Pas-de-Calais;Pas-de-Calais;Tilques 62819;E2.2000;N50.7667;13;
3;FRA;Nord-Pas-de-Calais;Pas-de-Calais;Tincques 62820;E2.4833;N50.3500;13;
3;FRA;Nord-Pas-de-Calais;Pas-de-Calais;Tingry 62821;E1.7333;N50.6167;13;
3;FRA;Nord-Pas-de-Calais;Pas-de-Calais;Tollent 62822;E2.0167;N50.2833;13;
3;FRA;Nord-Pas-de-Calais;Pas-de-Calais;Torcy 62823;E2.0167;N50.4833;13;
3;FRA;Nord-Pas-de-Calais;Pas-de-Calais;Tortefontaine 62824;E1.9167;N50.3167;13;
3;FRA;Nord-Pas-de-Calais;Pas-de-Calais;Tortequesne 62825;E3.0333;N50.2833;13;
3;FRA;Nord-Pas-de-Calais;Pas-de-Calais;Tournehem-sur-la-Hem 62827;E2.1500;N50.4667;13;
3;FRA;Nord-Pas-de-Calais;Pas-de-Calais;Tramecourt 62828;E1.6167;N50.5000;13;
3;FRA;Nord-Pas-de-Calais;Pas-de-Calais;Trescault 62830;E3.0833;N50.0833;13;
3;FRA;Nord-Pas-de-Calais;Pas-de-Calais;Troisvaux 62831;E2.3500;N50.4000;13;
3;FRA;Nord-Pas-de-Calais;Pas-de-Calais;Tubersent 62832;E1.7000;N50.5167;13;
3;FRA;Nord-Pas-de-Calais;Pas-de-Calais;Vacquerie-le-Boucq 62833;E2.2167;N50.2667;13;
3;FRA;Nord-Pas-de-Calais;Pas-de-Calais;Vacqueriette-Erquières 62834;E2.0667;N50.3167;13;
3;FRA;Nord-Pas-de-Calais;Pas-de-Calais;Valhuon 62835;E2.3667;N50.4333;13;
3;FRA;Nord-Pas-de-Calais;Pas-de-Calais;Vaudricourt 62836;E2.6333;N50.5000;13;
3;FRA;Nord-Pas-de-Calais;Pas-de-Calais;Vaudringhem 62837;E2.0333;N50.6667;13;
3;FRA;Nord-Pas-de-Calais;Pas-de-Calais;Vaulx 62838;E2.9167;N50.1333;13;
3;FRA;Nord-Pas-de-Calais;Pas-de-Calais;Vaulx-Vraucourt 62839;E2.9167;N50.1333;13;
3;FRA;Nord-Pas-de-Calais;Pas-de-Calais;Vélu 62840;E2.9667;N50.1000;13;
3;FRA;Nord-Pas-de-Calais;Pas-de-Calais;Vendin-le-Vieil 62842;E2.8667;N50.4667;13;
3;FRA;Nord-Pas-de-Calais;Pas-de-Calais;Vendin-lès-Béthune 62841;E2.6167;N50.5333;13;
3;FRA;Nord-Pas-de-Calais;Pas-de-Calais;Verchin 62843;E2.1833;N50.4833;13;
3;FRA;Nord-Pas-de-Calais;Pas-de-Calais;Verchocq 62844;E2.0333;N50.5667;13;
3;FRA;Nord-Pas-de-Calais;Pas-de-Calais;Verlincthun 62845;E1.6833;N50.6333;13;
3;FRA;Nord-Pas-de-Calais;Pas-de-Calais;Vermelles 62846;E2.7333;N50.4833;13;
3;FRA;Nord-Pas-de-Calais;Pas-de-Calais;Verquigneul 62847=62119;E2.6667;N50.5000;13;
3;FRA;Nord-Pas-de-Calais;Pas-de-Calais;Verquin 62848;E2.6333;N50.5000;13;
3;FRA;Nord-Pas-de-Calais;Pas-de-Calais;Verton 62849;E1.6500;N50.4000;13;
3;FRA;Nord-Pas-de-Calais;Pas-de-Calais;Vieil-Hesdin 62850;E2.1000;N50.3667;13;
3;FRA;Nord-Pas-de-Calais;Pas-de-Calais;Vieil-Moutier 62853;E1.9167;N50.6833;13;
3;FRA;Nord-Pas-de-Calais;Pas-de-Calais;Vieille-Chapelle 62851;E2.7000;N50.5833;13;
3;FRA;Nord-Pas-de-Calais;Pas-de-Calais;Vieille-Église 62852;E2.0833;N50.9333;13;
3;FRA;Nord-Pas-de-Calais;Pas-de-Calais;Villers-au-Bois 62854;E2.6667;N50.3667;13;
3;FRA;Nord-Pas-de-Calais;Pas-de-Calais;Villers-au-Flos 62855;E2.9167;N50.0833;13;
3;FRA;Nord-Pas-de-Calais;Pas-de-Calais;Villers-Brûlin 62856;E2.5333;N50.3667;13;
3;FRA;Nord-Pas-de-Calais;Pas-de-Calais;Villers-Châtel 62857;E2.5833;N50.3833;13;
3;FRA;Nord-Pas-de-Calais;Pas-de-Calais;Villers-l'Hôpital 62859;E2.2167;N50.2333;13;
3;FRA;Nord-Pas-de-Calais;Pas-de-Calais;Villers-lès-Cagnicourt 62858;E3.0084;N50.2227;13;
3;FRA;Nord-Pas-de-Calais;Pas-de-Calais;Villers-Sir-Simon 62860;E2.5000;N50.3167;13;
3;FRA;Nord-Pas-de-Calais;Pas-de-Calais;Vimy 62861;E2.8167;N50.3667;13;
3;FRA;Nord-Pas-de-Calais;Pas-de-Calais;Vincly 62862;E2.1667;N50.5667;13;
3;FRA;Nord-Pas-de-Calais;Pas-de-Calais;Violaines 62863;E2.7833;N50.5333;13;
3;FRA;Nord-Pas-de-Calais;Pas-de-Calais;Vis-en-Artois 62864;E2.9333;N50.2500;13;
3;FRA;Nord-Pas-de-Calais;Pas-de-Calais;Vitry-en-Artois 62865;E2.9833;N50.3333;13;
3;FRA;Nord-Pas-de-Calais;Pas-de-Calais;Waben 62866;E1.6500;N50.3833;13;
3;FRA;Nord-Pas-de-Calais;Pas-de-Calais;Wacquinghen 62867;E1.6667;N50.7833;13;
3;FRA;Nord-Pas-de-Calais;Pas-de-Calais;Wail 62868;E2.1333;N50.3333;13;
3;FRA;Nord-Pas-de-Calais;Pas-de-Calais;Wailly 62869;E2.7250;N50.2417;13;
3;FRA;Nord-Pas-de-Calais;Pas-de-Calais;Wailly-Beaucamp 62870;E1.7333;N50.4167;13;
3;FRA;Nord-Pas-de-Calais;Pas-de-Calais;Wambercourt 62871;E2.0167;N50.4333;13;
3;FRA;Nord-Pas-de-Calais;Pas-de-Calais;Wamin 62872;E2.0667;N50.4167;13;
3;FRA;Nord-Pas-de-Calais;Pas-de-Calais;Wancourt 62873;E2.8667;N50.2500;13;
3;FRA;Nord-Pas-de-Calais;Pas-de-Calais;Wanquetin 62874;E2.6167;N50.2667;13;
3;FRA;Nord-Pas-de-Calais;Pas-de-Calais;Wardrecques 62875;E2.3500;N50.7167;13;
3;FRA;Nord-Pas-de-Calais;Pas-de-Calais;Warlencourt-Eaucourt 62876;E2.8167;N50.0833;13;
3;FRA;Nord-Pas-de-Calais;Pas-de-Calais;Warlincourt-lès-Pas 62877;E2.5000;N50.1667;13;
3;FRA;Nord-Pas-de-Calais;Pas-de-Calais;Warlus 62878;E2.6667;N50.2833;13;
3;FRA;Nord-Pas-de-Calais;Pas-de-Calais;Warluzel 62879;E2.4667;N50.2333;13;
3;FRA;Nord-Pas-de-Calais;Pas-de-Calais;Wavrans-sur-l'Aa 62882;E2.1333;N50.6833;13;
3;FRA;Nord-Pas-de-Calais;Pas-de-Calais;Wavrans-sur-Ternoise 62883;E2.2946;N50.4141;13;
3;FRA;Nord-Pas-de-Calais;Pas-de-Calais;Westbécourt 62884=62008;E2.0667;N50.7333;13;
3;FRA;Nord-Pas-de-Calais;Pas-de-Calais;Westrehem 62885;E2.3500;N50.5500;13;
3;FRA;Nord-Pas-de-Calais;Pas-de-Calais;Wicquinghem 62886;E1.9667;N50.5667;13;
3;FRA;Nord-Pas-de-Calais;Pas-de-Calais;Widehem 62887;E1.6667;N50.5833;13;
3;FRA;Nord-Pas-de-Calais;Pas-de-Calais;Wierre-au-Bois 62888;E1.78;N50.6445;13;
3;FRA;Nord-Pas-de-Calais;Pas-de-Calais;Wierre-Effroy 62889;E1.7333;N50.7833;13;
3;FRA;Nord-Pas-de-Calais;Pas-de-Calais;Willeman 62890;E2.1500;N50.3500;13;
3;FRA;Nord-Pas-de-Calais;Pas-de-Calais;Willencourt 62891;E2.0833;N50.2500;13;
3;FRA;Nord-Pas-de-Calais;Pas-de-Calais;Willerval 62892;E2.8500;N50.3500;13;
3;FRA;Nord-Pas-de-Calais;Pas-de-Calais;Wimereux 62893;E1.6167;N50.7667;13;
3;FRA;Nord-Pas-de-Calais;Pas-de-Calais;Wimille 62894;E1.6333;N50.7667;13;
3;FRA;Nord-Pas-de-Calais;Pas-de-Calais;Wingles 62895;E2.8500;N50.4833;13;
3;FRA;Nord-Pas-de-Calais;Pas-de-Calais;Wirwignes 62896;E1.7667;N50.6833;13;
3;FRA;Nord-Pas-de-Calais;Pas-de-Calais;Wismes 62897;E2.0667;N50.6500;13;
3;FRA;Nord-Pas-de-Calais;Pas-de-Calais;Wisques 62898;E2.2000;N50.7167;13;
3;FRA;Nord-Pas-de-Calais;Pas-de-Calais;Wissant 62899;E1.6667;N50.8833;13;
3;FRA;Nord-Pas-de-Calais;Pas-de-Calais;Witternesse 62900;E2.3667;N50.6167;13;
3;FRA;Nord-Pas-de-Calais;Pas-de-Calais;Wittes 62901;E2.3931;N50.6697;13;
3;FRA;Nord-Pas-de-Calais;Pas-de-Calais;Wizernes 62902;E2.2276;N50.7078;13;
3;FRA;Nord-Pas-de-Calais;Pas-de-Calais;Ytres 62909;E2.9955;N50.0647;13;
3;FRA;Nord-Pas-de-Calais;Pas-de-Calais;Zoteux 62903;E1.8799;N50.6125;13;
3;FRA;Nord-Pas-de-Calais;Pas-de-Calais;Zouafques 62904;E2.0534;N50.8166;13;
3;FRA;Nord-Pas-de-Calais;Pas-de-Calais;Zudausques 62905;E2.1500;N50.7500;13;
3;FRA;Nord-Pas-de-Calais;Pas-de-Calais;Zutkerque 62906;E2.0685;N50.8525;13;
