"Level";"Country";"State";"County";"Place";"Longitude";"Latitude";"ZoomLevel";"Icon"
2;FRA;Haute-Normandie;Eure;;E0.95;N49.14;9;
3;FRA;Haute-Normandie;Eure;Aclou 27001;E0.7000;N49.1667;13;
3;FRA;Haute-Normandie;Eure;Acon 27002;E1.1000;N48.7667;13;
3;FRA;Haute-Normandie;Eure;Acquigny 27003;E1.1833;N49.1667;13;
3;FRA;Haute-Normandie;Eure;Aigleville 27004;E1.4167;N49.0000;13;
3;FRA;Haute-Normandie;Eure;Ailly 27005;E1.2440;N49.1616;13;
3;FRA;Haute-Normandie;Eure;Aizier 27006;E0.6333;N49.4333;13;
3;FRA;Haute-Normandie;Eure;Ajou 27007;E0.7833;N48.9833;13;
3;FRA;Haute-Normandie;Eure;Alizay 27008;E1.1833;N49.3167;13;
3;FRA;Haute-Normandie;Eure;Ambenay 27009;E0.7333;N48.8333;13;
3;FRA;Haute-Normandie;Eure;Amécourt 27010;E1.7333;N49.3833;13;
3;FRA;Haute-Normandie;Eure;Amfreville-la-Campagne 27011;E0.9500;N49.2167;13;
3;FRA;Haute-Normandie;Eure;Amfreville-les-Champs 27012;E1.3167;N49.3167;13;
3;FRA;Haute-Normandie;Eure;Amfreville-sous-les-Monts 27013;E1.2667;N49.3000;13;
3;FRA;Haute-Normandie;Eure;Amfreville-sur-Iton 27014;E1.1500;N49.1500;13;
3;FRA;Haute-Normandie;Eure;Andé 27015;E1.2333;N49.2333;13;
3;FRA;Haute-Normandie;Eure;Angerville-la-Campagne 27017;E1.1667;N48.9917;13;
3;FRA;Haute-Normandie;Eure;Appeville-Annebault 27018;E0.6500;N49.3167;13;
3;FRA;Haute-Normandie;Eure;Armentières-sur-Avre 27019;E0.7847;N48.6796;13;
3;FRA;Haute-Normandie;Eure;Arnières-sur-Iton 27020;E1.1167;N48.9833;13;
3;FRA;Haute-Normandie;Eure;Asnières 27021;E0.3833;N49.2000;13;
3;FRA;Haute-Normandie;Eure;Aubevoye 27022;E1.3333;N49.1500;13;
3;FRA;Haute-Normandie;Eure;Aulnay-sur-Iton 27023;E1.0500;N49.0000;13;
3;FRA;Haute-Normandie;Eure;Autheuil-Authouillet 27025;E1.2863;N49.0910;13;
3;FRA;Haute-Normandie;Eure;Authevernes 27026;E1.6333;N49.2167;13;
3;FRA;Haute-Normandie;Eure;Authou 27028;E0.7000;N49.2333;13;
3;FRA;Haute-Normandie;Eure;Authouillet 27029=27025;E1.2833;N49.1000;13;
3;FRA;Haute-Normandie;Eure;Auvergny 27030=27427;E0.7333;N48.8833;13;
3;FRA;Haute-Normandie;Eure;Aviron 27031;E1.1167;N49.0500;13;
3;FRA;Haute-Normandie;Eure;Avrilly 27032;E1.1500;N48.9333;13;
3;FRA;Haute-Normandie;Eure;Bacquepuis 27033;E1.0500;N49.0833;13;
3;FRA;Haute-Normandie;Eure;Bacqueville 27034;E1.3667;N49.3167;13;
3;FRA;Haute-Normandie;Eure;Bailleul-la-Vallée 27035;E0.4333;N49.2000;13;
3;FRA;Haute-Normandie;Eure;Bâlines 27036;E0.9778;N48.7433;13;
3;FRA;Haute-Normandie;Eure;Barc 27037;E0.8167;N49.0667;13;
3;FRA;Haute-Normandie;Eure;Barneville-sur-Seine 27039;E0.8500;N49.3833;13;
3;FRA;Haute-Normandie;Eure;Barquet 27040;E0.8667;N49.0500;13;
3;FRA;Haute-Normandie;Eure;Barville 27042;E0.4778;N49.1573;13;
3;FRA;Haute-Normandie;Eure;Bazincourt-sur-Epte 27045;E1.7667;N49.3167;13;
3;FRA;Haute-Normandie;Eure;Bazoques 27046;E0.5500;N49.1667;13;
3;FRA;Haute-Normandie;Eure;Beaubray 27047;E0.9167;N48.9167;13;
3;FRA;Haute-Normandie;Eure;Beauficel-en-Lyons 27048;E1.5333;N49.4000;13;
3;FRA;Haute-Normandie;Eure;Beaumesnil 27049;E0.7167;N49.0167;13;
3;FRA;Haute-Normandie;Eure;Beaumont-le-Roger 27051;E0.7833;N49.0833;13;
3;FRA;Haute-Normandie;Eure;Beaumontel 27050;E0.7667;N49.0833;13;
3;FRA;Haute-Normandie;Eure;Bémécourt 27054;E0.8833;N48.8500;13;
3;FRA;Haute-Normandie;Eure;Bérengeville-la-Campagne 27055;E1.0667;N49.1000;13;
3;FRA;Haute-Normandie;Eure;Bernay 27056;E0.6000;N49.1000;13;
3;FRA;Haute-Normandie;Eure;Bernienville 27057;E1.0333;N49.0833;13;
3;FRA;Haute-Normandie;Eure;Bernières-sur-Seine 27058;E1.3500;N49.2333;13;
3;FRA;Haute-Normandie;Eure;Bernouville 27059;E1.7000;N49.3000;13;
3;FRA;Haute-Normandie;Eure;Berthenonville 27060;E1.6667;N49.1833;13;
3;FRA;Haute-Normandie;Eure;Berthouville 27061;E0.6333;N49.1833;13;
3;FRA;Haute-Normandie;Eure;Berville-en-Roumois 27062;E0.8333;N49.3000;13;
3;FRA;Haute-Normandie;Eure;Berville-la-Campagne 27063;E0.9000;N49.0333;13;
3;FRA;Haute-Normandie;Eure;Berville-sur-Mer 27064;E0.3667;N49.4333;13;
3;FRA;Haute-Normandie;Eure;Beuzeville 27065;E0.3500;N49.3333;13;
3;FRA;Haute-Normandie;Eure;Bézu-la-Forêt 27066;E1.6333;N49.4167;13;
3;FRA;Haute-Normandie;Eure;Bézu-Saint-Éloi 27067;E1.7000;N49.3000;13;
3;FRA;Haute-Normandie;Eure;Bois-Anzeray 27068;E0.7000;N48.9167;13;
3;FRA;Haute-Normandie;Eure;Bois-Arnault 27069;E0.7333;N48.8167;13;
3;FRA;Haute-Normandie;Eure;Bois-Jérôme-Saint-Ouen 27072;E1.5333;N49.1167;13;
3;FRA;Haute-Normandie;Eure;Bois-le-Roi 27073;E1.3500;N48.8667;13;
3;FRA;Haute-Normandie;Eure;Bois-Normand-près-Lyre 27075;E0.7000;N48.9000;13;
3;FRA;Haute-Normandie;Eure;Boisemont 27070;E1.5000;N49.2833;13;
3;FRA;Haute-Normandie;Eure;Boisney 27074;E0.6500;N49.1500;13;
3;FRA;Haute-Normandie;Eure;Boisset-les-Prévanches 27076;E1.3333;N48.9667;13;
3;FRA;Haute-Normandie;Eure;Boissey-le-Châtel 27077;E0.7833;N49.2667;13;
3;FRA;Haute-Normandie;Eure;Boissy-Lamberville 27079;E0.5833;N49.1667;13;
3;FRA;Haute-Normandie;Eure;Boissy-sur-Damville 27080=27416;E1.1167;N48.8333;13;
3;FRA;Haute-Normandie;Eure;Boncourt 27081;E1.3000;N49.0333;13;
3;FRA;Haute-Normandie;Eure;Bonneville-Aptot 27083;E0.7667;N49.2500;13;
3;FRA;Haute-Normandie;Eure;Bosc-Bénard-Commin 27084;E0.8333;N49.3167;13;
3;FRA;Haute-Normandie;Eure;Bosc-Bénard-Crescy 27085;E0.8000;N49.3167;13;
3;FRA;Haute-Normandie;Eure;Bosc-Renoult-en-Ouche 27088;E0.7000;N48.9500;13;
3;FRA;Haute-Normandie;Eure;Bosc-Renoult-en-Roumois 27089;E0.7767;N49.2943;13;
3;FRA;Haute-Normandie;Eure;Boscherville 27086=27105;E0.8833;N49.2833;13;
3;FRA;Haute-Normandie;Eure;Bosgouet 27091;E0.8500;N49.3500;13;
3;FRA;Haute-Normandie;Eure;Bosguérard-de-Marcouville 27092;E0.8333;N49.2667;13;
3;FRA;Haute-Normandie;Eure;Bosnormand 27093;E0.9000;N49.2833;13;
3;FRA;Haute-Normandie;Eure;Bosquentin 27094;E1.5833;N49.4167;13;
3;FRA;Haute-Normandie;Eure;Bosrobert 27095;E0.7500;N49.2333;13;
3;FRA;Haute-Normandie;Eure;Bouafles 27097;E1.3833;N49.2167;13;
3;FRA;Haute-Normandie;Eure;Bouchevilliers 27098;E1.7000;N49.4000;13;
3;FRA;Haute-Normandie;Eure;Boulleville 27100;E0.3833;N49.3667;13;
3;FRA;Haute-Normandie;Eure;Bouquelon 27101;E0.4833;N49.4000;13;
3;FRA;Haute-Normandie;Eure;Bouquetot 27102;E0.7833;N49.3667;13;
3;FRA;Haute-Normandie;Eure;Bourg-Achard 27103;E0.8167;N49.3500;13;
3;FRA;Haute-Normandie;Eure;Bourg-Beaudouin 27104;E1.2995;N49.3836;13;
3;FRA;Haute-Normandie;Eure;Bourgtheroulde-Infreville 27105;E0.8833;N49.3000;13;
3;FRA;Haute-Normandie;Eure;Bournainville-Faverolles 27106;E0.4833;N49.1333;13;
3;FRA;Haute-Normandie;Eure;Bourneville 27107;E0.6167;N49.3833;13;
3;FRA;Haute-Normandie;Eure;Bourth 27108;E0.8167;N48.7667;13;
3;FRA;Haute-Normandie;Eure;Bray 27109;E0.8500;N49.1000;13;
3;FRA;Haute-Normandie;Eure;Brestot 27110;E0.6833;N49.3500;13;
3;FRA;Haute-Normandie;Eure;Bretagnolles 27111;E1.3525;N48.9514;13;
3;FRA;Haute-Normandie;Eure;Breteuil 27112;E0.9179;N48.8363;13;
3;FRA;Haute-Normandie;Eure;Brétigny 27113;E0.6750;N49.2167;13;
3;FRA;Haute-Normandie;Eure;Breuilpont 27114;E1.4333;N48.9667;13;
3;FRA;Haute-Normandie;Eure;Breux-sur-Avre 27115;E1.0833;N48.7667;13;
3;FRA;Haute-Normandie;Eure;Brionne 27116;E0.7167;N49.2000;13;
3;FRA;Haute-Normandie;Eure;Broglie 27117;E0.5333;N49.0167;13;
3;FRA;Haute-Normandie;Eure;Brosville 27118;E1.1167;N49.1000;13;
3;FRA;Haute-Normandie;Eure;Bueil 27119;E1.4500;N48.9333;13;
3;FRA;Haute-Normandie;Eure;Buis-sur-Damville 27416;E1.1214;N48.8314;13;
3;FRA;Haute-Normandie;Eure;Burey 27120;E0.9500;N48.9833;13;
3;FRA;Haute-Normandie;Eure;Bus-Saint-Rémy 27121;E1.6167;N49.1500;13;
3;FRA;Haute-Normandie;Eure;Cahaignes 27122;E1.6000;N49.2000;13;
3;FRA;Haute-Normandie;Eure;Caillouet-Orgeville 27123;E1.3167;N49.0000;13;
3;FRA;Haute-Normandie;Eure;Cailly-sur-Eure 27124;E1.2167;N49.1167;13;
3;FRA;Haute-Normandie;Eure;Calleville 27125;E0.7667;N49.2000;13;
3;FRA;Haute-Normandie;Eure;Campigny 27126;E0.5500;N49.3167;13;
3;FRA;Haute-Normandie;Eure;Canappeville 27127;E1.1000;N49.1500;13;
3;FRA;Haute-Normandie;Eure;Cantiers 27128;E1.5833;N49.2333;13;
3;FRA;Haute-Normandie;Eure;Caorches-Saint-Nicolas 27129;E0.5528;N49.0829;13;
3;FRA;Haute-Normandie;Eure;Capelle-les-Grands 27130;E0.4734;N49.0462;13;
3;FRA;Haute-Normandie;Eure;Carsix 27131;E0.6667;N49.1333;13;
3;FRA;Haute-Normandie;Eure;Caugé 27132;E1.0333;N49.0167;13;
3;FRA;Haute-Normandie;Eure;Caumont 27133;E0.9000;N49.3667;13;
3;FRA;Haute-Normandie;Eure;Cauverville-en-Roumois 27134;E0.6500;N49.3500;13;
3;FRA;Haute-Normandie;Eure;Cesseville 27135;E0.9833;N49.1833;13;
3;FRA;Haute-Normandie;Eure;Chaignes 27136;E1.4500;N49.0167;13;
3;FRA;Haute-Normandie;Eure;Chaise-Dieu-du-Theil 27137;E0.7667;N48.7667;13;
3;FRA;Haute-Normandie;Eure;Chamblac 27138;E0.5500;N48.9833;13;
3;FRA;Haute-Normandie;Eure;Chambord 27139;E0.6167;N48.9000;13;
3;FRA;Haute-Normandie;Eure;Chambray 27140;E1.3167;N49.0833;13;
3;FRA;Haute-Normandie;Eure;Champ-Dolent 27141;E1.0167;N48.9667;13;
3;FRA;Haute-Normandie;Eure;Champenard 27142;E1.3333;N49.1000;13;
3;FRA;Haute-Normandie;Eure;Champignolles 27143;E0.7667;N48.9667;13;
3;FRA;Haute-Normandie;Eure;Champigny-la-Futelaye 27144;E1.3000;N48.8667;13;
3;FRA;Haute-Normandie;Eure;Chanteloup 27145;E1.0167;N48.8833;13;
3;FRA;Haute-Normandie;Eure;Charleval 27151;E1.3833;N49.3667;13;
3;FRA;Haute-Normandie;Eure;Château-sur-Epte 27152;E1.6667;N49.2000;13;
3;FRA;Haute-Normandie;Eure;Chauvincourt-Provemont 27153;E1.6396;N49.2796;13;
3;FRA;Haute-Normandie;Eure;Chavigny-Bailleul 27154;E1.2000;N48.8833;13;
3;FRA;Haute-Normandie;Eure;Chennebrun 27155;E0.7835;N48.6794;13;
3;FRA;Haute-Normandie;Eure;Chéronvilliers 27156;E0.7333;N48.7833;13;
3;FRA;Haute-Normandie;Eure;Cierrey 27158;E1.2667;N49.0000;13;
3;FRA;Haute-Normandie;Eure;Cintray 27159;E0.8833;N48.8000;13;
3;FRA;Haute-Normandie;Eure;Civières 27160;E1.5833;N49.1667;13;
3;FRA;Haute-Normandie;Eure;Claville 27161;E1.0167;N49.0500;13;
3;FRA;Haute-Normandie;Eure;Collandres-Quincarnon 27162;E0.8500;N49.0000;13;
3;FRA;Haute-Normandie;Eure;Colletot 27163;E0.6500;N49.3500;13;
3;FRA;Haute-Normandie;Eure;Combon 27164;E0.8833;N49.1000;13;
3;FRA;Haute-Normandie;Eure;Conches-en-Ouche 27165;E0.9333;N48.9667;13;
3;FRA;Haute-Normandie;Eure;Condé-sur-Iton 27166;E0.9628;N48.8327;13;
3;FRA;Haute-Normandie;Eure;Condé-sur-Risle 27167;E0.6167;N49.3167;13;
3;FRA;Haute-Normandie;Eure;Connelles 27168;E1.2667;N49.2500;13;
3;FRA;Haute-Normandie;Eure;Conteville 27169;E0.3982;N49.4178;13;
3;FRA;Haute-Normandie;Eure;Cormeilles 27170;E0.3833;N49.2500;13;
3;FRA;Haute-Normandie;Eure;Corneuil 27172;E1.1417;N48.8833;13;
3;FRA;Haute-Normandie;Eure;Corneville-la-Fouquetière 27173;E0.7000;N49.0667;13;
3;FRA;Haute-Normandie;Eure;Corneville-sur-Risle 27174;E0.6167;N49.3333;13;
3;FRA;Haute-Normandie;Eure;Corny 27175;E1.4667;N49.2833;13;
3;FRA;Haute-Normandie;Eure;Coudray 27176;E1.5000;N49.3333;13;
3;FRA;Haute-Normandie;Eure;Coudres 27177;E1.2500;N48.8667;13;
3;FRA;Haute-Normandie;Eure;Coulonges 27178=27693;E1.0868;N48.8818;13;
3;FRA;Haute-Normandie;Eure;Courbépine 27179;E0.5667;N49.1333;13;
3;FRA;Haute-Normandie;Eure;Courcelles-sur-Seine 27180;E1.3667;N49.1833;13;
3;FRA;Haute-Normandie;Eure;Courdemanche 27181;E1.2833;N48.8167;13;
3;FRA;Haute-Normandie;Eure;Courteilles 27182;E1.0167;N48.7333;13;
3;FRA;Haute-Normandie;Eure;Crasville 27184;E1.0833;N49.2167;13;
3;FRA;Haute-Normandie;Eure;Crestot 27185;E0.9667;N49.2000;13;
3;FRA;Haute-Normandie;Eure;Créton 27186=27416;E1.1500;N48.8500;13;
3;FRA;Haute-Normandie;Eure;Criquebeuf-la-Campagne 27187;E1.0167;N49.2000;13;
3;FRA;Haute-Normandie;Eure;Criquebeuf-sur-Seine 27188;E1.1000;N49.3000;13;
3;FRA;Haute-Normandie;Eure;Croisy-sur-Eure 27190;E1.3500;N49.0333;13;
3;FRA;Haute-Normandie;Eure;Crosville-la-Vieille 27192;E0.9333;N49.1667;13;
3;FRA;Haute-Normandie;Eure;Croth 27193;E1.3667;N48.8333;13;
3;FRA;Haute-Normandie;Eure;Cuverville 27194;E1.3709;N49.2868;13;
3;FRA;Haute-Normandie;Eure;Dame-Marie 27195;E1.0000;N48.8000;13;
3;FRA;Haute-Normandie;Eure;Dampsmesnil 27197;E1.6333;N49.1667;13;
3;FRA;Haute-Normandie;Eure;Damville 27198;E1.0667;N48.8667;13;
3;FRA;Haute-Normandie;Eure;Dangu 27199;E1.7000;N49.2500;13;
3;FRA;Haute-Normandie;Eure;Dardez 27200;E1.2000;N49.0833;13;
3;FRA;Haute-Normandie;Eure;Daubeuf-la-Campagne 27201;E1.0333;N49.1833;13;
3;FRA;Haute-Normandie;Eure;Daubeuf-près-Vatteville 27202;E1.3000;N49.2667;13;
3;FRA;Haute-Normandie;Eure;Douains 27203;E1.4333;N49.0333;13;
3;FRA;Haute-Normandie;Eure;Doudeauville-en-Vexin 27204;E1.5923;N49.3262;13;
3;FRA;Haute-Normandie;Eure;Douville-sur-Andelle 27205;E1.3000;N49.3333;13;
3;FRA;Haute-Normandie;Eure;Droisy 27206;E1.1500;N48.8000;13;
3;FRA;Haute-Normandie;Eure;Drucourt 27207;E0.4667;N49.1167;13;
3;FRA;Haute-Normandie;Eure;Duranville 27208;E0.5146;N49.1453;13;
3;FRA;Haute-Normandie;Eure;Écaquelon 27209;E0.7167;N49.2833;13;
3;FRA;Haute-Normandie;Eure;Écardenville-la-Campagne 27210;E0.8500;N49.1167;13;
3;FRA;Haute-Normandie;Eure;Écardenville-sur-Eure 27211;E1.2667;N49.1000;13;
3;FRA;Haute-Normandie;Eure;Écauville 27212;E1.0000;N49.1167;13;
3;FRA;Haute-Normandie;Eure;Écos 27213;E1.6500;N49.1667;13;
3;FRA;Haute-Normandie;Eure;Écouis 27214;E1.4333;N49.3167;13;
3;FRA;Haute-Normandie;Eure;Ecquetot 27215;E1.0167;N49.1667;13;
3;FRA;Haute-Normandie;Eure;Émalleville 27216;E1.1667;N49.1000;13;
3;FRA;Haute-Normandie;Eure;Émanville 27217;E0.9167;N49.0667;13;
3;FRA;Haute-Normandie;Eure;Épaignes 27218;E0.4500;N49.2833;13;
3;FRA;Haute-Normandie;Eure;Épégard 27219;E0.8833;N49.1833;13;
3;FRA;Haute-Normandie;Eure;Épieds 27220;E1.4000;N48.9333;13;
3;FRA;Haute-Normandie;Eure;Épinay 27221;E0.6418;N48.9811;13;
3;FRA;Haute-Normandie;Eure;Épreville-en-Lieuvin 27222;E0.5333;N49.2000;13;
3;FRA;Haute-Normandie;Eure;Épreville-en-Roumois 27223;E0.7667;N49.3167;13;
3;FRA;Haute-Normandie;Eure;Épreville-près-le-Neubourg 27224;E1.4000;N49.4333;13;
3;FRA;Haute-Normandie;Eure;Étrépagny 27226;E1.6167;N49.3000;13;
3;FRA;Haute-Normandie;Eure;Étréville 27227;E0.6500;N49.3667;13;
3;FRA;Haute-Normandie;Eure;Éturqueraye 27228;E0.7000;N49.3667;13;
3;FRA;Haute-Normandie;Eure;Évreux 27229;E1.1500;N49.0167;13;
3;FRA;Haute-Normandie;Eure;Ézy-sur-Eure 27230;E1.4167;N48.8667;13;
3;FRA;Haute-Normandie;Eure;Fains 27231;E1.3833;N49.0000;13;
3;FRA;Haute-Normandie;Eure;Farceaux 27232;E1.5333;N49.2833;13;
3;FRA;Haute-Normandie;Eure;Fatouville-Grestain 27233;E0.3333;N49.4000;13;
3;FRA;Haute-Normandie;Eure;Fauville 27234;E1.2000;N49.0333;13;
3;FRA;Haute-Normandie;Eure;Faverolles-la-Campagne 27235;E0.9333;N49.0167;13;
3;FRA;Haute-Normandie;Eure;Faverolles-les-Mares 27236=27106;E0.5000;N49.1167;13;
3;FRA;Haute-Normandie;Eure;Ferrières-Haut-Clocher 27238;E0.9833;N49.0167;13;
3;FRA;Haute-Normandie;Eure;Ferrières-Saint-Hilaire 27239;E0.5667;N49.0333;13;
3;FRA;Haute-Normandie;Eure;Feuguerolles 27241;E1.0333;N49.1333;13;
3;FRA;Haute-Normandie;Eure;Fiquefleur-Équainville 27243;E0.3167;N49.4167;13;
3;FRA;Haute-Normandie;Eure;Flancourt-Catelon 27244;E0.7667;N49.3333;13;
3;FRA;Haute-Normandie;Eure;Fleury-la-Forêt 27245;E1.5500;N49.4167;13;
3;FRA;Haute-Normandie;Eure;Fleury-sur-Andelle 27246;E1.3500;N49.3667;13;
3;FRA;Haute-Normandie;Eure;Flipou 27247;E1.2833;N49.3167;13;
3;FRA;Haute-Normandie;Eure;Folleville 27248;E0.5000;N49.1500;13;
3;FRA;Haute-Normandie;Eure;Fontaine-Bellenger 27249;E1.2667;N49.1833;13;
3;FRA;Haute-Normandie;Eure;Fontaine-Heudebourg 27250;E1.2167;N49.1333;13;
3;FRA;Haute-Normandie;Eure;Fontaine-l'Abbé 27251;E0.7000;N49.0833;13;
3;FRA;Haute-Normandie;Eure;Fontaine-la-Louvet 27252;E0.4500;N49.1667;13;
3;FRA;Haute-Normandie;Eure;Fontaine-la-Soret 27253;E0.7167;N49.1500;13;
3;FRA;Haute-Normandie;Eure;Fontaine-sous-Jouy 27254;E1.3000;N49.0667;13;
3;FRA;Haute-Normandie;Eure;Fontenay 27255;E1.5654;N49.2108;13;
3;FRA;Haute-Normandie;Eure;Forêt-la-Folie 27257;E1.5333;N49.2333;13;
3;FRA;Haute-Normandie;Eure;Fort-Moville 27258;E0.4167;N49.3333;13;
3;FRA;Haute-Normandie;Eure;Foucrainville 27259;E1.3333;N48.9333;13;
3;FRA;Haute-Normandie;Eure;Foulbec 27260;E0.4167;N49.4000;13;
3;FRA;Haute-Normandie;Eure;Fouqueville 27261;E0.9500;N49.2167;13;
3;FRA;Haute-Normandie;Eure;Fourges 27262;E1.6500;N49.1167;13;
3;FRA;Haute-Normandie;Eure;Fourmetot 27263;E0.5667;N49.3833;13;
3;FRA;Haute-Normandie;Eure;Fours-en-Vexin 27264;E1.6000;N49.1833;13;
3;FRA;Haute-Normandie;Eure;Francheville 27265;E0.8500;N48.7833;13;
3;FRA;Haute-Normandie;Eure;Franqueville 27266;E0.7000;N49.1667;13;
3;FRA;Haute-Normandie;Eure;Freneuse-sur-Risle 27267;E0.6667;N49.2500;13;
3;FRA;Haute-Normandie;Eure;Fresne-Cauverville 27269;E0.4667;N49.2000;13;
3;FRA;Haute-Normandie;Eure;Fresne-l'Archevêque 27270;E1.4000;N49.3000;13;
3;FRA;Haute-Normandie;Eure;Fresney 27271;E1.3167;N48.9500;13;
3;FRA;Haute-Normandie;Eure;Gadencourt 27273;E1.4000;N48.9833;13;
3;FRA;Haute-Normandie;Eure;Gaillardbois-Cressenville 27274;E1.4000;N49.3333;13;
3;FRA;Haute-Normandie;Eure;Gaillon 27275;E1.3333;N49.1667;13;
3;FRA;Haute-Normandie;Eure;Gamaches-en-Vexin 27276;E1.6167;N49.2667;13;
3;FRA;Haute-Normandie;Eure;Garencières 27277;E1.2667;N48.9500;13;
3;FRA;Haute-Normandie;Eure;Garennes-sur-Eure 27278;E1.4333;N48.9167;13;
3;FRA;Haute-Normandie;Eure;Gasny 27279;E1.6000;N49.0833;13;
3;FRA;Haute-Normandie;Eure;Gauciel 27280;E1.2500;N49.0333;13;
3;FRA;Haute-Normandie;Eure;Gaudreville-la-Rivière 27281;E1.0167;N48.9833;13;
3;FRA;Haute-Normandie;Eure;Gauville-la-Campagne 27282;E1.0833;N49.0500;13;
3;FRA;Haute-Normandie;Eure;Gisay-la-Coudre 27283;E0.6263;N48.9499;13;
3;FRA;Haute-Normandie;Eure;Gisors 27284;E1.7833;N49.2833;13;
3;FRA;Haute-Normandie;Eure;Giverny 27285;E1.5333;N49.0667;13;
3;FRA;Haute-Normandie;Eure;Giverville 27286;E0.5667;N49.2000;13;
3;FRA;Haute-Normandie;Eure;Glisolles 27287;E1.0167;N48.9833;13;
3;FRA;Haute-Normandie;Eure;Glos-sur-Risle 27288;E0.6833;N49.2667;13;
3;FRA;Haute-Normandie;Eure;Goupillières 27290;E0.7667;N49.1333;13;
3;FRA;Haute-Normandie;Eure;Gournay-le-Guérin 27291;E0.7757;N48.7072;13;
3;FRA;Haute-Normandie;Eure;Gouttières 27292;E0.7500;N49.0167;13;
3;FRA;Haute-Normandie;Eure;Gouville 27293;E1.0000;N48.8500;13;
3;FRA;Haute-Normandie;Eure;Grainville 27294;E1.3667;N49.3500;13;
3;FRA;Haute-Normandie;Eure;Grand-Camp 27295;E0.5276;N49.0469;13;
3;FRA;Haute-Normandie;Eure;Grandchain 27296;E0.6667;N49.0333;13;
3;FRA;Haute-Normandie;Eure;Grandvilliers 27297;E1.0500;N48.8167;13;
3;FRA;Haute-Normandie;Eure;Graveron-Sémerville 27298;E0.9833;N49.1000;13;
3;FRA;Haute-Normandie;Eure;Gravigny 27299;E1.1667;N49.0500;13;
3;FRA;Haute-Normandie;Eure;Grosley-sur-Risle 27300;E0.8167;N49.0500;13;
3;FRA;Haute-Normandie;Eure;Grossoeuvre 27301;E1.2000;N48.9417;13;
3;FRA;Haute-Normandie;Eure;Guernanville 27303;E0.8500;N48.8833;13;
3;FRA;Haute-Normandie;Eure;Guerny 27304;E1.6833;N49.2167;13;
3;FRA;Haute-Normandie;Eure;Guichainville 27306;E1.1917;N48.9833;13;
3;FRA;Haute-Normandie;Eure;Guiseniers 27307;E1.4667;N49.2167;13;
3;FRA;Haute-Normandie;Eure;Guitry 27308;E1.5500;N49.2167;13;
3;FRA;Haute-Normandie;Eure;Hacqueville 27310;E1.5500;N49.2833;13;
3;FRA;Haute-Normandie;Eure;Harcourt 27311;E0.8000;N49.1667;13;
3;FRA;Haute-Normandie;Eure;Hardencourt-Cocherel 27312;E1.3167;N49.0500;13;
3;FRA;Haute-Normandie;Eure;Haricourt 27314=27331;E1.5667;N49.1167;13;
3;FRA;Haute-Normandie;Eure;Harquency 27315;E1.4833;N49.2500;13;
3;FRA;Haute-Normandie;Eure;Hauville 27316;E0.7667;N49.4000;13;
3;FRA;Haute-Normandie;Eure;Hébécourt 27324;E1.7167;N49.3500;13;
3;FRA;Haute-Normandie;Eure;Hecmanville 27325;E0.6667;N49.1667;13;
3;FRA;Haute-Normandie;Eure;Hécourt 27326;E1.4167;N48.9833;13;
3;FRA;Haute-Normandie;Eure;Hectomare 27327;E0.9500;N49.1833;13;
3;FRA;Haute-Normandie;Eure;Hellenvilliers 27328=27297;E1.1000;N48.8000;13;
3;FRA;Haute-Normandie;Eure;Hennezis 27329;E1.4667;N49.1833;13;
3;FRA;Haute-Normandie;Eure;Herqueville 27330;E1.2667;N49.2500;13;
3;FRA;Haute-Normandie;Eure;Heubécourt-Haricourt 27331;E1.5667;N49.1333;13;
3;FRA;Haute-Normandie;Eure;Heudebouville 27332;E1.2500;N49.2000;13;
3;FRA;Haute-Normandie;Eure;Heudicourt 27333;E1.6667;N49.3333;13;
3;FRA;Haute-Normandie;Eure;Heudreville-en-Lieuvin 27334;E0.5000;N49.2000;13;
3;FRA;Haute-Normandie;Eure;Heudreville-sur-Eure 27335;E1.1833;N49.1500;13;
3;FRA;Haute-Normandie;Eure;Heuqueville 27337;E1.3333;N49.2833;13;
3;FRA;Haute-Normandie;Eure;Hondouville 27339;E1.1167;N49.1333;13;
3;FRA;Haute-Normandie;Eure;Honguemare-Guenouville 27340;E0.8167;N49.3667;13;
3;FRA;Haute-Normandie;Eure;Houetteville 27342;E1.1167;N49.1333;13;
3;FRA;Haute-Normandie;Eure;Houlbec-Cocherel 27343;E1.3667;N49.0667;13;
3;FRA;Haute-Normandie;Eure;Houlbec-près-le-Gros-Theil 27344;E0.8310;N49.2553;13;
3;FRA;Haute-Normandie;Eure;Houville-en-Vexin 27346;E1.3500;N49.3000;13;
3;FRA;Haute-Normandie;Eure;Huest 27347;E1.2167;N49.0333;13;
3;FRA;Haute-Normandie;Eure;Igoville 27348;E1.1500;N49.3167;13;
3;FRA;Haute-Normandie;Eure;Illeville-sur-Montfort 27349;E0.7333;N49.3333;13;
3;FRA;Haute-Normandie;Eure;Illiers-l'Évêque 27350;E1.2667;N48.8167;13;
3;FRA;Haute-Normandie;Eure;Incarville 27351;E1.1833;N49.2333;13;
3;FRA;Haute-Normandie;Eure;Infreville 27352=27105;E0.8833;N49.3167;13;
3;FRA;Haute-Normandie;Eure;Irreville 27353;E1.2167;N49.0833;13;
3;FRA;Haute-Normandie;Eure;Iville 27354;E0.9333;N49.1833;13;
3;FRA;Haute-Normandie;Eure;Ivry-la-Bataille 27355;E1.4667;N48.8833;13;
3;FRA;Haute-Normandie;Eure;Jonquerets-de-Livet 27356;E0.6167;N49.0167;13;
3;FRA;Haute-Normandie;Eure;Jouveaux 27357=27415;E0.4833;N49.2167;13;
3;FRA;Haute-Normandie;Eure;Jouy-sur-Eure 27358;E1.3000;N49.0500;13;
3;FRA;Haute-Normandie;Eure;Juignettes 27359;E0.6667;N48.8500;13;
3;FRA;Haute-Normandie;Eure;Jumelles 27360;E1.2167;N48.9167;13;
3;FRA;Haute-Normandie;Eure;L'Habit 27309;E1.3667;N48.8667;13;
3;FRA;Haute-Normandie;Eure;L'Hosmes 27341;E1.0333;N48.7833;13;
3;FRA;Haute-Normandie;Eure;La Barre-en-Ouche 27041;E0.6667;N48.9500;13;
3;FRA;Haute-Normandie;Eure;La Boissière 27078;E1.3667;N48.9500;13;
3;FRA;Haute-Normandie;Eure;La Bonneville-sur-Iton 27082;E1.0365;N48.9903;13;
3;FRA;Haute-Normandie;Eure;La Chapelle-Bayvel 27146;E0.4000;N49.2667;13;
3;FRA;Haute-Normandie;Eure;La Chapelle-du-Bois-des-Faulx 27147;E1.1663;N49.1128;13;
3;FRA;Haute-Normandie;Eure;La Chapelle-Gauthier 27148;E0.4667;N48.9833;13;
3;FRA;Haute-Normandie;Eure;La Chapelle-Hareng 27149;E0.4167;N49.1167;13;
3;FRA;Haute-Normandie;Eure;La Chapelle-Réanville 27150;E1.3833;N49.1000;13;
3;FRA;Haute-Normandie;Eure;La Couture-Boussey 27183;E1.4000;N48.9000;13;
3;FRA;Haute-Normandie;Eure;La Croisille 27189;E0.9833;N48.9667;13;
3;FRA;Haute-Normandie;Eure;La Croix-Saint-Leufroy 27191;E1.2500;N49.1167;13;
3;FRA;Haute-Normandie;Eure;La Ferrière-sur-Risle 27240;E0.8000;N48.9833;13;
3;FRA;Haute-Normandie;Eure;La Forêt-du-Parc 27256;E1.2500;N48.9250;13;
3;FRA;Haute-Normandie;Eure;La Goulafrière 27289;E0.4500;N48.9500;13;
3;FRA;Haute-Normandie;Eure;La Guéroulde 27305;E0.8833;N48.8167;13;
3;FRA;Haute-Normandie;Eure;La Harengère 27313;E1.0000;N49.2333;13;
3;FRA;Haute-Normandie;Eure;La Haye-Aubrée 27317;E0.7000;N49.3833;13;
3;FRA;Haute-Normandie;Eure;La Haye-de-Calleville 27318;E0.7833;N49.1833;13;
3;FRA;Haute-Normandie;Eure;La Haye-de-Routot 27319;E0.7333;N49.4000;13;
3;FRA;Haute-Normandie;Eure;La Haye-du-Theil 27320;E0.8833;N49.2333;13;
3;FRA;Haute-Normandie;Eure;La Haye-le-Comte 27321;E1.1500;N49.2000;13;
3;FRA;Haute-Normandie;Eure;La Haye-Malherbe 27322;E1.0667;N49.2167;13;
3;FRA;Haute-Normandie;Eure;La Haye-Saint-Sylvestre 27323;E0.6167;N48.9167;13;
3;FRA;Haute-Normandie;Eure;La Heunière 27336;E1.4167;N49.0667;13;
3;FRA;Haute-Normandie;Eure;La Houssaye 27345;E0.8000;N48.9833;13;
3;FRA;Haute-Normandie;Eure;La Lande-Saint-Léger 27361;E0.3598;N49.3015;13;
3;FRA;Haute-Normandie;Eure;La Madeleine-de-Nonancourt 27378;E1.2103;N48.7770;13;
3;FRA;Haute-Normandie;Eure;La Neuve-Grange 27430;E1.5500;N49.3667;13;
3;FRA;Haute-Normandie;Eure;La Neuve-Lyre 27431;E0.7500;N48.9000;13;
3;FRA;Haute-Normandie;Eure;La Neuville-du-Bosc 27432;E0.8167;N49.1833;13;
3;FRA;Haute-Normandie;Eure;La Noë-Poulain 27435;E0.5167;N49.2667;13;
3;FRA;Haute-Normandie;Eure;La Poterie-Mathieu 27475;E0.5500;N49.2667;13;
3;FRA;Haute-Normandie;Eure;La Pyle 27482;E0.9000;N49.2000;13;
3;FRA;Haute-Normandie;Eure;La Roquette 27495;E1.3333;N49.2500;13;
3;FRA;Haute-Normandie;Eure;La Roussière 27499;E0.5833;N48.9583;13;
3;FRA;Haute-Normandie;Eure;La Saussaye 27616;E0.9833;N49.2667;13;
3;FRA;Haute-Normandie;Eure;La Trinité 27659;E1.2333;N48.9917;13;
3;FRA;Haute-Normandie;Eure;La Trinité-de-Réville 27660;E0.5167;N48.9667;13;
3;FRA;Haute-Normandie;Eure;La Trinité-de-Thouberville 27661;E0.8750;N49.3664;13;
3;FRA;Haute-Normandie;Eure;La Vacherie 27666;E1.1333;N49.1333;13;
3;FRA;Haute-Normandie;Eure;La Vieille-Lyre 27685;E0.7500;N48.9167;13;
3;FRA;Haute-Normandie;Eure;Landepéreuse 27362;E0.6333;N49.0000;13;
3;FRA;Haute-Normandie;Eure;Launay 27364;E0.7333;N49.1000;13;
3;FRA;Haute-Normandie;Eure;Le Bec-Hellouin 27052;E0.7167;N49.2333;13;
3;FRA;Haute-Normandie;Eure;Le Bec-Thomas 27053;E0.9833;N49.2333;13;
3;FRA;Haute-Normandie;Eure;Le Bois-Hellain 27071;E0.3833;N49.2667;13;
3;FRA;Haute-Normandie;Eure;Le Bosc-Morel 27087=27138;E0.5667;N49.0000;13;
3;FRA;Haute-Normandie;Eure;Le Bosc-Roger-en-Roumois 27090;E0.9234;N49.2889;13;
3;FRA;Haute-Normandie;Eure;Le Boulay-Morin 27099;E1.1833;N49.0833;13;
3;FRA;Haute-Normandie;Eure;Le Chesne 27157;E0.9500;N48.8833;13;
3;FRA;Haute-Normandie;Eure;Le Cormier 27171;E1.3083;N48.9750;13;
3;FRA;Haute-Normandie;Eure;Le Favril 27237;E0.5303;N49.1825;13;
3;FRA;Haute-Normandie;Eure;Le Fidelaire 27242;E0.8167;N48.9500;13;
3;FRA;Haute-Normandie;Eure;Le Fresne 27268;E0.9833;N48.9500;13;
3;FRA;Haute-Normandie;Eure;Le Gros-Theil 27302;E0.8500;N49.2167;13;
3;FRA;Haute-Normandie;Eure;Le Landin 27363;E0.8000;N49.4000;13;
3;FRA;Haute-Normandie;Eure;Le Manoir 27386;E1.2000;N49.3167;13;
3;FRA;Haute-Normandie;Eure;Le Mesnil-Fuguet 27401;E1.1000;N49.0667;13;
3;FRA;Haute-Normandie;Eure;Le Mesnil-Hardray 27402;E1.0000;N48.9333;13;
3;FRA;Haute-Normandie;Eure;Le Mesnil-Jourdain 27403;E1.1167;N49.1833;13;
3;FRA;Haute-Normandie;Eure;Le Neubourg 27428;E0.9167;N49.1500;13;
3;FRA;Haute-Normandie;Eure;Le Noyer-en-Ouche 27444;E0.7667;N49.0000;13;
3;FRA;Haute-Normandie;Eure;Le Planquay 27462;E0.4333;N49.1000;13;
3;FRA;Haute-Normandie;Eure;Le Plessis-Grohan 27464;E1.1500;N48.9333;13;
3;FRA;Haute-Normandie;Eure;Le Plessis-Hébert 27465;E1.3500;N48.9833;13;
3;FRA;Haute-Normandie;Eure;Le Plessis-Sainte-Opportune 27466;E0.8833;N49.0667;13;
3;FRA;Haute-Normandie;Eure;Le Roncenay 27494=27024;E1.0500;N48.8667;13;
3;FRA;Haute-Normandie;Eure;Le Roncenay-Authenay 27024;E1.0456;N48.8590;13;
3;FRA;Haute-Normandie;Eure;Le Sacq 27503;E1.0667;N48.9000;13;
3;FRA;Haute-Normandie;Eure;Le Theil-Nolent 27627;E0.5333;N49.1500;13;
3;FRA;Haute-Normandie;Eure;Le Thil 27632;E1.5500;N49.3083;13;
3;FRA;Haute-Normandie;Eure;Le Thuit 27635;E1.3500;N49.2500;13;
3;FRA;Haute-Normandie;Eure;Le Thuit-Anger 27636;E0.9667;N49.2667;13;
3;FRA;Haute-Normandie;Eure;Le Thuit-Signol 27638;E0.9500;N49.2667;13;
3;FRA;Haute-Normandie;Eure;Le Thuit-Simer 27639;E0.9167;N49.2667;13;
3;FRA;Haute-Normandie;Eure;Le Tilleul-Lambert 27641;E0.9500;N49.0833;13;
3;FRA;Haute-Normandie;Eure;Le Tilleul-Othon 27642;E0.7833;N49.1167;13;
3;FRA;Haute-Normandie;Eure;Le Torpt 27646;E0.3667;N49.3333;13;
3;FRA;Haute-Normandie;Eure;Le Tremblay-Omonville 27658;E0.9000;N49.1167;13;
3;FRA;Haute-Normandie;Eure;Le Troncq 27663;E0.9167;N49.2000;13;
3;FRA;Haute-Normandie;Eure;Le Tronquay 27664;E1.4784;N49.4259;13;
3;FRA;Haute-Normandie;Eure;Le Val-David 27668;E1.2500;N48.9833;13;
3;FRA;Haute-Normandie;Eure;Le Vaudreuil 27528;E1.2167;N49.2500;13;
3;FRA;Haute-Normandie;Eure;Le Vieil-Évreux 27684;E1.2333;N49.0000;13;
3;FRA;Haute-Normandie;Eure;Léry 27365;E1.2167;N49.2833;13;
3;FRA;Haute-Normandie;Eure;Les Andelys 27016;E1.4167;N49.2500;13;
3;FRA;Haute-Normandie;Eure;Les Authieux 27027;E1.2333;N48.9000;13;
3;FRA;Haute-Normandie;Eure;Les Barils 27038;E0.8167;N48.7333;13;
3;FRA;Haute-Normandie;Eure;Les Baux-de-Breteuil 27043;E0.8167;N48.8833;13;
3;FRA;Haute-Normandie;Eure;Les Baux-Sainte-Croix 27044;E1.1000;N48.9667;13;
3;FRA;Haute-Normandie;Eure;Les Bottereaux 27096;E0.6667;N48.8833;13;
3;FRA;Haute-Normandie;Eure;Les Damps 27196;E1.1833;N49.3000;13;
3;FRA;Haute-Normandie;Eure;Les Essarts 27225;E0.9828;N48.8883;13;
3;FRA;Haute-Normandie;Eure;Les Frétils 27272=27096;E0.6832;N48.8499;13;
3;FRA;Haute-Normandie;Eure;Les Hogues 27338;E1.3961;N49.4278;13;
3;FRA;Haute-Normandie;Eure;Les Minières 27409=27198;E1.0833;N48.8667;13;
3;FRA;Haute-Normandie;Eure;Les Places 27459;E0.4149;N49.1520;13;
3;FRA;Haute-Normandie;Eure;Les Planches 27461=27003;E1.1833;N49.1500;13;
3;FRA;Haute-Normandie;Eure;Les Préaux 27476;E0.4667;N49.3167;13;
3;FRA;Haute-Normandie;Eure;Les Thilliers-en-Vexin 27633;E1.6090;N49.2360;13;
3;FRA;Haute-Normandie;Eure;Les Ventes 27678;E1.0833;N48.9500;13;
3;FRA;Haute-Normandie;Eure;Letteguives 27366;E1.3333;N49.4333;13;
3;FRA;Haute-Normandie;Eure;Lieurey 27367;E0.4833;N49.2333;13;
3;FRA;Haute-Normandie;Eure;Lignerolles 27368;E1.2833;N48.8500;13;
3;FRA;Haute-Normandie;Eure;Lilly 27369;E1.5667;N49.4000;13;
3;FRA;Haute-Normandie;Eure;Lisors 27370;E1.4667;N49.3500;13;
3;FRA;Haute-Normandie;Eure;Livet-sur-Authou 27371;E0.6667;N49.2333;13;
3;FRA;Haute-Normandie;Eure;Longchamps 27372;E1.6167;N49.3667;13;
3;FRA;Haute-Normandie;Eure;Lorleau 27373;E1.5000;N49.4167;13;
3;FRA;Haute-Normandie;Eure;Louversey 27374;E0.9167;N49.0000;13;
3;FRA;Haute-Normandie;Eure;Louviers 27375;E1.1667;N49.2167;13;
3;FRA;Haute-Normandie;Eure;Louye 27376;E1.3167;N48.8000;13;
3;FRA;Haute-Normandie;Eure;Lyons-la-Forêt 27377;E1.4667;N49.4000;13;
3;FRA;Haute-Normandie;Eure;Mainneville 27379;E1.6833;N49.3667;13;
3;FRA;Haute-Normandie;Eure;Malleville-sur-le-Bec 27380;E0.7500;N49.2333;13;
3;FRA;Haute-Normandie;Eure;Malouy 27381;E0.5167;N49.1333;13;
3;FRA;Haute-Normandie;Eure;Mandeville 27382;E1.0167;N49.2167;13;
3;FRA;Haute-Normandie;Eure;Mandres 27383;E0.8667;N48.7500;13;
3;FRA;Haute-Normandie;Eure;Manneville-la-Raoult 27384;E0.3167;N49.3667;13;
3;FRA;Haute-Normandie;Eure;Manneville-sur-Risle 27385;E0.5667;N49.3500;13;
3;FRA;Haute-Normandie;Eure;Manthelon 27387;E1.0500;N48.9167;13;
3;FRA;Haute-Normandie;Eure;Marais-Vernier 27388;E0.4500;N49.4167;13;
3;FRA;Haute-Normandie;Eure;Marbeuf 27389;E0.9667;N49.1500;13;
3;FRA;Haute-Normandie;Eure;Marcilly-la-Campagne 27390;E1.2167;N48.8333;13;
3;FRA;Haute-Normandie;Eure;Marcilly-sur-Eure 27391;E1.3500;N48.8167;13;
3;FRA;Haute-Normandie;Eure;Martagny 27392;E1.6583;N49.3948;13;
3;FRA;Haute-Normandie;Eure;Martainville 27393;E0.4167;N49.3000;13;
3;FRA;Haute-Normandie;Eure;Martot 27394;E1.0667;N49.3000;13;
3;FRA;Haute-Normandie;Eure;Mélicourt 27395;E0.5167;N48.9167;13;
3;FRA;Haute-Normandie;Eure;Ménesqueville 27396;E1.4112;N49.3609;13;
3;FRA;Haute-Normandie;Eure;Ménilles 27397;E1.3667;N49.0333;13;
3;FRA;Haute-Normandie;Eure;Menneval 27398;E0.6167;N49.1000;13;
3;FRA;Haute-Normandie;Eure;Mercey 27399;E1.3833;N49.0833;13;
3;FRA;Haute-Normandie;Eure;Merey 27400;E1.4000;N48.9667;13;
3;FRA;Haute-Normandie;Eure;Mesnil-Rousset 27404;E0.5667;N48.9000;13;
3;FRA;Haute-Normandie;Eure;Mesnil-sous-Vienne 27405;E1.6667;N49.3833;13;
3;FRA;Haute-Normandie;Eure;Mesnil-sur-l'Estrée 27406;E1.3000;N48.7667;13;
3;FRA;Haute-Normandie;Eure;Mesnil-Verclives 27407;E1.4667;N49.3167;13;
3;FRA;Haute-Normandie;Eure;Mézières-en-Vexin 27408;E1.5000;N49.1667;13;
3;FRA;Haute-Normandie;Eure;Miserey 27410;E1.2667;N49.0167;13;
3;FRA;Haute-Normandie;Eure;Moisville 27411;E1.1667;N48.8500;13;
3;FRA;Haute-Normandie;Eure;Montaure 27412;E1.0833;N49.2333;13;
3;FRA;Haute-Normandie;Eure;Montfort-sur-Risle 27413;E0.6667;N49.3000;13;
3;FRA;Haute-Normandie;Eure;Montreuil-l'Argillé 27414;E0.4833;N48.9333;13;
3;FRA;Haute-Normandie;Eure;Morainville-Jouveaux 27415;E0.4453;N49.2218;13;
3;FRA;Haute-Normandie;Eure;Morgny 27417;E1.5833;N49.3833;13;
3;FRA;Haute-Normandie;Eure;Morsan 27418;E0.5833;N49.1833;13;
3;FRA;Haute-Normandie;Eure;Mouettes 27419;E1.3667;N48.9000;13;
3;FRA;Haute-Normandie;Eure;Mouflaines 27420;E1.5500;N49.2500;13;
3;FRA;Haute-Normandie;Eure;Mousseaux-Neuville 27421;E1.3500;N48.9000;13;
3;FRA;Haute-Normandie;Eure;Muids 27422;E1.3000;N49.2167;13;
3;FRA;Haute-Normandie;Eure;Muzy 27423;E1.3500;N48.7667;13;
3;FRA;Haute-Normandie;Eure;Nagel-Séez-Mesnil 27424;E0.9500;N48.9333;13;
3;FRA;Haute-Normandie;Eure;Nassandres 27425;E0.7333;N49.1167;13;
3;FRA;Haute-Normandie;Eure;Neaufles-Auvergny 27427;E1.7333;N49.2833;13;
3;FRA;Haute-Normandie;Eure;Neaufles-Saint-Martin 27426;E0.7500;N48.8667;13;
3;FRA;Haute-Normandie;Eure;Neuilly 27429;E1.4167;N48.9333;13;
3;FRA;Haute-Normandie;Eure;Neuville-sur-Authou 27433;E0.6333;N49.2167;13;
3;FRA;Haute-Normandie;Eure;Noards 27434;E0.5167;N49.2167;13;
3;FRA;Haute-Normandie;Eure;Nogent-le-Sec 27436;E1.0000;N48.9167;13;
3;FRA;Haute-Normandie;Eure;Nojeon-en-Vexin 27437;E1.5625;N49.3307;13;
3;FRA;Haute-Normandie;Eure;Nonancourt 27438;E1.2000;N48.7667;13;
3;FRA;Haute-Normandie;Eure;Normanville 27439;E1.1500;N49.0833;13;
3;FRA;Haute-Normandie;Eure;Notre-Dame-d'Épine 27441;E0.6000;N49.2000;13;
3;FRA;Haute-Normandie;Eure;Notre-Dame-de-l'Isle 27440;E1.4333;N49.1500;13;
3;FRA;Haute-Normandie;Eure;Notre-Dame-du-Hamel 27442;E0.5167;N48.8833;13;
3;FRA;Haute-Normandie;Eure;Notre-Dame-du-Vaudreuil 27443=27528;E1.2098;N49.2588;13;
3;FRA;Haute-Normandie;Eure;Noyers 27445;E1.3833;N49.2667;13;
3;FRA;Haute-Normandie;Eure;Ormes 27446;E0.9667;N49.0500;13;
3;FRA;Haute-Normandie;Eure;Orvaux 27447;E1.0333;N48.9333;13;
3;FRA;Haute-Normandie;Eure;Pacy-sur-Eure 27448;E1.3833;N49.0167;13;
3;FRA;Haute-Normandie;Eure;Panilleuse 27449;E1.5000;N49.1500;13;
3;FRA;Haute-Normandie;Eure;Panlatte 27450=27206;E1.1000;N48.8000;13;
3;FRA;Haute-Normandie;Eure;Parville 27451;E1.1000;N49.0333;13;
3;FRA;Haute-Normandie;Eure;Perriers-la-Campagne 27452;E0.7667;N49.1500;13;
3;FRA;Haute-Normandie;Eure;Perriers-sur-Andelle 27453;E1.3667;N49.4167;13;
3;FRA;Haute-Normandie;Eure;Perruel 27454;E1.3833;N49.4333;13;
3;FRA;Haute-Normandie;Eure;Piencourt 27455;E0.4000;N49.1667;13;
3;FRA;Haute-Normandie;Eure;Pinterville 27456;E1.1833;N49.2000;13;
3;FRA;Haute-Normandie;Eure;Piseux 27457;E0.9833;N48.7667;13;
3;FRA;Haute-Normandie;Eure;Pîtres 27458;E1.2333;N49.3167;13;
3;FRA;Haute-Normandie;Eure;Plainville 27460;E0.5000;N49.0833;13;
3;FRA;Haute-Normandie;Eure;Plasnes 27463;E0.6167;N49.1333;13;
3;FRA;Haute-Normandie;Eure;Pont-Audemer 27467;E0.5167;N49.3500;13;
3;FRA;Haute-Normandie;Eure;Pont-Authou 27468;E0.7000;N49.2500;13;
3;FRA;Haute-Normandie;Eure;Pont-de-l'Arche 27469;E1.1667;N49.3000;13;
3;FRA;Haute-Normandie;Eure;Pont-Saint-Pierre 27470;E1.2667;N49.3333;13;
3;FRA;Haute-Normandie;Eure;Port-Mort 27473;E1.4167;N49.1667;13;
3;FRA;Haute-Normandie;Eure;Porte-Joie 27471;E1.2500;N49.2500;13;
3;FRA;Haute-Normandie;Eure;Portes 27472;E0.9500;N49.0333;13;
3;FRA;Haute-Normandie;Eure;Poses 27474;E1.2500;N49.3000;13;
3;FRA;Haute-Normandie;Eure;Pressagny-l'Orgueilleux 27477;E1.4421;N49.1329;13;
3;FRA;Haute-Normandie;Eure;Prey 27478;E1.2167;N48.9667;13;
3;FRA;Haute-Normandie;Eure;Provemont 27479=27153;E1.6326;N49.2830;13;
3;FRA;Haute-Normandie;Eure;Puchay 27480;E1.5333;N49.3500;13;
3;FRA;Haute-Normandie;Eure;Pullay 27481;E0.8833;N48.7333;13;
3;FRA;Haute-Normandie;Eure;Quatremare 27483;E1.0833;N49.1833;13;
3;FRA;Haute-Normandie;Eure;Quessigny 27484;E1.2833;N48.9333;13;
3;FRA;Haute-Normandie;Eure;Quillebeuf-sur-Seine 27485;E0.5167;N49.4667;13;
3;FRA;Haute-Normandie;Eure;Quittebeuf 27486;E1.0167;N49.1000;13;
3;FRA;Haute-Normandie;Eure;Radepont 27487;E1.3333;N49.3500;13;
3;FRA;Haute-Normandie;Eure;Renneville 27488;E1.3167;N49.4000;13;
3;FRA;Haute-Normandie;Eure;Reuilly 27489;E1.2167;N49.0667;13;
3;FRA;Haute-Normandie;Eure;Richeville 27490;E1.5333;N49.2667;13;
3;FRA;Haute-Normandie;Eure;Roman 27491;E1.0500;N48.8500;13;
3;FRA;Haute-Normandie;Eure;Romilly-la-Puthenaye 27492;E0.8500;N49.0000;13;
3;FRA;Haute-Normandie;Eure;Romilly-sur-Andelle 27493;E1.2667;N49.3333;13;
3;FRA;Haute-Normandie;Eure;Rosay-sur-Lieure 27496;E1.4333;N49.3667;13;
3;FRA;Haute-Normandie;Eure;Rouge-Perriers 27498;E0.8333;N49.1500;13;
3;FRA;Haute-Normandie;Eure;Rougemontiers 27497;E0.7250;N49.3583;13;
3;FRA;Haute-Normandie;Eure;Routot 27500;E0.7333;N49.3833;13;
3;FRA;Haute-Normandie;Eure;Rouvray 27501;E1.3333;N49.0667;13;
3;FRA;Haute-Normandie;Eure;Rugles 27502;E0.7000;N48.8167;13;
3;FRA;Haute-Normandie;Eure;Sacquenville 27504;E1.0667;N49.0833;13;
3;FRA;Haute-Normandie;Eure;Saint-Agnan-de-Cernières 27505;E0.5149;N48.9525;13;
3;FRA;Haute-Normandie;Eure;Saint-Amand-des-Hautes-Terres 27506;E0.9333;N49.2333;13;
3;FRA;Haute-Normandie;Eure;Saint-André-de-l'Eure 27507;E1.2833;N48.9000;13;
3;FRA;Haute-Normandie;Eure;Saint-Antonin-de-Sommaire 27508;E0.6667;N48.8333;13;
3;FRA;Haute-Normandie;Eure;Saint-Aquilin-d'Augerons 27509=27414;E0.4667;N48.9333;13;
3;FRA;Haute-Normandie;Eure;Saint-Aquilin-de-Pacy 27510;E1.3667;N49.0167;13;
3;FRA;Haute-Normandie;Eure;Saint-Aubin-d'Écrosville 27511;E0.9833;N49.1500;13;
3;FRA;Haute-Normandie;Eure;Saint-Aubin-de-Scellon 27512;E0.4667;N49.1667;13;
3;FRA;Haute-Normandie;Eure;Saint-Aubin-des-Hayes 27513;E0.6833;N49.0167;13;
3;FRA;Haute-Normandie;Eure;Saint-Aubin-du-Thenney 27514;E0.5000;N49.0167;13;
3;FRA;Haute-Normandie;Eure;Saint-Aubin-le-Guichard 27515;E0.7000;N49.0333;13;
3;FRA;Haute-Normandie;Eure;Saint-Aubin-le-Vertueux 27516;E0.6000;N49.0500;13;
3;FRA;Haute-Normandie;Eure;Saint-Aubin-sur-Gaillon 27517;E1.3333;N49.1500;13;
3;FRA;Haute-Normandie;Eure;Saint-Aubin-sur-Quillebeuf 27518;E0.5333;N49.4667;13;
3;FRA;Haute-Normandie;Eure;Saint-Benoît-des-Ombres 27520;E0.6333;N49.2333;13;
3;FRA;Haute-Normandie;Eure;Saint-Christophe-sur-Avre 27521;E0.8167;N48.7000;13;
3;FRA;Haute-Normandie;Eure;Saint-Christophe-sur-Condé 27522;E0.6000;N49.2833;13;
3;FRA;Haute-Normandie;Eure;Saint-Clair-d'Arcey 27523;E0.6667;N49.0667;13;
3;FRA;Haute-Normandie;Eure;Saint-Cyr-de-Salerne 27527;E0.6667;N49.1833;13;
3;FRA;Haute-Normandie;Eure;Saint-Cyr-la-Campagne 27529;E1.0167;N49.2500;13;
3;FRA;Haute-Normandie;Eure;Saint-Denis-d'Augerons 27530;E0.4833;N48.9333;13;
3;FRA;Haute-Normandie;Eure;Saint-Denis-des-Monts 27531;E0.8167;N49.2667;13;
3;FRA;Haute-Normandie;Eure;Saint-Denis-du-Béhélan 27532;E0.9667;N48.8667;13;
3;FRA;Haute-Normandie;Eure;Saint-Denis-le-Ferment 27533;E1.7167;N49.3333;13;
3;FRA;Haute-Normandie;Eure;Saint-Didier-des-Bois 27534;E1.0333;N49.2333;13;
3;FRA;Haute-Normandie;Eure;Saint-Élier 27535;E0.9667;N48.9833;13;
3;FRA;Haute-Normandie;Eure;Saint-Éloi-de-Fourques 27536;E0.8000;N49.2333;13;
3;FRA;Haute-Normandie;Eure;Saint-Étienne-du-Vauvray 27537;E1.2167;N49.2500;13;
3;FRA;Haute-Normandie;Eure;Saint-Étienne-l'Allier 27538;E0.5500;N49.2667;13;
3;FRA;Haute-Normandie;Eure;Saint-Étienne-sous-Bailleul 27539;E1.4000;N49.1167;13;
3;FRA;Haute-Normandie;Eure;Saint-Georges-du-Mesnil 27541;E0.5500;N49.2167;13;
3;FRA;Haute-Normandie;Eure;Saint-Georges-du-Vièvre 27542;E0.5833;N49.2500;13;
3;FRA;Haute-Normandie;Eure;Saint-Georges-Motel 27543;E1.3667;N48.8000;13;
3;FRA;Haute-Normandie;Eure;Saint-Germain-de-Fresney 27544;E1.2833;N48.9667;13;
3;FRA;Haute-Normandie;Eure;Saint-Germain-de-Pasquier 27545;E1.0000;N49.2500;13;
3;FRA;Haute-Normandie;Eure;Saint-Germain-des-Angles 27546;E1.1500;N49.0833;13;
3;FRA;Haute-Normandie;Eure;Saint-Germain-la-Campagne 27547;E0.4167;N49.0500;13;
3;FRA;Haute-Normandie;Eure;Saint-Germain-sur-Avre 27548;E1.2667;N48.7667;13;
3;FRA;Haute-Normandie;Eure;Saint-Germain-Village 27549;E0.5000;N49.3500;13;
3;FRA;Haute-Normandie;Eure;Saint-Grégoire-du-Vièvre 27550;E0.6333;N49.2500;13;
3;FRA;Haute-Normandie;Eure;Saint-Jean-de-la-Léqueraye 27551;E0.5612;N49.2226;13;
3;FRA;Haute-Normandie;Eure;Saint-Jean-du-Thenney 27552;E0.4667;N49.0167;13;
3;FRA;Haute-Normandie;Eure;Saint-Julien-de-la-Liègue 27553;E1.3000;N49.1333;13;
3;FRA;Haute-Normandie;Eure;Saint-Just 27554;E1.4500;N49.1167;13;
3;FRA;Haute-Normandie;Eure;Saint-Laurent-des-Bois 27555;E1.3167;N48.8500;13;
3;FRA;Haute-Normandie;Eure;Saint-Laurent-du-Tencement 27556;E0.4667;N48.8833;13;
3;FRA;Haute-Normandie;Eure;Saint-Léger-de-Rôtes 27557;E0.6500;N49.1167;13;
3;FRA;Haute-Normandie;Eure;Saint-Léger-du-Gennetey 27558;E0.7500;N49.2833;13;
3;FRA;Haute-Normandie;Eure;Saint-Léger-sur-Bonneville 27559=27361;E0.3333;N49.2833;13;
3;FRA;Haute-Normandie;Eure;Saint-Luc 27560;E1.2417;N48.9750;13;
3;FRA;Haute-Normandie;Eure;Saint-Maclou 27561;E0.4167;N49.3667;13;
3;FRA;Haute-Normandie;Eure;Saint-Marcel 27562;E1.4500;N49.1000;13;
3;FRA;Haute-Normandie;Eure;Saint-Mards-de-Blacarville 27563;E0.5167;N49.3667;13;
3;FRA;Haute-Normandie;Eure;Saint-Mards-de-Fresne 27564;E0.4500;N49.0667;13;
3;FRA;Haute-Normandie;Eure;Saint-Martin-du-Tilleul 27569;E0.5333;N49.1000;13;
3;FRA;Haute-Normandie;Eure;Saint-Martin-la-Campagne 27570;E1.0667;N49.0667;13;
3;FRA;Haute-Normandie;Eure;Saint-Martin-Saint-Firmin 27571;E0.5667;N49.2833;13;
3;FRA;Haute-Normandie;Eure;Saint-Meslin-du-Bosc 27572;E0.8833;N49.2167;13;
3;FRA;Haute-Normandie;Eure;Saint-Nicolas-d'Attez 27573;E0.9333;N48.8167;13;
3;FRA;Haute-Normandie;Eure;Saint-Nicolas-du-Bosc 27574;E0.8667;N49.2167;13;
3;FRA;Haute-Normandie;Eure;Saint-Nicolas-du-Bosc-l'Abbé 27575=27129;E0.5667;N49.0667;13;
3;FRA;Haute-Normandie;Eure;Saint-Ouen-d'Attez 27578;E0.9500;N48.8000;13;
3;FRA;Haute-Normandie;Eure;Saint-Ouen-de-Pontcheuil 27579;E0.9500;N49.2333;13;
3;FRA;Haute-Normandie;Eure;Saint-Ouen-de-Thouberville 27580;E0.8833;N49.3500;13;
3;FRA;Haute-Normandie;Eure;Saint-Ouen-des-Champs 27581;E0.5500;N49.3833;13;
3;FRA;Haute-Normandie;Eure;Saint-Ouen-du-Tilleul 27582;E0.9500;N49.2833;13;
3;FRA;Haute-Normandie;Eure;Saint-Paër 27583=27533;E1.7299;N49.3092;13;
3;FRA;Haute-Normandie;Eure;Saint-Paul-de-Fourques 27584;E0.8000;N49.2167;13;
3;FRA;Haute-Normandie;Eure;Saint-Paul-sur-Risle 27585=27467;E0.5667;N49.3333;13;
3;FRA;Haute-Normandie;Eure;Saint-Philbert-sur-Boissey 27586;E0.7864;N49.2543;13;
3;FRA;Haute-Normandie;Eure;Saint-Philbert-sur-Risle 27587;E0.6500;N49.2833;13;
3;FRA;Haute-Normandie;Eure;Saint-Pierre-d'Autils 27588;E1.4333;N49.1167;13;
3;FRA;Haute-Normandie;Eure;Saint-Pierre-de-Bailleul 27589;E1.4000;N49.1167;13;
3;FRA;Haute-Normandie;Eure;Saint-Pierre-de-Cernières 27590;E0.5167;N48.9500;13;
3;FRA;Haute-Normandie;Eure;Saint-Pierre-de-Cormeilles 27591;E0.3833;N49.2333;13;
3;FRA;Haute-Normandie;Eure;Saint-Pierre-de-Salerne 27592;E0.6667;N49.2000;13;
3;FRA;Haute-Normandie;Eure;Saint-Pierre-des-Fleurs 27593;E0.9667;N49.2500;13;
3;FRA;Haute-Normandie;Eure;Saint-Pierre-des-Ifs 27594;E0.6333;N49.2667;13;
3;FRA;Haute-Normandie;Eure;Saint-Pierre-du-Bosguérard 27595;E0.9000;N49.2667;13;
3;FRA;Haute-Normandie;Eure;Saint-Pierre-du-Mesnil 27596;E0.5833;N48.9333;13;
3;FRA;Haute-Normandie;Eure;Saint-Pierre-du-Val 27597;E0.3667;N49.4000;13;
3;FRA;Haute-Normandie;Eure;Saint-Pierre-du-Vauvray 27598;E1.2167;N49.2333;13;
3;FRA;Haute-Normandie;Eure;Saint-Pierre-la-Garenne 27599;E1.4000;N49.1500;13;
3;FRA;Haute-Normandie;Eure;Saint-Quentin-des-Isles 27600;E0.5833;N49.0500;13;
3;FRA;Haute-Normandie;Eure;Saint-Samson-de-la-Roque 27601;E0.4333;N49.4333;13;
3;FRA;Haute-Normandie;Eure;Saint-Sébastien-de-Morsent 27602;E1.0833;N49.0167;13;
3;FRA;Haute-Normandie;Eure;Saint-Siméon 27603;E0.5167;N49.2833;13;
3;FRA;Haute-Normandie;Eure;Saint-Sulpice-de-Grimbouville 27604;E0.4440;N49.3789;13;
3;FRA;Haute-Normandie;Eure;Saint-Sylvestre-de-Cormeilles 27605;E0.4284;N49.2446;13;
3;FRA;Haute-Normandie;Eure;Saint-Symphorien 27606;E0.4833;N49.3167;13;
3;FRA;Haute-Normandie;Eure;Saint-Thurien 27607;E0.5500;N49.4000;13;
3;FRA;Haute-Normandie;Eure;Saint-Victor-d'Épine 27609;E0.6000;N49.2167;13;
3;FRA;Haute-Normandie;Eure;Saint-Victor-de-Chrétienville 27608;E0.5170;N49.0684;13;
3;FRA;Haute-Normandie;Eure;Saint-Victor-sur-Avre 27610;E0.8500;N48.7000;13;
3;FRA;Haute-Normandie;Eure;Saint-Vigor 27611;E1.2667;N49.0833;13;
3;FRA;Haute-Normandie;Eure;Saint-Vincent-des-Bois 27612;E1.4000;N49.0667;13;
3;FRA;Haute-Normandie;Eure;Saint-Vincent-du-Boulay 27613;E0.4833;N49.1000;13;
3;FRA;Haute-Normandie;Eure;Sainte-Barbe-sur-Gaillon 27519;E1.3167;N49.1667;13;
3;FRA;Haute-Normandie;Eure;Sainte-Colombe-la-Commanderie 27524;E0.9386;N49.1146;13;
3;FRA;Haute-Normandie;Eure;Sainte-Colombe-près-Vernon 27525;E1.3333;N49.1000;13;
3;FRA;Haute-Normandie;Eure;Sainte-Croix-sur-Aizier 27526;E0.6333;N49.4167;13;
3;FRA;Haute-Normandie;Eure;Sainte-Geneviève-lès-Gasny 27540;E1.5833;N49.0833;13;
3;FRA;Haute-Normandie;Eure;Sainte-Marguerite-de-l'Autel 27565;E0.8667;N48.9000;13;
3;FRA;Haute-Normandie;Eure;Sainte-Marguerite-en-Ouche 27566;E0.6500;N49.0167;13;
3;FRA;Haute-Normandie;Eure;Sainte-Marie-de-Vatimesnil 27567;E1.5667;N49.2667;13;
3;FRA;Haute-Normandie;Eure;Sainte-Marthe 27568;E0.8833;N48.9667;13;
3;FRA;Haute-Normandie;Eure;Sainte-Opportune-du-Bosc 27576;E0.8359;N49.1631;13;
3;FRA;Haute-Normandie;Eure;Sainte-Opportune-la-Mare 27577;E0.5333;N49.4167;13;
3;FRA;Haute-Normandie;Eure;Sancourt 27614;E1.6833;N49.3500;13;
3;FRA;Haute-Normandie;Eure;Sassey 27615;E1.2167;N49.0500;13;
3;FRA;Haute-Normandie;Eure;Saussay-la-Campagne 27617;E1.5167;N49.3167;13;
3;FRA;Haute-Normandie;Eure;Sébécourt 27618;E0.8333;N48.9667;13;
3;FRA;Haute-Normandie;Eure;Séez-Mesnil 27619=27424;E0.9262;N48.9193;13;
3;FRA;Haute-Normandie;Eure;Selles 27620;E0.5000;N49.3000;13;
3;FRA;Haute-Normandie;Eure;Serez 27621;E1.3629;N48.9335;13;
3;FRA;Haute-Normandie;Eure;Serquigny 27622;E0.7167;N49.1000;13;
3;FRA;Haute-Normandie;Eure;Surtauville 27623;E1.0667;N49.2000;13;
3;FRA;Haute-Normandie;Eure;Surville 27624;E1.1000;N49.2000;13;
3;FRA;Haute-Normandie;Eure;Suzay 27625;E1.5167;N49.2833;13;
3;FRA;Haute-Normandie;Eure;Sylvains-les-Moulins 27693;E1.0899;N48.9198;13;
3;FRA;Haute-Normandie;Eure;Theillement 27626;E0.8000;N49.2833;13;
3;FRA;Haute-Normandie;Eure;Thevray 27628;E0.7333;N48.9833;13;
3;FRA;Haute-Normandie;Eure;Thiberville 27629;E0.4500;N49.1333;13;
3;FRA;Haute-Normandie;Eure;Thibouville 27630;E0.7833;N49.1500;13;
3;FRA;Haute-Normandie;Eure;Thierville 27631;E0.7167;N49.2667;13;
3;FRA;Haute-Normandie;Eure;Thomer-la-Sôgne 27634;E1.1667;N48.9167;13;
3;FRA;Haute-Normandie;Eure;Thuit-Hébert 27637;E0.8333;N49.3167;13;
3;FRA;Haute-Normandie;Eure;Tilleul-Dame-Agnès 27640;E0.8833;N49.0000;13;
3;FRA;Haute-Normandie;Eure;Tillières-sur-Avre 27643;E1.0667;N48.7667;13;
3;FRA;Haute-Normandie;Eure;Tilly 27644;E1.5333;N49.1500;13;
3;FRA;Haute-Normandie;Eure;Tocqueville 27645;E0.6167;N49.4000;13;
3;FRA;Haute-Normandie;Eure;Tosny 27647;E1.3833;N49.2167;13;
3;FRA;Haute-Normandie;Eure;Tostes 27648;E1.1167;N49.2667;13;
3;FRA;Haute-Normandie;Eure;Touffreville 27649;E1.4423;N49.3493;13;
3;FRA;Haute-Normandie;Eure;Tournedos-Bois-Hubert 27650;E0.9833;N49.0833;13;
3;FRA;Haute-Normandie;Eure;Tournedos-sur-Seine 27651;E1.2667;N49.2833;13;
3;FRA;Haute-Normandie;Eure;Tourneville 27652;E1.1167;N49.1000;13;
3;FRA;Haute-Normandie;Eure;Tourny 27653;E1.5500;N49.1833;13;
3;FRA;Haute-Normandie;Eure;Tourville-la-Campagne 27654;E0.9000;N49.2333;13;
3;FRA;Haute-Normandie;Eure;Tourville-sur-Pont-Audemer 27655;E0.5054;N49.3304;13;
3;FRA;Haute-Normandie;Eure;Toutainville 27656;E0.4667;N49.3667;13;
3;FRA;Haute-Normandie;Eure;Touville 27657;E0.7598;N49.3042;13;
3;FRA;Haute-Normandie;Eure;Triqueville 27662;E0.4405;N49.3370;13;
3;FRA;Haute-Normandie;Eure;Trouville-la-Haule 27665;E0.5667;N49.4167;13;
3;FRA;Haute-Normandie;Eure;Val-de-Reuil 27701;E1.2127;N49.2719;13;
3;FRA;Haute-Normandie;Eure;Valailles 27667;E0.6000;N49.1167;13;
3;FRA;Haute-Normandie;Eure;Valletot 27669;E0.6167;N49.3667;13;
3;FRA;Haute-Normandie;Eure;Vandrimare 27670;E1.3500;N49.3833;13;
3;FRA;Haute-Normandie;Eure;Vannecrocq 27671;E0.4333;N49.3000;13;
3;FRA;Haute-Normandie;Eure;Vascoeuil 27672;E1.3833;N49.4500;13;
3;FRA;Haute-Normandie;Eure;Vatteville 27673;E1.2833;N49.2833;13;
3;FRA;Haute-Normandie;Eure;Vaux-sur-Eure 27674;E1.3500;N49.0500;13;
3;FRA;Haute-Normandie;Eure;Vaux-sur-Risle 27675=27096;E0.7167;N48.8667;13;
3;FRA;Haute-Normandie;Eure;Venables 27676;E1.3000;N49.2000;13;
3;FRA;Haute-Normandie;Eure;Venon 27677;E1.0500;N49.1667;13;
3;FRA;Haute-Normandie;Eure;Verneuil-sur-Avre 27679;E0.9333;N48.7333;13;
3;FRA;Haute-Normandie;Eure;Verneusses 27680;E0.4500;N48.9167;13;
3;FRA;Haute-Normandie;Eure;Vernon 27681;E1.4833;N49.0833;13;
3;FRA;Haute-Normandie;Eure;Vesly 27682;E1.6500;N49.2333;13;
3;FRA;Haute-Normandie;Eure;Vézillon 27683;E1.4000;N49.2167;13;
3;FRA;Haute-Normandie;Eure;Vieux-Port 27686;E0.6000;N49.4333;13;
3;FRA;Haute-Normandie;Eure;Vieux-Villez 27687;E1.2833;N49.1667;13;
3;FRA;Haute-Normandie;Eure;Villalet 27688;E1.0667;N48.9333;13;
3;FRA;Haute-Normandie;Eure;Villegats 27689;E1.4667;N49.0000;13;
3;FRA;Haute-Normandie;Eure;Villers-en-Vexin 27690;E1.6000;N49.2500;13;
3;FRA;Haute-Normandie;Eure;Villers-sur-le-Roule 27691;E1.3167;N49.2000;13;
3;FRA;Haute-Normandie;Eure;Villettes 27692;E1.0500;N49.1500;13;
3;FRA;Haute-Normandie;Eure;Villez-sous-Bailleul 27694;E1.3667;N49.1167;13;
3;FRA;Haute-Normandie;Eure;Villez-sur-le-Neubourg 27695;E0.8667;N49.1500;13;
3;FRA;Haute-Normandie;Eure;Villiers-en-Désoeuvre 27696;E1.5000;N48.9500;13;
3;FRA;Haute-Normandie;Eure;Vironvay 27697;E1.2167;N49.2000;13;
3;FRA;Haute-Normandie;Eure;Vitot 27698;E0.8959;N49.1649;13;
3;FRA;Haute-Normandie;Eure;Voiscreville 27699;E0.7667;N49.2833;13;
3;FRA;Haute-Normandie;Eure;Vraiville 27700;E1.0500;N49.2167;13;
2;FRA;Haute-Normandie;Seine-Maritime;;E1.02;N49.73;9;
3;FRA;Haute-Normandie;Seine-Maritime;Allouville-Bellefosse 76001;E0.6833;N49.6000;13;
3;FRA;Haute-Normandie;Seine-Maritime;Alvimare 76002;E0.6333;N49.6000;13;
3;FRA;Haute-Normandie;Seine-Maritime;Ambourville 76003=76020;E0.9333;N49.4667;13;
3;FRA;Haute-Normandie;Seine-Maritime;Ambrumesnil 76004;E1.0000;N49.8667;13;
3;FRA;Haute-Normandie;Seine-Maritime;Amfreville-la-Mi-Voie 76005;E1.1167;N49.4000;13;
3;FRA;Haute-Normandie;Seine-Maritime;Amfreville-les-Champs 76006;E0.8167;N49.7000;13;
3;FRA;Haute-Normandie;Seine-Maritime;Anceaumeville 76007;E1.0500;N49.5833;13;
3;FRA;Haute-Normandie;Seine-Maritime;Ancourt 76008;E1.1833;N49.9000;13;
3;FRA;Haute-Normandie;Seine-Maritime;Ancourteville-sur-Héricourt 76009;E0.6608;N49.6964;13;
3;FRA;Haute-Normandie;Seine-Maritime;Ancretiéville-Saint-Victor 76010;E0.9697;N49.6528;13;
3;FRA;Haute-Normandie;Seine-Maritime;Ancretteville-sur-Mer 76011;E0.5167;N49.7833;13;
3;FRA;Haute-Normandie;Seine-Maritime;Angerville-Bailleul 76012;E0.4500;N49.6667;13;
3;FRA;Haute-Normandie;Seine-Maritime;Angerville-l'Orcher 76014;E0.2833;N49.5833;13;
3;FRA;Haute-Normandie;Seine-Maritime;Angerville-la-Martel 76013;E0.5000;N49.7667;13;
3;FRA;Haute-Normandie;Seine-Maritime;Angiens 76015;E0.7833;N49.8333;13;
3;FRA;Haute-Normandie;Seine-Maritime;Anglesqueville-l'Esneval 76017;E0.2333;N49.6333;13;
3;FRA;Haute-Normandie;Seine-Maritime;Anglesqueville-la-Bras-Long 76016;E0.7821;N49.7806;13;
3;FRA;Haute-Normandie;Seine-Maritime;Anneville-Ambourville 76020;E0.8833;N49.4667;13;
3;FRA;Haute-Normandie;Seine-Maritime;Anneville-sur-Scie 76019;E1.0833;N49.8333;13;
3;FRA;Haute-Normandie;Seine-Maritime;Annouville-Vilmesnil 76021;E0.4333;N49.6833;13;
3;FRA;Haute-Normandie;Seine-Maritime;Anquetierville 76022;E0.6333;N49.5333;13;
3;FRA;Haute-Normandie;Seine-Maritime;Anvéville 76023;E0.7333;N49.7000;13;
3;FRA;Haute-Normandie;Seine-Maritime;Ardouval 76024;E1.2667;N49.7500;13;
3;FRA;Haute-Normandie;Seine-Maritime;Argueil 76025;E1.5167;N49.5333;13;
3;FRA;Haute-Normandie;Seine-Maritime;Arques-la-Bataille 76026;E1.1333;N49.8833;13;
3;FRA;Haute-Normandie;Seine-Maritime;Assigny 76027;E1.3000;N49.9833;13;
3;FRA;Haute-Normandie;Seine-Maritime;Aubéguimont 76028;E1.6667;N49.8000;13;
3;FRA;Haute-Normandie;Seine-Maritime;Aubermesnil-aux-Érables 76029;E1.5676;N49.8268;13;
3;FRA;Haute-Normandie;Seine-Maritime;Aubermesnil-Beaumais 76030;E1.1167;N49.8500;13;
3;FRA;Haute-Normandie;Seine-Maritime;Auberville-la-Campagne 76031;E0.6000;N49.5333;13;
3;FRA;Haute-Normandie;Seine-Maritime;Auberville-la-Manuel 76032;E0.5833;N49.8333;13;
3;FRA;Haute-Normandie;Seine-Maritime;Auberville-la-Renault 76033;E0.3667;N49.6833;13;
3;FRA;Haute-Normandie;Seine-Maritime;Auffay 76034;E1.1001;N49.7192;13;
3;FRA;Haute-Normandie;Seine-Maritime;Aumale 76035;E1.7500;N49.7667;13;
3;FRA;Haute-Normandie;Seine-Maritime;Auppegard 76036;E1.0333;N49.8333;13;
3;FRA;Haute-Normandie;Seine-Maritime;Auquemesnil 76037;E1.3333;N49.9500;13;
3;FRA;Haute-Normandie;Seine-Maritime;Authieux-Ratiéville 76038;E1.1500;N49.6000;13;
3;FRA;Haute-Normandie;Seine-Maritime;Autigny 76040;E0.8667;N49.8000;13;
3;FRA;Haute-Normandie;Seine-Maritime;Autretot 76041;E0.7333;N49.6500;13;
3;FRA;Haute-Normandie;Seine-Maritime;Auvilliers 76042;E1.5833;N49.7667;13;
3;FRA;Haute-Normandie;Seine-Maritime;Auzebosc 76043;E0.7333;N49.6000;13;
3;FRA;Haute-Normandie;Seine-Maritime;Auzouville-Auberbosc 76044;E0.5667;N49.6333;13;
3;FRA;Haute-Normandie;Seine-Maritime;Auzouville-l'Esneval 76045;E0.8833;N49.6333;13;
3;FRA;Haute-Normandie;Seine-Maritime;Auzouville-sur-Ry 76046;E1.3167;N49.4333;13;
3;FRA;Haute-Normandie;Seine-Maritime;Auzouville-sur-Saâne 76047;E0.9333;N49.7500;13;
3;FRA;Haute-Normandie;Seine-Maritime;Avesnes-en-Bray 76048;E1.6667;N49.4667;13;
3;FRA;Haute-Normandie;Seine-Maritime;Avesnes-en-Val 76049;E1.4000;N49.9167;13;
3;FRA;Haute-Normandie;Seine-Maritime;Avremesnil 76050;E0.9333;N49.8500;13;
3;FRA;Haute-Normandie;Seine-Maritime;Bacqueville-en-Caux 76051;E1.0000;N49.7833;13;
3;FRA;Haute-Normandie;Seine-Maritime;Bailleul-Neuville 76052;E1.4167;N49.8000;13;
3;FRA;Haute-Normandie;Seine-Maritime;Baillolet 76053;E1.4333;N49.8000;13;
3;FRA;Haute-Normandie;Seine-Maritime;Bailly-en-Rivière 76054;E1.3500;N49.9167;13;
3;FRA;Haute-Normandie;Seine-Maritime;Baons-le-Comte 76055;E0.7833;N49.6500;13;
3;FRA;Haute-Normandie;Seine-Maritime;Bardouville 76056;E0.9333;N49.4333;13;
3;FRA;Haute-Normandie;Seine-Maritime;Barentin 76057;E0.9500;N49.5500;13;
3;FRA;Haute-Normandie;Seine-Maritime;Baromesnil 76058;E1.4167;N49.9833;13;
3;FRA;Haute-Normandie;Seine-Maritime;Bazinval 76059;E1.5500;N49.9667;13;
3;FRA;Haute-Normandie;Seine-Maritime;Beaubec-la-Rosière 76060;E1.5333;N49.6500;13;
3;FRA;Haute-Normandie;Seine-Maritime;Beaufresne 76061=76344;E1.6757;N49.7184;13;
3;FRA;Haute-Normandie;Seine-Maritime;Beaumont-le-Hareng 76062;E1.2167;N49.6667;13;
3;FRA;Haute-Normandie;Seine-Maritime;Beaurepaire 76064;E0.2167;N49.6667;13;
3;FRA;Haute-Normandie;Seine-Maritime;Beaussault 76065;E1.5667;N49.6833;13;
3;FRA;Haute-Normandie;Seine-Maritime;Beautot 76066;E1.0373;N49.6429;13;
3;FRA;Haute-Normandie;Seine-Maritime;Beauval-en-Caux 76063;E1.0191;N49.7444;13;
3;FRA;Haute-Normandie;Seine-Maritime;Beauvoir-en-Lyons 76067;E1.5833;N49.5000;13;
3;FRA;Haute-Normandie;Seine-Maritime;Bec-de-Mortagne 76068;E0.4500;N49.7000;13;
3;FRA;Haute-Normandie;Seine-Maritime;Belbeuf 76069;E1.1500;N49.4000;13;
3;FRA;Haute-Normandie;Seine-Maritime;Bellencombre 76070;E1.2333;N49.7000;13;
3;FRA;Haute-Normandie;Seine-Maritime;Bellengreville 76071;E1.2167;N49.9000;13;
3;FRA;Haute-Normandie;Seine-Maritime;Belleville-en-Caux 76072;E0.9833;N49.7000;13;
3;FRA;Haute-Normandie;Seine-Maritime;Belleville-sur-Mer 76073;E1.1667;N49.9500;13;
3;FRA;Haute-Normandie;Seine-Maritime;Belmesnil 76075;E1.0500;N49.7667;13;
3;FRA;Haute-Normandie;Seine-Maritime;Bénarville 76076;E0.5000;N49.6667;13;
3;FRA;Haute-Normandie;Seine-Maritime;Bénesville 76077;E0.8333;N49.7500;13;
3;FRA;Haute-Normandie;Seine-Maritime;Bennetot 76078;E0.5500;N49.6667;13;
3;FRA;Haute-Normandie;Seine-Maritime;Bénouville 76079;E0.2500;N49.7167;13;
3;FRA;Haute-Normandie;Seine-Maritime;Bermonville 76080;E0.6333;N49.6333;13;
3;FRA;Haute-Normandie;Seine-Maritime;Berneval-le-Grand 76081;E1.1833;N49.9667;13;
3;FRA;Haute-Normandie;Seine-Maritime;Bernières 76082;E0.4833;N49.6167;13;
3;FRA;Haute-Normandie;Seine-Maritime;Bertheauville 76083;E0.6500;N49.8500;13;
3;FRA;Haute-Normandie;Seine-Maritime;Bertreville 76084;E0.5833;N49.7667;13;
3;FRA;Haute-Normandie;Seine-Maritime;Bertreville-Saint-Ouen 76085;E1.0500;N49.8000;13;
3;FRA;Haute-Normandie;Seine-Maritime;Bertrimont 76086;E1.0000;N49.6667;13;
3;FRA;Haute-Normandie;Seine-Maritime;Berville 76087;E0.8333;N49.7167;13;
3;FRA;Haute-Normandie;Seine-Maritime;Berville-sur-Seine 76088;E0.9000;N49.4667;13;
3;FRA;Haute-Normandie;Seine-Maritime;Betteville 76089;E0.8000;N49.5500;13;
3;FRA;Haute-Normandie;Seine-Maritime;Beuzeville-la-Grenier 76090;E0.4333;N49.6000;13;
3;FRA;Haute-Normandie;Seine-Maritime;Beuzeville-la-Guérard 76091;E0.6167;N49.7167;13;
3;FRA;Haute-Normandie;Seine-Maritime;Beuzevillette 76092;E0.5333;N49.5667;13;
3;FRA;Haute-Normandie;Seine-Maritime;Bézancourt 76093;E1.6333;N49.4500;13;
3;FRA;Haute-Normandie;Seine-Maritime;Bierville 76094;E1.2667;N49.5333;13;
3;FRA;Haute-Normandie;Seine-Maritime;Bihorel 76095;E1.1167;N49.4667;13;
3;FRA;Haute-Normandie;Seine-Maritime;Biville-la-Baignarde 76096;E1.0500;N49.7167;13;
3;FRA;Haute-Normandie;Seine-Maritime;Biville-la-Rivière 76097;E0.9333;N49.7833;13;
3;FRA;Haute-Normandie;Seine-Maritime;Biville-sur-Mer 76098;E1.2667;N49.9833;13;
3;FRA;Haute-Normandie;Seine-Maritime;Blacqueville 76099;E0.8667;N49.5667;13;
3;FRA;Haute-Normandie;Seine-Maritime;Blainville-Crevon 76100;E1.3000;N49.5000;13;
3;FRA;Haute-Normandie;Seine-Maritime;Blangy-sur-Bresle 76101;E1.6333;N49.9333;13;
3;FRA;Haute-Normandie;Seine-Maritime;Bléville 76102=76351;E0.0965;N49.5177;13;
3;FRA;Haute-Normandie;Seine-Maritime;Blosseville 76104;E0.8000;N49.8500;13;
3;FRA;Haute-Normandie;Seine-Maritime;Bois-d'Ennebourg 76106;E1.2500;N49.4333;13;
3;FRA;Haute-Normandie;Seine-Maritime;Bois-Guilbert 76107;E1.4167;N49.5500;13;
3;FRA;Haute-Normandie;Seine-Maritime;Bois-Guillaume 76108;E1.1333;N49.4667;13;
3;FRA;Haute-Normandie;Seine-Maritime;Bois-Héroult 76109;E1.4000;N49.5667;13;
3;FRA;Haute-Normandie;Seine-Maritime;Bois-Himont 76110;E0.7000;N49.5833;13;
3;FRA;Haute-Normandie;Seine-Maritime;Bois-l'Évêque 76111;E1.2667;N49.4500;13;
3;FRA;Haute-Normandie;Seine-Maritime;Boissay 76113;E1.3578;N49.5204;13;
3;FRA;Haute-Normandie;Seine-Maritime;Bolbec 76114;E0.4833;N49.5667;13;
3;FRA;Haute-Normandie;Seine-Maritime;Bolleville 76115;E0.5667;N49.6000;13;
3;FRA;Haute-Normandie;Seine-Maritime;Bonsecours 76103;E1.1333;N49.4333;13;
3;FRA;Haute-Normandie;Seine-Maritime;Boos 76116;E1.2000;N49.3833;13;
3;FRA;Haute-Normandie;Seine-Maritime;Bordeaux-Saint-Clair 76117;E0.2500;N49.7000;13;
3;FRA;Haute-Normandie;Seine-Maritime;Bornambusc 76118;E0.3500;N49.6333;13;
3;FRA;Haute-Normandie;Seine-Maritime;Bosc-Bérenger 76119;E1.2500;N49.6333;13;
3;FRA;Haute-Normandie;Seine-Maritime;Bosc-Bordel 76120;E1.4167;N49.6000;13;
3;FRA;Haute-Normandie;Seine-Maritime;Bosc-Édeline 76121;E1.4333;N49.5667;13;
3;FRA;Haute-Normandie;Seine-Maritime;Bosc-Guérard-Saint-Adrien 76123;E1.1167;N49.5500;13;
3;FRA;Haute-Normandie;Seine-Maritime;Bosc-Hyons 76124;E1.6667;N49.4500;13;
3;FRA;Haute-Normandie;Seine-Maritime;Bosc-le-Hard 76125;E1.1833;N49.6333;13;
3;FRA;Haute-Normandie;Seine-Maritime;Bosc-Mesnil 76126;E1.3500;N49.6667;13;
3;FRA;Haute-Normandie;Seine-Maritime;Bosc-Roger-sur-Buchy 76127;E1.3667;N49.5833;13;
3;FRA;Haute-Normandie;Seine-Maritime;Bosville 76128;E0.6833;N49.7500;13;
3;FRA;Haute-Normandie;Seine-Maritime;Boudeville 76129;E0.8833;N49.7167;13;
3;FRA;Haute-Normandie;Seine-Maritime;Bouelles 76130;E1.5000;N49.7167;13;
3;FRA;Haute-Normandie;Seine-Maritime;Bourdainville 76132;E0.9500;N49.6667;13;
3;FRA;Haute-Normandie;Seine-Maritime;Bourville 76134;E0.8167;N49.8000;13;
3;FRA;Haute-Normandie;Seine-Maritime;Bouville 76135;E0.9000;N49.5667;13;
3;FRA;Haute-Normandie;Seine-Maritime;Brachy 76136;E0.9500;N49.8167;13;
3;FRA;Haute-Normandie;Seine-Maritime;Bracquemont 76137;E1.1500;N49.9500;13;
3;FRA;Haute-Normandie;Seine-Maritime;Bracquetuit 76138;E1.1667;N49.6667;13;
3;FRA;Haute-Normandie;Seine-Maritime;Bradiancourt 76139;E1.3833;N49.6667;13;
3;FRA;Haute-Normandie;Seine-Maritime;Brametot 76140;E0.8667;N49.7833;13;
3;FRA;Haute-Normandie;Seine-Maritime;Bréauté 76141;E0.4000;N49.6333;13;
3;FRA;Haute-Normandie;Seine-Maritime;Brémontier-Merval 76142;E1.6167;N49.5000;13;
3;FRA;Haute-Normandie;Seine-Maritime;Bretteville-du-Grand-Caux 76143;E0.3912;N49.6640;13;
3;FRA;Haute-Normandie;Seine-Maritime;Bretteville-Saint-Laurent 76144;E0.8761;N49.7623;13;
3;FRA;Haute-Normandie;Seine-Maritime;Brunville 76145;E1.2667;N49.9667;13;
3;FRA;Haute-Normandie;Seine-Maritime;Buchy 76146;E1.3667;N49.5833;13;
3;FRA;Haute-Normandie;Seine-Maritime;Bully 76147;E1.3667;N49.7333;13;
3;FRA;Haute-Normandie;Seine-Maritime;Bures-en-Bray 76148;E1.3333;N49.7833;13;
3;FRA;Haute-Normandie;Seine-Maritime;Butot 76149;E1.0333;N49.6167;13;
3;FRA;Haute-Normandie;Seine-Maritime;Butot-en-Caux 76150=76732;E0.6000;N49.8167;13;
3;FRA;Haute-Normandie;Seine-Maritime;Butot-Vénesville 76732;E0.5869;N49.8146;13;
3;FRA;Haute-Normandie;Seine-Maritime;Cailleville 76151;E0.7333;N49.8333;13;
3;FRA;Haute-Normandie;Seine-Maritime;Cailly 76152;E1.2333;N49.5833;13;
3;FRA;Haute-Normandie;Seine-Maritime;Callengeville 76122;E1.5204;N49.8118;13;
3;FRA;Haute-Normandie;Seine-Maritime;Calleville-les-Deux-Églises 76153;E1.0271;N49.7054;13;
3;FRA;Haute-Normandie;Seine-Maritime;Campneuseville 76154;E1.6667;N49.8667;13;
3;FRA;Haute-Normandie;Seine-Maritime;Canehan 76155;E1.3500;N49.9833;13;
3;FRA;Haute-Normandie;Seine-Maritime;Canouville 76156;E0.6000;N49.8000;13;
3;FRA;Haute-Normandie;Seine-Maritime;Canteleu 76157;E1.0333;N49.4500;13;
3;FRA;Haute-Normandie;Seine-Maritime;Canville-les-Deux-Églises 76158;E0.8333;N49.7667;13;
3;FRA;Haute-Normandie;Seine-Maritime;Cany-Barville 76159;E0.6333;N49.7833;13;
3;FRA;Haute-Normandie;Seine-Maritime;Carville-la-Folletière 76160;E0.8167;N49.5667;13;
3;FRA;Haute-Normandie;Seine-Maritime;Carville-Pot-de-Fer 76161;E0.7167;N49.7167;13;
3;FRA;Haute-Normandie;Seine-Maritime;Catenay 76163;E1.3333;N49.5167;13;
3;FRA;Haute-Normandie;Seine-Maritime;Caudebec-en-Caux 76164;E0.7333;N49.5333;13;
3;FRA;Haute-Normandie;Seine-Maritime;Caudebec-lès-Elbeuf 76165;E1.0333;N49.2833;13;
3;FRA;Haute-Normandie;Seine-Maritime;Cauville-sur-Mer 76167;E0.1333;N49.6000;13;
3;FRA;Haute-Normandie;Seine-Maritime;Cideville 76174;E0.9000;N49.6167;13;
3;FRA;Haute-Normandie;Seine-Maritime;Clais 76175;E1.4500;N49.8000;13;
3;FRA;Haute-Normandie;Seine-Maritime;Clasville 76176;E0.6167;N49.8000;13;
3;FRA;Haute-Normandie;Seine-Maritime;Claville-Motteville 76177;E1.2000;N49.6000;13;
3;FRA;Haute-Normandie;Seine-Maritime;Cléon 76178;E1.0333;N49.3167;13;
3;FRA;Haute-Normandie;Seine-Maritime;Clères 76179;E1.1167;N49.6000;13;
3;FRA;Haute-Normandie;Seine-Maritime;Cleuville 76180;E0.6333;N49.7167;13;
3;FRA;Haute-Normandie;Seine-Maritime;Cléville 76181;E0.6167;N49.6167;13;
3;FRA;Haute-Normandie;Seine-Maritime;Cliponville 76182;E0.6667;N49.6833;13;
3;FRA;Haute-Normandie;Seine-Maritime;Colleville 76183;E0.4667;N49.7500;13;
3;FRA;Haute-Normandie;Seine-Maritime;Colmesnil-Manneville 76184;E1.0333;N49.8500;13;
3;FRA;Haute-Normandie;Seine-Maritime;Compainville 76185;E1.5667;N49.6667;13;
3;FRA;Haute-Normandie;Seine-Maritime;Conteville 76186;E1.6359;N49.6928;13;
3;FRA;Haute-Normandie;Seine-Maritime;Contremoulins 76187;E0.4333;N49.7333;13;
3;FRA;Haute-Normandie;Seine-Maritime;Cottévrard 76188;E1.2167;N49.6333;13;
3;FRA;Haute-Normandie;Seine-Maritime;Crasville-la-Mallet 76189;E0.7167;N49.8000;13;
3;FRA;Haute-Normandie;Seine-Maritime;Crasville-la-Rocquefort 76190;E0.8667;N49.8000;13;
3;FRA;Haute-Normandie;Seine-Maritime;Cressy 76191;E1.1667;N49.7167;13;
3;FRA;Haute-Normandie;Seine-Maritime;Criel-sur-Mer 76192;E1.3167;N50.0167;13;
3;FRA;Haute-Normandie;Seine-Maritime;Criquebeuf-en-Caux 76194;E0.3333;N49.7333;13;
3;FRA;Haute-Normandie;Seine-Maritime;Criquetot-l'Esneval 76196;E0.2667;N49.6500;13;
3;FRA;Haute-Normandie;Seine-Maritime;Criquetot-le-Mauconduit 76195;E0.5667;N49.8000;13;
3;FRA;Haute-Normandie;Seine-Maritime;Criquetot-sur-Longueville 76197;E1.0833;N49.7833;13;
3;FRA;Haute-Normandie;Seine-Maritime;Criquetot-sur-Ouville 76198;E0.8500;N49.6833;13;
3;FRA;Haute-Normandie;Seine-Maritime;Criquiers 76199;E1.7000;N49.6833;13;
3;FRA;Haute-Normandie;Seine-Maritime;Critot 76200;E1.2500;N49.6167;13;
3;FRA;Haute-Normandie;Seine-Maritime;Croisy-sur-Andelle 76201;E1.3951;N49.4601;13;
3;FRA;Haute-Normandie;Seine-Maritime;Croix-Mare 76203;E0.8500;N49.6000;13;
3;FRA;Haute-Normandie;Seine-Maritime;Croixdalle 76202;E1.3667;N49.8167;13;
3;FRA;Haute-Normandie;Seine-Maritime;Cropus 76204;E1.1500;N49.7333;13;
3;FRA;Haute-Normandie;Seine-Maritime;Crosville-sur-Scie 76205;E1.0833;N49.8167;13;
3;FRA;Haute-Normandie;Seine-Maritime;Cuverville 76206;E0.2628;N49.6640;13;
3;FRA;Haute-Normandie;Seine-Maritime;Cuverville-sur-Yères 76207;E1.4000;N49.9583;13;
3;FRA;Haute-Normandie;Seine-Maritime;Cuy-Saint-Fiacre 76208;E1.7000;N49.5167;13;
3;FRA;Haute-Normandie;Seine-Maritime;Dampierre-en-Bray 76209;E1.2000;N49.8667;13;
3;FRA;Haute-Normandie;Seine-Maritime;Dampierre-Saint-Nicolas 76210;E1.2002;N49.8604;13;
3;FRA;Haute-Normandie;Seine-Maritime;Dancourt 76211;E1.5500;N49.9000;13;
3;FRA;Haute-Normandie;Seine-Maritime;Darnétal 76212;E1.1500;N49.4500;13;
3;FRA;Haute-Normandie;Seine-Maritime;Daubeuf-Serville 76213;E0.4833;N49.7000;13;
3;FRA;Haute-Normandie;Seine-Maritime;Dénestanville 76214;E1.0833;N49.8167;13;
3;FRA;Haute-Normandie;Seine-Maritime;Derchigny 76215;E1.2167;N49.9333;13;
3;FRA;Haute-Normandie;Seine-Maritime;Déville-lès-Rouen 76216;E1.0333;N49.4667;13;
3;FRA;Haute-Normandie;Seine-Maritime;Dieppe 76217;E1.0833;N49.9333;13;
3;FRA;Haute-Normandie;Seine-Maritime;Doudeauville 76218;E1.7041;N49.5704;13;
3;FRA;Haute-Normandie;Seine-Maritime;Doudeville 76219;E0.8000;N49.7167;13;
3;FRA;Haute-Normandie;Seine-Maritime;Douvrend 76220;E1.3167;N49.8667;13;
3;FRA;Haute-Normandie;Seine-Maritime;Drosay 76221;E0.7333;N49.8000;13;
3;FRA;Haute-Normandie;Seine-Maritime;Duclair 76222;E0.8833;N49.4833;13;
3;FRA;Haute-Normandie;Seine-Maritime;Écalles-Alix 76223;E0.8333;N49.6167;13;
3;FRA;Haute-Normandie;Seine-Maritime;Écrainville 76224;E0.3333;N49.6500;13;
3;FRA;Haute-Normandie;Seine-Maritime;Écretteville-lès-Baons 76225;E0.6667;N49.6333;13;
3;FRA;Haute-Normandie;Seine-Maritime;Écretteville-sur-Mer 76226;E0.4833;N49.8000;13;
3;FRA;Haute-Normandie;Seine-Maritime;Ectot-l'Auber 76227;E0.9333;N49.6500;13;
3;FRA;Haute-Normandie;Seine-Maritime;Ectot-lès-Baons 76228;E0.8000;N49.6500;13;
3;FRA;Haute-Normandie;Seine-Maritime;Elbeuf 76231;E1.0000;N49.2833;13;
3;FRA;Haute-Normandie;Seine-Maritime;Elbeuf-en-Bray 76229;E1.6500;N49.4833;13;
3;FRA;Haute-Normandie;Seine-Maritime;Elbeuf-sur-Andelle 76230;E1.4000;N49.4667;13;
3;FRA;Haute-Normandie;Seine-Maritime;Életot 76232;E0.4500;N49.7833;13;
3;FRA;Haute-Normandie;Seine-Maritime;Ellecourt 76233;E1.7167;N49.8000;13;
3;FRA;Haute-Normandie;Seine-Maritime;Émanville 76234;E0.9667;N49.6167;13;
3;FRA;Haute-Normandie;Seine-Maritime;Envermeu 76235;E1.2667;N49.9000;13;
3;FRA;Haute-Normandie;Seine-Maritime;Envronville 76236;E0.6667;N49.6667;13;
3;FRA;Haute-Normandie;Seine-Maritime;Épinay-sur-Duclair 76237;E0.8500;N49.5333;13;
3;FRA;Haute-Normandie;Seine-Maritime;Épouville 76238;E0.2167;N49.5667;13;
3;FRA;Haute-Normandie;Seine-Maritime;Épretot 76239;E0.3167;N49.5333;13;
3;FRA;Haute-Normandie;Seine-Maritime;Épreville 76240;E0.3667;N49.7000;13;
3;FRA;Haute-Normandie;Seine-Maritime;Ermenouville 76241;E0.7833;N49.8000;13;
3;FRA;Haute-Normandie;Seine-Maritime;Ernemont-la-Villette 76242;E1.6971;N49.4614;13;
3;FRA;Haute-Normandie;Seine-Maritime;Ernemont-sur-Buchy 76243;E1.3667;N49.5333;13;
3;FRA;Haute-Normandie;Seine-Maritime;Esclavelles 76244;E1.3833;N49.7000;13;
3;FRA;Haute-Normandie;Seine-Maritime;Eslettes 76245;E1.0500;N49.5500;13;
3;FRA;Haute-Normandie;Seine-Maritime;Esteville 76247;E1.2333;N49.6000;13;
3;FRA;Haute-Normandie;Seine-Maritime;Estouteville-Écalles 76248;E1.3167;N49.5833;13;
3;FRA;Haute-Normandie;Seine-Maritime;Étaimpuis 76249;E1.1333;N49.6500;13;
3;FRA;Haute-Normandie;Seine-Maritime;Étainhus 76250;E0.3167;N49.5667;13;
3;FRA;Haute-Normandie;Seine-Maritime;Étalleville 76251;E0.8333;N49.7333;13;
3;FRA;Haute-Normandie;Seine-Maritime;Étalondes 76252;E1.3833;N50.0333;13;
3;FRA;Haute-Normandie;Seine-Maritime;Étoutteville 76253;E0.7833;N49.6667;13;
3;FRA;Haute-Normandie;Seine-Maritime;Étretat 76254;E0.2000;N49.7000;13;
3;FRA;Haute-Normandie;Seine-Maritime;Eu 76255;E1.4167;N50.0500;13;
3;FRA;Haute-Normandie;Seine-Maritime;Eurville 76256=76018;E0.9675;N49.7183;13;
3;FRA;Haute-Normandie;Seine-Maritime;Fallencourt 76257;E1.5667;N49.8667;13;
3;FRA;Haute-Normandie;Seine-Maritime;Fauville-en-Caux 76258;E0.5833;N49.6500;13;
3;FRA;Haute-Normandie;Seine-Maritime;Fécamp 76259;E0.3667;N49.7500;13;
3;FRA;Haute-Normandie;Seine-Maritime;Ferrières-en-Bray 76260;E1.7500;N49.4833;13;
3;FRA;Haute-Normandie;Seine-Maritime;Fesques 76262;E1.4833;N49.7833;13;
3;FRA;Haute-Normandie;Seine-Maritime;Flamanville 76264;E0.8333;N49.6333;13;
3;FRA;Haute-Normandie;Seine-Maritime;Flamets-Frétils 76265;E1.6000;N49.7333;13;
3;FRA;Haute-Normandie;Seine-Maritime;Flocques 76266;E1.3667;N50.0333;13;
3;FRA;Haute-Normandie;Seine-Maritime;Fongueusemare 76268;E0.3000;N49.6833;13;
3;FRA;Haute-Normandie;Seine-Maritime;Fontaine-en-Bray 76269;E1.4167;N49.6833;13;
3;FRA;Haute-Normandie;Seine-Maritime;Fontaine-la-Mallet 76270;E0.1500;N49.5333;13;
3;FRA;Haute-Normandie;Seine-Maritime;Fontaine-le-Bourg 76271;E1.1667;N49.5667;13;
3;FRA;Haute-Normandie;Seine-Maritime;Fontaine-le-Dun 76272;E0.8500;N49.8167;13;
3;FRA;Haute-Normandie;Seine-Maritime;Fontaine-sous-Préaux 76273;E1.1833;N49.4833;13;
3;FRA;Haute-Normandie;Seine-Maritime;Fontenay 76275;E0.1839;N49.5629;13;
3;FRA;Haute-Normandie;Seine-Maritime;Forges-les-Eaux 76276;E1.5500;N49.6167;13;
3;FRA;Haute-Normandie;Seine-Maritime;Foucarmont 76278;E1.5667;N49.8500;13;
3;FRA;Haute-Normandie;Seine-Maritime;Foucart 76279;E0.6000;N49.6167;13;
3;FRA;Haute-Normandie;Seine-Maritime;Franqueville-Saint-Pierre 76475;E1.1748;N49.3990;13;
3;FRA;Haute-Normandie;Seine-Maritime;Fréauville 76280;E1.4167;N49.8333;13;
3;FRA;Haute-Normandie;Seine-Maritime;Freneuse 76282;E1.0833;N49.3167;13;
3;FRA;Haute-Normandie;Seine-Maritime;Fresles 76283;E1.3500;N49.7500;13;
3;FRA;Haute-Normandie;Seine-Maritime;Fresnay-le-Long 76284;E1.1000;N49.6500;13;
3;FRA;Haute-Normandie;Seine-Maritime;Fresne-le-Plan 76285;E1.3000;N49.4167;13;
3;FRA;Haute-Normandie;Seine-Maritime;Fresnoy-Folny 76286;E1.4333;N49.8833;13;
3;FRA;Haute-Normandie;Seine-Maritime;Fresquiennes 76287;E1.0046;N49.5639;13;
3;FRA;Haute-Normandie;Seine-Maritime;Freulleville 76288;E1.2333;N49.8333;13;
3;FRA;Haute-Normandie;Seine-Maritime;Fréville 76289;E0.8333;N49.5667;13;
3;FRA;Haute-Normandie;Seine-Maritime;Frichemesnil 76290;E1.1333;N49.6167;13;
3;FRA;Haute-Normandie;Seine-Maritime;Froberville 76291;E0.3333;N49.7167;13;
3;FRA;Haute-Normandie;Seine-Maritime;Fry 76292;E1.5333;N49.5333;13;
3;FRA;Haute-Normandie;Seine-Maritime;Fultot 76293;E0.8000;N49.7500;13;
3;FRA;Haute-Normandie;Seine-Maritime;Gaillefontaine 76295;E1.6167;N49.6500;13;
3;FRA;Haute-Normandie;Seine-Maritime;Gainneville 76296;E0.2500;N49.5167;13;
3;FRA;Haute-Normandie;Seine-Maritime;Gancourt-Saint-Étienne 76297;E1.7167;N49.5500;13;
3;FRA;Haute-Normandie;Seine-Maritime;Ganzeville 76298;E0.4167;N49.7333;13;
3;FRA;Haute-Normandie;Seine-Maritime;Gerponville 76299;E0.5667;N49.7500;13;
3;FRA;Haute-Normandie;Seine-Maritime;Gerville 76300;E0.3333;N49.7000;13;
3;FRA;Haute-Normandie;Seine-Maritime;Glicourt 76301;E1.2500;N49.9333;13;
3;FRA;Haute-Normandie;Seine-Maritime;Goderville 76302;E0.3667;N49.6500;13;
3;FRA;Haute-Normandie;Seine-Maritime;Gommerville 76303;E0.3667;N49.5500;13;
3;FRA;Haute-Normandie;Seine-Maritime;Gonfreville-Caillot 76304;E0.4333;N49.6500;13;
3;FRA;Haute-Normandie;Seine-Maritime;Gonfreville-l'Orcher 76305;E0.2333;N49.5000;13;
3;FRA;Haute-Normandie;Seine-Maritime;Gonnetot 76306;E0.9000;N49.7667;13;
3;FRA;Haute-Normandie;Seine-Maritime;Gonneville-la-Mallet 76307;E0.2167;N49.6333;13;
3;FRA;Haute-Normandie;Seine-Maritime;Gonneville-sur-Scie 76308;E1.0833;N49.7500;13;
3;FRA;Haute-Normandie;Seine-Maritime;Gonzeville 76309;E0.8167;N49.7667;13;
3;FRA;Haute-Normandie;Seine-Maritime;Gouchaupre 76310;E1.3000;N49.9333;13;
3;FRA;Haute-Normandie;Seine-Maritime;Goupillières 76311;E0.9833;N49.5833;13;
3;FRA;Haute-Normandie;Seine-Maritime;Gournay-en-Bray 76312;E1.7333;N49.4833;13;
3;FRA;Haute-Normandie;Seine-Maritime;Gouy 76313;E1.1500;N49.3500;13;
3;FRA;Haute-Normandie;Seine-Maritime;Graimbouville 76314;E0.3333;N49.5833;13;
3;FRA;Haute-Normandie;Seine-Maritime;Grainville-la-Teinturière 76315;E0.6500;N49.7500;13;
3;FRA;Haute-Normandie;Seine-Maritime;Grainville-sur-Ry 76316;E1.3000;N49.4833;13;
3;FRA;Haute-Normandie;Seine-Maritime;Grainville-Ymauville 76317;E0.4167;N49.6667;13;
3;FRA;Haute-Normandie;Seine-Maritime;Grand-Camp 76318;E0.5917;N49.5583;13;
3;FRA;Haute-Normandie;Seine-Maritime;Grand-Couronne 76319;E1.0000;N49.3500;13;
3;FRA;Haute-Normandie;Seine-Maritime;Grandcourt 76320;E1.5000;N49.9167;13;
3;FRA;Haute-Normandie;Seine-Maritime;Graval 76323;E1.5500;N49.7333;13;
3;FRA;Haute-Normandie;Seine-Maritime;Grèges 76324;E1.1500;N49.9167;13;
3;FRA;Haute-Normandie;Seine-Maritime;Grémonville 76325;E0.8333;N49.6667;13;
3;FRA;Haute-Normandie;Seine-Maritime;Greny 76326;E1.3167;N49.9500;13;
3;FRA;Haute-Normandie;Seine-Maritime;Greuville 76327;E0.9167;N49.8167;13;
3;FRA;Haute-Normandie;Seine-Maritime;Grigneuseville 76328;E1.1833;N49.6500;13;
3;FRA;Haute-Normandie;Seine-Maritime;Gruchet-le-Valasse 76329;E0.4833;N49.5500;13;
3;FRA;Haute-Normandie;Seine-Maritime;Gruchet-Saint-Siméon 76330;E0.9000;N49.8167;13;
3;FRA;Haute-Normandie;Seine-Maritime;Grugny 76331;E1.1167;N49.6167;13;
3;FRA;Haute-Normandie;Seine-Maritime;Grumesnil 76332;E1.6833;N49.6167;13;
3;FRA;Haute-Normandie;Seine-Maritime;Guerville 76333;E1.5167;N49.9667;13;
3;FRA;Haute-Normandie;Seine-Maritime;Gueures 76334;E0.9667;N49.8333;13;
3;FRA;Haute-Normandie;Seine-Maritime;Gueutteville 76335;E1.0000;N49.6500;13;
3;FRA;Haute-Normandie;Seine-Maritime;Gueutteville-les-Grès 76336;E0.7541;N49.8405;13;
3;FRA;Haute-Normandie;Seine-Maritime;Guilmécourt 76337;E1.3000;N49.9667;13;
3;FRA;Haute-Normandie;Seine-Maritime;Harcanville 76340;E0.7167;N49.7167;13;
3;FRA;Haute-Normandie;Seine-Maritime;Harfleur 76341;E0.2000;N49.5000;13;
3;FRA;Haute-Normandie;Seine-Maritime;Hattenville 76342;E0.5333;N49.6500;13;
3;FRA;Haute-Normandie;Seine-Maritime;Haucourt 76343;E1.6667;N49.6333;13;
3;FRA;Haute-Normandie;Seine-Maritime;Haudricourt 76344;E1.7000;N49.7333;13;
3;FRA;Haute-Normandie;Seine-Maritime;Haussez 76345;E1.6667;N49.5833;13;
3;FRA;Haute-Normandie;Seine-Maritime;Hautot-l'Auvray 76346;E0.7500;N49.7667;13;
3;FRA;Haute-Normandie;Seine-Maritime;Hautot-le-Vatois 76347;E0.6833;N49.6500;13;
3;FRA;Haute-Normandie;Seine-Maritime;Hautot-Saint-Sulpice 76348;E0.7500;N49.6833;13;
3;FRA;Haute-Normandie;Seine-Maritime;Hautot-sur-Mer 76349;E1.0333;N49.9000;13;
3;FRA;Haute-Normandie;Seine-Maritime;Hautot-sur-Seine 76350;E0.9833;N49.3667;13;
3;FRA;Haute-Normandie;Seine-Maritime;Héberville 76353;E0.8000;N49.7667;13;
3;FRA;Haute-Normandie;Seine-Maritime;Hénouville 76354;E0.9667;N49.4833;13;
3;FRA;Haute-Normandie;Seine-Maritime;Héricourt-en-Caux 76355;E0.7000;N49.7000;13;
3;FRA;Haute-Normandie;Seine-Maritime;Hermanville 76356;E0.9833;N49.8167;13;
3;FRA;Haute-Normandie;Seine-Maritime;Hermeville 76357;E0.2667;N49.6000;13;
3;FRA;Haute-Normandie;Seine-Maritime;Héronchelles 76359;E1.3833;N49.5333;13;
3;FRA;Haute-Normandie;Seine-Maritime;Heugleville-sur-Scie 76360;E1.1000;N49.7333;13;
3;FRA;Haute-Normandie;Seine-Maritime;Heuqueville 76361;E0.1450;N49.6161;13;
3;FRA;Haute-Normandie;Seine-Maritime;Heurteauville 76362;E0.8167;N49.4500;13;
3;FRA;Haute-Normandie;Seine-Maritime;Hodeng-au-Bosc 76363;E1.7167;N49.8667;13;
3;FRA;Haute-Normandie;Seine-Maritime;Hodeng-Hodenger 76364;E1.5667;N49.5333;13;
3;FRA;Haute-Normandie;Seine-Maritime;Houdetot 76365;E0.8000;N49.8167;13;
3;FRA;Haute-Normandie;Seine-Maritime;Houppeville 76367;E1.0833;N49.5167;13;
3;FRA;Haute-Normandie;Seine-Maritime;Houquetot 76368;E0.3917;N49.6083;13;
3;FRA;Haute-Normandie;Seine-Maritime;Hugleville-en-Caux 76370;E0.9833;N49.6333;13;
3;FRA;Haute-Normandie;Seine-Maritime;Illois 76372;E1.6500;N49.7500;13;
3;FRA;Haute-Normandie;Seine-Maritime;Imbleville 76373;E0.9500;N49.7167;13;
3;FRA;Haute-Normandie;Seine-Maritime;Incheville 76374;E1.5000;N50.0167;13;
3;FRA;Haute-Normandie;Seine-Maritime;Ingouville 76375;E0.6833;N49.8333;13;
3;FRA;Haute-Normandie;Seine-Maritime;Intraville 76376;E1.2833;N49.9333;13;
3;FRA;Haute-Normandie;Seine-Maritime;Isneauville 76377;E1.1500;N49.5000;13;
3;FRA;Haute-Normandie;Seine-Maritime;Jumièges 76378;E0.8167;N49.4333;13;
3;FRA;Haute-Normandie;Seine-Maritime;La Bellière 76074;E1.6000;N49.6000;13;
3;FRA;Haute-Normandie;Seine-Maritime;La Bouille 76131;E0.9333;N49.3500;13;
3;FRA;Haute-Normandie;Seine-Maritime;La Cerlangue 76169;E0.4167;N49.5000;13;
3;FRA;Haute-Normandie;Seine-Maritime;La Chapelle-du-Bourgay 76170;E1.1500;N49.8167;13;
3;FRA;Haute-Normandie;Seine-Maritime;La Chapelle-Saint-Ouen 76171;E1.4354;N49.5372;13;
3;FRA;Haute-Normandie;Seine-Maritime;La Chapelle-sur-Dun 76172;E0.8500;N49.8667;13;
3;FRA;Haute-Normandie;Seine-Maritime;La Chaussée 76173;E1.1167;N49.8333;13;
3;FRA;Haute-Normandie;Seine-Maritime;La Crique 76193;E1.2000;N49.6833;13;
3;FRA;Haute-Normandie;Seine-Maritime;La Ferté-Saint-Samson 76261;E1.5333;N49.5833;13;
3;FRA;Haute-Normandie;Seine-Maritime;La Feuillie 76263;E1.5167;N49.4667;13;
3;FRA;Haute-Normandie;Seine-Maritime;La Folletière 76267;E0.8000;N49.5667;13;
3;FRA;Haute-Normandie;Seine-Maritime;La Fontelaye 76274;E0.9500;N49.6833;13;
3;FRA;Haute-Normandie;Seine-Maritime;La Frénaye 76281;E0.5750;N49.5250;13;
3;FRA;Haute-Normandie;Seine-Maritime;La Gaillarde 76294;E0.8667;N49.8333;13;
3;FRA;Haute-Normandie;Seine-Maritime;La Hallotière 76338;E1.4667;N49.5167;13;
3;FRA;Haute-Normandie;Seine-Maritime;La Haye 76352;E1.4355;N49.4648;13;
3;FRA;Haute-Normandie;Seine-Maritime;La Houssaye-Béranger 76369;E1.0837;N49.6326;13;
3;FRA;Haute-Normandie;Seine-Maritime;La Londe 76391;E0.9667;N49.3000;13;
3;FRA;Haute-Normandie;Seine-Maritime;La Mailleraye-sur-Seine 76401;E0.7667;N49.4833;13;
3;FRA;Haute-Normandie;Seine-Maritime;La Neuville-Chant-d'Oisel 76464;E1.2313;N49.3724;13;
3;FRA;Haute-Normandie;Seine-Maritime;La Poterie-Cap-d'Antifer 76508;E0.1833;N49.6667;13;
3;FRA;Haute-Normandie;Seine-Maritime;La Remuée 76522;E0.4000;N49.5333;13;
3;FRA;Haute-Normandie;Seine-Maritime;La Rue-Saint-Pierre 76547;E1.2500;N49.5667;13;
3;FRA;Haute-Normandie;Seine-Maritime;La Trinité-du-Mont 76712;E0.5500;N49.5500;13;
3;FRA;Haute-Normandie;Seine-Maritime;La Vaupalière 76728;E1.0167;N49.4833;13;
3;FRA;Haute-Normandie;Seine-Maritime;La Vieux-Rue 76740;E1.2500;N49.5000;13;
3;FRA;Haute-Normandie;Seine-Maritime;Lamberville 76379;E1.0000;N49.7667;13;
3;FRA;Haute-Normandie;Seine-Maritime;Lammerville 76380;E0.9833;N49.8000;13;
3;FRA;Haute-Normandie;Seine-Maritime;Landes-Vieilles-et-Neuves 76381;E1.6292;N49.7870;13;
3;FRA;Haute-Normandie;Seine-Maritime;Lanquetot 76382;E0.5333;N49.5833;13;
3;FRA;Haute-Normandie;Seine-Maritime;Le Bocasse 76105;E1.0813;N49.6082;13;
3;FRA;Haute-Normandie;Seine-Maritime;Le Bois-Robert 76112;E1.1500;N49.8333;13;
3;FRA;Haute-Normandie;Seine-Maritime;Le Bourg-Dun 76133;E0.9000;N49.8667;13;
3;FRA;Haute-Normandie;Seine-Maritime;Le Catelier 76162;E1.1500;N49.7500;13;
3;FRA;Haute-Normandie;Seine-Maritime;Le Caule-Sainte-Beuve 76166;E1.5833;N49.7667;13;
3;FRA;Haute-Normandie;Seine-Maritime;Le Fossé 76277;E1.5667;N49.6000;13;
3;FRA;Haute-Normandie;Seine-Maritime;Le Grand-Quevilly 76322;E1.0333;N49.4167;13;
3;FRA;Haute-Normandie;Seine-Maritime;Le Hanouard 76339;E0.6667;N49.7333;13;
3;FRA;Haute-Normandie;Seine-Maritime;Le Havre 76351;E0.1333;N49.5000;13;
3;FRA;Haute-Normandie;Seine-Maritime;Le Héron 76358;E1.4000;N49.4833;13;
3;FRA;Haute-Normandie;Seine-Maritime;Le Houlme 76366;E1.0333;N49.5167;13;
3;FRA;Haute-Normandie;Seine-Maritime;Le Mesnil-Durdent 76428;E0.7667;N49.8167;13;
3;FRA;Haute-Normandie;Seine-Maritime;Le Mesnil-Esnard 76429;E1.1500;N49.4167;13;
3;FRA;Haute-Normandie;Seine-Maritime;Le Mesnil-Lieubray 76431;E1.5167;N49.5000;13;
3;FRA;Haute-Normandie;Seine-Maritime;Le Mesnil-Réaume 76435;E1.4500;N49.9667;13;
3;FRA;Haute-Normandie;Seine-Maritime;Le Mesnil-sous-Jumièges 76436;E0.8667;N49.4167;13;
3;FRA;Haute-Normandie;Seine-Maritime;Le Petit-Quevilly 76498;E1.0333;N49.4333;13;
3;FRA;Haute-Normandie;Seine-Maritime;Le Thil-Riberpré 76691;E1.5833;N49.6500;13;
3;FRA;Haute-Normandie;Seine-Maritime;Le Tilleul 76693;E0.2000;N49.6833;13;
3;FRA;Haute-Normandie;Seine-Maritime;Le Torp-Mesnil 76699;E0.9000;N49.7167;13;
3;FRA;Haute-Normandie;Seine-Maritime;Le Trait 76709;E0.8167;N49.4667;13;
3;FRA;Haute-Normandie;Seine-Maritime;Le Tréport 76711;E1.3667;N50.0667;13;
3;FRA;Haute-Normandie;Seine-Maritime;Les Authieux-sur-le-Port-Saint-Ouen 76039;E1.1336;N49.3410;13;
3;FRA;Haute-Normandie;Seine-Maritime;Les Cent-Acres 76168;E1.1500;N49.7667;13;
3;FRA;Haute-Normandie;Seine-Maritime;Les Essarts-Varimpré 76246=76122;E1.5167;N49.8167;13;
3;FRA;Haute-Normandie;Seine-Maritime;Les Grandes-Ventes 76321;E1.2333;N49.7833;13;
3;FRA;Haute-Normandie;Seine-Maritime;Les Ifs 76371;E1.4000;N49.8833;13;
3;FRA;Haute-Normandie;Seine-Maritime;Les Loges 76390;E0.2833;N49.7000;13;
3;FRA;Haute-Normandie;Seine-Maritime;Les Trois-Pierres 76714;E0.4167;N49.5500;13;
3;FRA;Haute-Normandie;Seine-Maritime;Lestanville 76383;E0.9667;N49.7500;13;
3;FRA;Haute-Normandie;Seine-Maritime;Lillebonne 76384;E0.5500;N49.5167;13;
3;FRA;Haute-Normandie;Seine-Maritime;Limésy 76385;E0.9333;N49.6167;13;
3;FRA;Haute-Normandie;Seine-Maritime;Limpiville 76386;E0.5000;N49.6833;13;
3;FRA;Haute-Normandie;Seine-Maritime;Lindebeuf 76387;E0.9167;N49.7000;13;
3;FRA;Haute-Normandie;Seine-Maritime;Lintot 76388;E0.5667;N49.5667;13;
3;FRA;Haute-Normandie;Seine-Maritime;Lintot-les-Bois 76389;E1.0667;N49.8000;13;
3;FRA;Haute-Normandie;Seine-Maritime;Londinières 76392;E1.4000;N49.8333;13;
3;FRA;Haute-Normandie;Seine-Maritime;Longmesnil 76393;E1.6167;N49.6167;13;
3;FRA;Haute-Normandie;Seine-Maritime;Longroy 76394;E1.5333;N49.9833;13;
3;FRA;Haute-Normandie;Seine-Maritime;Longueil 76395;E0.9667;N49.8833;13;
3;FRA;Haute-Normandie;Seine-Maritime;Longuerue 76396;E1.3000;N49.5500;13;
3;FRA;Haute-Normandie;Seine-Maritime;Longueville-sur-Scie 76397;E1.1000;N49.8000;13;
3;FRA;Haute-Normandie;Seine-Maritime;Louvetot 76398;E0.7138;N49.5709;13;
3;FRA;Haute-Normandie;Seine-Maritime;Lucy 76399;E1.4500;N49.7833;13;
3;FRA;Haute-Normandie;Seine-Maritime;Luneray 76400;E0.9167;N49.8333;13;
3;FRA;Haute-Normandie;Seine-Maritime;Malaunay 76402;E1.0333;N49.5333;13;
3;FRA;Haute-Normandie;Seine-Maritime;Malleville-les-Grès 76403;E0.6000;N49.8333;13;
3;FRA;Haute-Normandie;Seine-Maritime;Manéglise 76404;E0.2500;N49.5667;13;
3;FRA;Haute-Normandie;Seine-Maritime;Manéhouville 76405;E1.0833;N49.8333;13;
3;FRA;Haute-Normandie;Seine-Maritime;Maniquerville 76406;E0.3333;N49.7000;13;
3;FRA;Haute-Normandie;Seine-Maritime;Manneville-ès-Plains 76407;E0.7500;N49.8500;13;
3;FRA;Haute-Normandie;Seine-Maritime;Manneville-la-Goupil 76408;E0.3500;N49.6167;13;
3;FRA;Haute-Normandie;Seine-Maritime;Mannevillette 76409;E0.1833;N49.6000;13;
3;FRA;Haute-Normandie;Seine-Maritime;Maromme 76410;E1.0333;N49.4667;13;
3;FRA;Haute-Normandie;Seine-Maritime;Marques 76411;E1.7000;N49.7833;13;
3;FRA;Haute-Normandie;Seine-Maritime;Martainville-Épreville 76412;E1.2833;N49.4667;13;
3;FRA;Haute-Normandie;Seine-Maritime;Martigny 76413;E1.1500;N49.8667;13;
3;FRA;Haute-Normandie;Seine-Maritime;Martin-Église 76414;E1.1500;N49.9000;13;
3;FRA;Haute-Normandie;Seine-Maritime;Massy 76415;E1.4000;N49.6833;13;
3;FRA;Haute-Normandie;Seine-Maritime;Mathonville 76416;E1.3833;N49.6167;13;
3;FRA;Haute-Normandie;Seine-Maritime;Maucomble 76417;E1.3333;N49.6833;13;
3;FRA;Haute-Normandie;Seine-Maritime;Maulévrier-Sainte-Gertrude 76418;E0.7212;N49.5552;13;
3;FRA;Haute-Normandie;Seine-Maritime;Mauny 76419;E0.8833;N49.3833;13;
3;FRA;Haute-Normandie;Seine-Maritime;Mauquenchy 76420;E1.4667;N49.6000;13;
3;FRA;Haute-Normandie;Seine-Maritime;Mélamare 76421;E0.4500;N49.5333;13;
3;FRA;Haute-Normandie;Seine-Maritime;Melleville 76422;E1.4667;N49.9500;13;
3;FRA;Haute-Normandie;Seine-Maritime;Ménerval 76423;E1.6667;N49.5667;13;
3;FRA;Haute-Normandie;Seine-Maritime;Ménonval 76424;E1.5000;N49.7667;13;
3;FRA;Haute-Normandie;Seine-Maritime;Mentheville 76425;E0.4167;N49.7000;13;
3;FRA;Haute-Normandie;Seine-Maritime;Mésangueville 76426;E1.5667;N49.5500;13;
3;FRA;Haute-Normandie;Seine-Maritime;Mesnières-en-Bray 76427;E1.3833;N49.7667;13;
3;FRA;Haute-Normandie;Seine-Maritime;Mesnil-Follemprise 76430;E1.3000;N49.7833;13;
3;FRA;Haute-Normandie;Seine-Maritime;Mesnil-Mauger 76432;E1.5167;N49.6667;13;
3;FRA;Haute-Normandie;Seine-Maritime;Mesnil-Panneville 76433;E0.9000;N49.5833;13;
3;FRA;Haute-Normandie;Seine-Maritime;Mesnil-Raoul 76434;E1.2667;N49.4000;13;
3;FRA;Haute-Normandie;Seine-Maritime;Meulers 76437;E1.2167;N49.8500;13;
3;FRA;Haute-Normandie;Seine-Maritime;Millebosc 76438;E1.5000;N49.9667;13;
3;FRA;Haute-Normandie;Seine-Maritime;Mirville 76439;E0.4500;N49.6167;13;
3;FRA;Haute-Normandie;Seine-Maritime;Molagnies 76440;E1.7231;N49.5209;13;
3;FRA;Haute-Normandie;Seine-Maritime;Monchaux-Soreng 76441;E1.5833;N49.9500;13;
3;FRA;Haute-Normandie;Seine-Maritime;Monchy-sur-Eu 76442;E1.4500;N50.0000;13;
3;FRA;Haute-Normandie;Seine-Maritime;Mont-Cauvaire 76443;E1.1167;N49.5667;13;
3;FRA;Haute-Normandie;Seine-Maritime;Mont-de-l'If 76444;E0.8167;N49.5833;13;
3;FRA;Haute-Normandie;Seine-Maritime;Mont-Saint-Aignan 76451;E1.0833;N49.4667;13;
3;FRA;Haute-Normandie;Seine-Maritime;Montérolier 76445;E1.3500;N49.6333;13;
3;FRA;Haute-Normandie;Seine-Maritime;Montigny 76446;E1.0000;N49.4667;13;
3;FRA;Haute-Normandie;Seine-Maritime;Montivilliers 76447;E0.2000;N49.5500;13;
3;FRA;Haute-Normandie;Seine-Maritime;Montmain 76448;E1.2500;N49.4167;13;
3;FRA;Haute-Normandie;Seine-Maritime;Montreuil-en-Caux 76449;E1.1500;N49.6833;13;
3;FRA;Haute-Normandie;Seine-Maritime;Montroty 76450;E1.6650;N49.4390;13;
3;FRA;Haute-Normandie;Seine-Maritime;Montville 76452;E1.0737;N49.5478;13;
3;FRA;Haute-Normandie;Seine-Maritime;Morgny-la-Pommeraye 76453;E1.2500;N49.5167;13;
3;FRA;Haute-Normandie;Seine-Maritime;Morienne 76606;E1.7167;N49.7833;13;
3;FRA;Haute-Normandie;Seine-Maritime;Mortemer 76454;E1.5500;N49.7500;13;
3;FRA;Haute-Normandie;Seine-Maritime;Morville-sur-Andelle 76455;E1.4333;N49.4833;13;
3;FRA;Haute-Normandie;Seine-Maritime;Motteville 76456;E0.8500;N49.6333;13;
3;FRA;Haute-Normandie;Seine-Maritime;Moulineaux 76457;E0.9667;N49.3500;13;
3;FRA;Haute-Normandie;Seine-Maritime;Muchedent 76458;E1.1833;N49.7667;13;
3;FRA;Haute-Normandie;Seine-Maritime;Nesle-Hodeng 76459;E1.5000;N49.7000;13;
3;FRA;Haute-Normandie;Seine-Maritime;Nesle-Normandeuse 76460;E1.6667;N49.9167;13;
3;FRA;Haute-Normandie;Seine-Maritime;Neuf-Marché 76463;E1.7149;N49.4244;13;
3;FRA;Haute-Normandie;Seine-Maritime;Neufbosc 76461;E1.3635;N49.6445;13;
3;FRA;Haute-Normandie;Seine-Maritime;Neufchâtel-en-Bray 76462;E1.4500;N49.7333;13;
3;FRA;Haute-Normandie;Seine-Maritime;Neuville-Ferrières 76465;E1.4667;N49.7167;13;
3;FRA;Haute-Normandie;Seine-Maritime;Neuville-lès-Dieppe 76466=76217;E1.1000;N49.9167;13;
3;FRA;Haute-Normandie;Seine-Maritime;Néville 76467;E0.7167;N49.8167;13;
3;FRA;Haute-Normandie;Seine-Maritime;Nointot 76468;E0.4833;N49.6000;13;
3;FRA;Haute-Normandie;Seine-Maritime;Nolléval 76469;E1.4833;N49.5000;13;
3;FRA;Haute-Normandie;Seine-Maritime;Normanville 76470;E0.6000;N49.7000;13;
3;FRA;Haute-Normandie;Seine-Maritime;Norville 76471;E0.6333;N49.4667;13;
3;FRA;Haute-Normandie;Seine-Maritime;Notre-Dame-d'Aliermont 76472;E1.2833;N49.8500;13;
3;FRA;Haute-Normandie;Seine-Maritime;Notre-Dame-de-Bliquetuit 76473;E0.7667;N49.5000;13;
3;FRA;Haute-Normandie;Seine-Maritime;Notre-Dame-de-Bondeville 76474;E1.0500;N49.4833;13;
3;FRA;Haute-Normandie;Seine-Maritime;Notre-Dame-de-Gravenchon 76476;E0.5833;N49.4833;13;
3;FRA;Haute-Normandie;Seine-Maritime;Notre-Dame-du-Bec 76477;E0.2167;N49.6000;13;
3;FRA;Haute-Normandie;Seine-Maritime;Notre-Dame-du-Parc 76478;E1.1333;N49.7500;13;
3;FRA;Haute-Normandie;Seine-Maritime;Nullemont 76479;E1.6333;N49.7667;13;
3;FRA;Haute-Normandie;Seine-Maritime;Ocqueville 76480;E0.6833;N49.8000;13;
3;FRA;Haute-Normandie;Seine-Maritime;Octeville-sur-Mer 76481;E0.1167;N49.5500;13;
3;FRA;Haute-Normandie;Seine-Maritime;Offranville 76482;E1.0500;N49.8667;13;
3;FRA;Haute-Normandie;Seine-Maritime;Oherville 76483;E0.6833;N49.7333;13;
3;FRA;Haute-Normandie;Seine-Maritime;Oissel 76484;E1.1000;N49.3333;13;
3;FRA;Haute-Normandie;Seine-Maritime;Omonville 76485;E1.0500;N49.8000;13;
3;FRA;Haute-Normandie;Seine-Maritime;Orival 76486;E0.9833;N49.3000;13;
3;FRA;Haute-Normandie;Seine-Maritime;Osmoy-Saint-Valery 76487;E1.3167;N49.8000;13;
3;FRA;Haute-Normandie;Seine-Maritime;Ouainville 76488;E0.5833;N49.7833;13;
3;FRA;Haute-Normandie;Seine-Maritime;Oudalle 76489;E0.3000;N49.5000;13;
3;FRA;Haute-Normandie;Seine-Maritime;Ourville-en-Caux 76490;E0.6000;N49.7333;13;
3;FRA;Haute-Normandie;Seine-Maritime;Ouville-l'Abbaye 76491;E0.8667;N49.7000;13;
3;FRA;Haute-Normandie;Seine-Maritime;Ouville-la-Rivière 76492;E0.9667;N49.8667;13;
3;FRA;Haute-Normandie;Seine-Maritime;Paluel 76493;E0.6333;N49.8333;13;
3;FRA;Haute-Normandie;Seine-Maritime;Parc-d'Anxtot 76494;E0.3833;N49.5833;13;
3;FRA;Haute-Normandie;Seine-Maritime;Pavilly 76495;E0.9667;N49.5667;13;
3;FRA;Haute-Normandie;Seine-Maritime;Penly 76496;E1.2333;N49.9833;13;
3;FRA;Haute-Normandie;Seine-Maritime;Petit-Couronne 76497;E1.0213;N49.3845;13;
3;FRA;Haute-Normandie;Seine-Maritime;Petiville 76499;E0.5833;N49.4667;13;
3;FRA;Haute-Normandie;Seine-Maritime;Pierrecourt 76500;E1.6667;N49.9000;13;
3;FRA;Haute-Normandie;Seine-Maritime;Pierrefiques 76501;E0.2333;N49.6833;13;
3;FRA;Haute-Normandie;Seine-Maritime;Pierreval 76502;E1.2500;N49.5500;13;
3;FRA;Haute-Normandie;Seine-Maritime;Pissy-Pôville 76503;E1.0000;N49.5333;13;
3;FRA;Haute-Normandie;Seine-Maritime;Pleine-Sève 76504;E0.7500;N49.8167;13;
3;FRA;Haute-Normandie;Seine-Maritime;Pommereux 76505;E1.6167;N49.6000;13;
3;FRA;Haute-Normandie;Seine-Maritime;Pommeréval 76506;E1.3167;N49.7333;13;
3;FRA;Haute-Normandie;Seine-Maritime;Ponts-et-Marais 76507;E1.4500;N50.0500;13;
3;FRA;Haute-Normandie;Seine-Maritime;Préaux 76509;E1.2167;N49.4833;13;
3;FRA;Haute-Normandie;Seine-Maritime;Prétot-Vicquemare 76510;E0.8500;N49.7333;13;
3;FRA;Haute-Normandie;Seine-Maritime;Preuseville 76511;E1.5167;N49.8667;13;
3;FRA;Haute-Normandie;Seine-Maritime;Puisenval 76512;E1.4667;N49.8833;13;
3;FRA;Haute-Normandie;Seine-Maritime;Quevillon 76513;E0.9500;N49.4167;13;
3;FRA;Haute-Normandie;Seine-Maritime;Quévreville-la-Poterie 76514;E1.2000;N49.3500;13;
3;FRA;Haute-Normandie;Seine-Maritime;Quiberville 76515;E0.9167;N49.9000;13;
3;FRA;Haute-Normandie;Seine-Maritime;Quièvrecourt 76516;E1.4167;N49.7333;13;
3;FRA;Haute-Normandie;Seine-Maritime;Quincampoix 76517;E1.1833;N49.5333;13;
3;FRA;Haute-Normandie;Seine-Maritime;Raffetot 76518;E0.5167;N49.6000;13;
3;FRA;Haute-Normandie;Seine-Maritime;Rainfreville 76519;E0.9333;N49.7833;13;
3;FRA;Haute-Normandie;Seine-Maritime;Réalcamp 76520;E1.6333;N49.8500;13;
3;FRA;Haute-Normandie;Seine-Maritime;Rebets 76521;E1.3833;N49.5000;13;
3;FRA;Haute-Normandie;Seine-Maritime;Rétonval 76523;E1.6000;N49.8167;13;
3;FRA;Haute-Normandie;Seine-Maritime;Reuville 76524;E0.8667;N49.7500;13;
3;FRA;Haute-Normandie;Seine-Maritime;Ricarville 76525;E0.6000;N49.6333;13;
3;FRA;Haute-Normandie;Seine-Maritime;Ricarville-du-Val 76526;E1.2833;N49.8167;13;
3;FRA;Haute-Normandie;Seine-Maritime;Richemont 76527;E1.6500;N49.8000;13;
3;FRA;Haute-Normandie;Seine-Maritime;Rieux 76528;E1.5833;N49.9333;13;
3;FRA;Haute-Normandie;Seine-Maritime;Riville 76529;E0.5667;N49.7333;13;
3;FRA;Haute-Normandie;Seine-Maritime;Robertot 76530;E0.7000;N49.7167;13;
3;FRA;Haute-Normandie;Seine-Maritime;Rocquefort 76531;E0.7000;N49.6667;13;
3;FRA;Haute-Normandie;Seine-Maritime;Rocquemont 76532;E1.2833;N49.6000;13;
3;FRA;Haute-Normandie;Seine-Maritime;Rogerville 76533;E0.2667;N49.5000;13;
3;FRA;Haute-Normandie;Seine-Maritime;Rolleville 76534;E0.2167;N49.5833;13;
3;FRA;Haute-Normandie;Seine-Maritime;Roncherolles-en-Bray 76535;E1.4667;N49.6167;13;
3;FRA;Haute-Normandie;Seine-Maritime;Roncherolles-sur-le-Vivier 76536;E1.1833;N49.4695;13;
3;FRA;Haute-Normandie;Seine-Maritime;Ronchois 76537;E1.6333;N49.7167;13;
3;FRA;Haute-Normandie;Seine-Maritime;Rosay 76538;E1.2500;N49.7000;13;
3;FRA;Haute-Normandie;Seine-Maritime;Rouelles 76539=76351;E0.1667;N49.5167;13;
3;FRA;Haute-Normandie;Seine-Maritime;Rouen 76540;E1.0833;N49.4333;13;
3;FRA;Haute-Normandie;Seine-Maritime;Roumare 76541;E0.9667;N49.5167;13;
3;FRA;Haute-Normandie;Seine-Maritime;Routes 76542;E0.7500;N49.7333;13;
3;FRA;Haute-Normandie;Seine-Maritime;Rouville 76543;E0.4991;N49.6142;13;
3;FRA;Haute-Normandie;Seine-Maritime;Rouvray-Catillon 76544;E1.4833;N49.5667;13;
3;FRA;Haute-Normandie;Seine-Maritime;Rouxmesnil-Bouteilles 76545;E1.0833;N49.9000;13;
3;FRA;Haute-Normandie;Seine-Maritime;Royville 76546;E0.9500;N49.7833;13;
3;FRA;Haute-Normandie;Seine-Maritime;Ry 76548;E1.3500;N49.4833;13;
3;FRA;Haute-Normandie;Seine-Maritime;Saâne-Saint-Just 76549;E0.9333;N49.7667;13;
3;FRA;Haute-Normandie;Seine-Maritime;Sahurs 76550;E0.9333;N49.3500;13;
3;FRA;Haute-Normandie;Seine-Maritime;Sainneville 76551;E0.2833;N49.5500;13;
3;FRA;Haute-Normandie;Seine-Maritime;Saint-Aignan-sur-Ry 76554;E1.3500;N49.5000;13;
3;FRA;Haute-Normandie;Seine-Maritime;Saint-André-sur-Cailly 76555;E1.2167;N49.5500;13;
3;FRA;Haute-Normandie;Seine-Maritime;Saint-Antoine-la-Forêt 76556;E0.4667;N49.5333;13;
3;FRA;Haute-Normandie;Seine-Maritime;Saint-Arnoult 76557;E0.6667;N49.5333;13;
3;FRA;Haute-Normandie;Seine-Maritime;Saint-Aubin-Celloville 76558;E1.1667;N49.3667;13;
3;FRA;Haute-Normandie;Seine-Maritime;Saint-Aubin-de-Crétot 76559;E0.6333;N49.5667;13;
3;FRA;Haute-Normandie;Seine-Maritime;Saint-Aubin-Épinay 76560;E1.1667;N49.4167;13;
3;FRA;Haute-Normandie;Seine-Maritime;Saint-Aubin-le-Cauf 76562;E1.1833;N49.8667;13;
3;FRA;Haute-Normandie;Seine-Maritime;Saint-Aubin-lès-Elbeuf 76561;E1.0167;N49.3000;13;
3;FRA;Haute-Normandie;Seine-Maritime;Saint-Aubin-Routot 76563;E0.3333;N49.5167;13;
3;FRA;Haute-Normandie;Seine-Maritime;Saint-Aubin-sur-Mer 76564;E0.8833;N49.8833;13;
3;FRA;Haute-Normandie;Seine-Maritime;Saint-Aubin-sur-Scie 76565;E1.0667;N49.8667;13;
3;FRA;Haute-Normandie;Seine-Maritime;Saint-Clair-sur-les-Monts 76568;E0.8000;N49.6000;13;
3;FRA;Haute-Normandie;Seine-Maritime;Saint-Crespin 76570;E1.1167;N49.7833;13;
3;FRA;Haute-Normandie;Seine-Maritime;Saint-Denis-d'Aclon 76572;E0.9500;N49.8667;13;
3;FRA;Haute-Normandie;Seine-Maritime;Saint-Denis-le-Thiboult 76573;E1.3667;N49.4667;13;
3;FRA;Haute-Normandie;Seine-Maritime;Saint-Denis-sur-Scie 76574;E1.1000;N49.7167;13;
3;FRA;Haute-Normandie;Seine-Maritime;Saint-Étienne-du-Rouvray 76575;E1.1000;N49.3833;13;
3;FRA;Haute-Normandie;Seine-Maritime;Saint-Eustache-la-Forêt 76576;E0.4667;N49.5500;13;
3;FRA;Haute-Normandie;Seine-Maritime;Saint-Georges-sur-Fontaine 76580;E1.1833;N49.5500;13;
3;FRA;Haute-Normandie;Seine-Maritime;Saint-Germain-d'Étables 76582;E1.1833;N49.8333;13;
3;FRA;Haute-Normandie;Seine-Maritime;Saint-Germain-des-Essourts 76581;E1.3167;N49.5333;13;
3;FRA;Haute-Normandie;Seine-Maritime;Saint-Germain-sous-Cailly 76583;E1.2167;N49.5833;13;
3;FRA;Haute-Normandie;Seine-Maritime;Saint-Germain-sur-Eaulne 76584;E1.5167;N49.7667;13;
3;FRA;Haute-Normandie;Seine-Maritime;Saint-Gilles-de-Crétot 76585;E0.6500;N49.5667;13;
3;FRA;Haute-Normandie;Seine-Maritime;Saint-Gilles-de-la-Neuville 76586;E0.3833;N49.5667;13;
3;FRA;Haute-Normandie;Seine-Maritime;Saint-Hellier 76588;E1.1833;N49.7333;13;
3;FRA;Haute-Normandie;Seine-Maritime;Saint-Honoré 76589;E1.1500;N49.7833;13;
3;FRA;Haute-Normandie;Seine-Maritime;Saint-Jacques-d'Aliermont 76590;E1.2667;N49.8500;13;
3;FRA;Haute-Normandie;Seine-Maritime;Saint-Jacques-sur-Darnétal 76591;E1.2000;N49.4333;13;
3;FRA;Haute-Normandie;Seine-Maritime;Saint-Jean-de-Folleville 76592;E0.5000;N49.5167;13;
3;FRA;Haute-Normandie;Seine-Maritime;Saint-Jean-de-la-Neuville 76593;E0.4167;N49.5833;13;
3;FRA;Haute-Normandie;Seine-Maritime;Saint-Jean-du-Cardonnay 76594;E1.0167;N49.5000;13;
3;FRA;Haute-Normandie;Seine-Maritime;Saint-Jouin-Bruneval 76595;E0.1667;N49.6500;13;
3;FRA;Haute-Normandie;Seine-Maritime;Saint-Laurent-de-Brèvedent 76596;E0.2500;N49.5333;13;
3;FRA;Haute-Normandie;Seine-Maritime;Saint-Laurent-en-Caux 76597;E0.8833;N49.7500;13;
3;FRA;Haute-Normandie;Seine-Maritime;Saint-Léger-aux-Bois 76598;E1.6167;N49.8333;13;
3;FRA;Haute-Normandie;Seine-Maritime;Saint-Léger-du-Bourg-Denis 76599;E1.1500;N49.4333;13;
3;FRA;Haute-Normandie;Seine-Maritime;Saint-Léonard 76600;E0.3667;N49.7500;13;
3;FRA;Haute-Normandie;Seine-Maritime;Saint-Lucien 76601=76676;E1.4500;N49.5000;13;
3;FRA;Haute-Normandie;Seine-Maritime;Saint-Maclou-de-Folleville 76602;E1.1000;N49.6833;13;
3;FRA;Haute-Normandie;Seine-Maritime;Saint-Maclou-la-Brière 76603;E0.4667;N49.6500;13;
3;FRA;Haute-Normandie;Seine-Maritime;Saint-Mards 76604;E1.0167;N49.7667;13;
3;FRA;Haute-Normandie;Seine-Maritime;Saint-Martin-au-Bosc 76612;E1.6667;N49.8333;13;
3;FRA;Haute-Normandie;Seine-Maritime;Saint-Martin-aux-Arbres 76611;E0.8833;N49.6500;13;
3;FRA;Haute-Normandie;Seine-Maritime;Saint-Martin-aux-Buneaux 76613;E0.5500;N49.8333;13;
3;FRA;Haute-Normandie;Seine-Maritime;Saint-Martin-de-Boscherville 76614;E0.9667;N49.4500;13;
3;FRA;Haute-Normandie;Seine-Maritime;Saint-Martin-du-Bec 76615;E0.2000;N49.6000;13;
3;FRA;Haute-Normandie;Seine-Maritime;Saint-Martin-du-Manoir 76616;E0.2333;N49.5333;13;
3;FRA;Haute-Normandie;Seine-Maritime;Saint-Martin-du-Vivier 76617;E1.1667;N49.4667;13;
3;FRA;Haute-Normandie;Seine-Maritime;Saint-Martin-en-Campagne 76618;E1.2333;N49.9500;13;
3;FRA;Haute-Normandie;Seine-Maritime;Saint-Martin-l'Hortier 76620;E1.4000;N49.7500;13;
3;FRA;Haute-Normandie;Seine-Maritime;Saint-Martin-le-Gaillard 76619;E1.3667;N49.9833;13;
3;FRA;Haute-Normandie;Seine-Maritime;Saint-Martin-Osmonville 76621;E1.2996;N49.6388;13;
3;FRA;Haute-Normandie;Seine-Maritime;Saint-Maurice-d'Ételan 76622;E0.6167;N49.4667;13;
3;FRA;Haute-Normandie;Seine-Maritime;Saint-Michel-d'Halescourt 76623;E1.6664;N49.6086;13;
3;FRA;Haute-Normandie;Seine-Maritime;Saint-Nicolas-d'Aliermont 76624;E1.2167;N49.8833;13;
3;FRA;Haute-Normandie;Seine-Maritime;Saint-Nicolas-de-Bliquetuit 76625;E0.7333;N49.5167;13;
3;FRA;Haute-Normandie;Seine-Maritime;Saint-Nicolas-de-la-Haie 76626;E0.6167;N49.5500;13;
3;FRA;Haute-Normandie;Seine-Maritime;Saint-Nicolas-de-la-Taille 76627;E0.4667;N49.5167;13;
3;FRA;Haute-Normandie;Seine-Maritime;Saint-Ouen-du-Breuil 76628;E1.0167;N49.6333;13;
3;FRA;Haute-Normandie;Seine-Maritime;Saint-Ouen-le-Mauger 76629;E0.9667;N49.7667;13;
3;FRA;Haute-Normandie;Seine-Maritime;Saint-Ouen-sous-Bailly 76630;E1.3000;N49.9000;13;
3;FRA;Haute-Normandie;Seine-Maritime;Saint-Paër 76631;E0.8833;N49.5167;13;
3;FRA;Haute-Normandie;Seine-Maritime;Saint-Pierre-Bénouville 76632;E0.9667;N49.7500;13;
3;FRA;Haute-Normandie;Seine-Maritime;Saint-Pierre-de-Franqueville 76633=76475;E1.1749;N49.3990;13;
3;FRA;Haute-Normandie;Seine-Maritime;Saint-Pierre-de-Manneville 76634;E0.9333;N49.4000;13;
3;FRA;Haute-Normandie;Seine-Maritime;Saint-Pierre-de-Varengeville 76636;E0.9333;N49.5000;13;
3;FRA;Haute-Normandie;Seine-Maritime;Saint-Pierre-des-Jonquières 76635;E1.4500;N49.8500;13;
3;FRA;Haute-Normandie;Seine-Maritime;Saint-Pierre-en-Port 76637;E0.4833;N49.8000;13;
3;FRA;Haute-Normandie;Seine-Maritime;Saint-Pierre-en-Val 76638;E1.4500;N50.0167;13;
3;FRA;Haute-Normandie;Seine-Maritime;Saint-Pierre-Lavis 76639;E0.6333;N49.6667;13;
3;FRA;Haute-Normandie;Seine-Maritime;Saint-Pierre-le-Vieux 76641;E0.8667;N49.8500;13;
3;FRA;Haute-Normandie;Seine-Maritime;Saint-Pierre-le-Viger 76642;E0.8500;N49.8167;13;
3;FRA;Haute-Normandie;Seine-Maritime;Saint-Pierre-lès-Elbeuf 76640;E1.0500;N49.2667;13;
3;FRA;Haute-Normandie;Seine-Maritime;Saint-Quentin-au-Bosc 76643;E1.3333;N49.9333;13;
3;FRA;Haute-Normandie;Seine-Maritime;Saint-Rémy-Boscrocourt 76644;E1.4000;N50.0167;13;
3;FRA;Haute-Normandie;Seine-Maritime;Saint-Riquier-en-Rivière 76645;E1.5667;N49.8833;13;
3;FRA;Haute-Normandie;Seine-Maritime;Saint-Riquier-ès-Plains 76646;E0.6667;N49.8167;13;
3;FRA;Haute-Normandie;Seine-Maritime;Saint-Romain-de-Colbosc 76647;E0.3667;N49.5333;13;
3;FRA;Haute-Normandie;Seine-Maritime;Saint-Saëns 76648;E1.2833;N49.6667;13;
3;FRA;Haute-Normandie;Seine-Maritime;Saint-Saire 76649;E1.5000;N49.7000;13;
3;FRA;Haute-Normandie;Seine-Maritime;Saint-Sauveur-d'Émalleville 76650;E0.3000;N49.6000;13;
3;FRA;Haute-Normandie;Seine-Maritime;Saint-Sylvain 76651;E0.6667;N49.8500;13;
3;FRA;Haute-Normandie;Seine-Maritime;Saint-Vaast-d'Équiqueville 76652;E1.2667;N49.8167;13;
3;FRA;Haute-Normandie;Seine-Maritime;Saint-Vaast-Dieppedalle 76653;E0.7167;N49.7500;13;
3;FRA;Haute-Normandie;Seine-Maritime;Saint-Vaast-du-Val 76654;E1.0167;N49.6833;13;
3;FRA;Haute-Normandie;Seine-Maritime;Saint-Valery-en-Caux 76655;E0.7333;N49.8667;13;
3;FRA;Haute-Normandie;Seine-Maritime;Saint-Victor-l'Abbaye 76656;E1.1167;N49.6667;13;
3;FRA;Haute-Normandie;Seine-Maritime;Saint-Vigor-d'Ymonville 76657;E0.3667;N49.5000;13;
3;FRA;Haute-Normandie;Seine-Maritime;Saint-Vincent-Cramesnil 76658;E0.3667;N49.5000;13;
3;FRA;Haute-Normandie;Seine-Maritime;Saint-Wandrille-Rançon 76659;E0.7667;N49.5333;13;
3;FRA;Haute-Normandie;Seine-Maritime;Sainte-Adresse 76552;E0.0833;N49.5000;13;
3;FRA;Haute-Normandie;Seine-Maritime;Sainte-Agathe-d'Aliermont 76553;E1.3167;N49.8333;13;
3;FRA;Haute-Normandie;Seine-Maritime;Sainte-Austreberthe 76566;E0.9667;N49.6000;13;
3;FRA;Haute-Normandie;Seine-Maritime;Sainte-Beuve-en-Rivière 76567;E1.5333;N49.7667;13;
3;FRA;Haute-Normandie;Seine-Maritime;Sainte-Colombe 76569;E0.7667;N49.8000;13;
3;FRA;Haute-Normandie;Seine-Maritime;Sainte-Croix-sur-Buchy 76571;E1.3500;N49.5667;13;
3;FRA;Haute-Normandie;Seine-Maritime;Sainte-Foy 76577;E1.1333;N49.8000;13;
3;FRA;Haute-Normandie;Seine-Maritime;Sainte-Geneviève 76578;E1.4353;N49.6543;13;
3;FRA;Haute-Normandie;Seine-Maritime;Sainte-Geneviève-en-Caux 76579=76063;E1.0327;N49.7366;13;
3;FRA;Haute-Normandie;Seine-Maritime;Sainte-Hélène-Bondeville 76587;E0.4667;N49.7667;13;
3;FRA;Haute-Normandie;Seine-Maritime;Sainte-Marguerite-sur-Duclair 76608;E0.8500;N49.5167;13;
3;FRA;Haute-Normandie;Seine-Maritime;Sainte-Marguerite-sur-Fauville 76607;E0.6000;N49.6667;13;
3;FRA;Haute-Normandie;Seine-Maritime;Sainte-Marguerite-sur-Mer 76605;E0.9467;N49.9093;13;
3;FRA;Haute-Normandie;Seine-Maritime;Sainte-Marie-au-Bosc 76609;E0.2000;N49.6667;13;
3;FRA;Haute-Normandie;Seine-Maritime;Sainte-Marie-des-Champs 76610;E0.7833;N49.6167;13;
3;FRA;Haute-Normandie;Seine-Maritime;Sandouville 76660;E0.3167;N49.5000;13;
3;FRA;Haute-Normandie;Seine-Maritime;Sanvic 76661=76351;E0.1005;N49.5059;13;
3;FRA;Haute-Normandie;Seine-Maritime;Sassetot-le-Malgardé 76662;E0.9000;N49.7667;13;
3;FRA;Haute-Normandie;Seine-Maritime;Sassetot-le-Mauconduit 76663;E0.5283;N49.8044;13;
3;FRA;Haute-Normandie;Seine-Maritime;Sasseville 76664;E0.6833;N49.7833;13;
3;FRA;Haute-Normandie;Seine-Maritime;Sauchay 76665;E1.2000;N49.9333;13;
3;FRA;Haute-Normandie;Seine-Maritime;Saumont-la-Poterie 76666;E1.6167;N49.5833;13;
3;FRA;Haute-Normandie;Seine-Maritime;Sauqueville 76667;E1.0667;N49.8500;13;
3;FRA;Haute-Normandie;Seine-Maritime;Saussay 76668;E0.9333;N49.6333;13;
3;FRA;Haute-Normandie;Seine-Maritime;Sausseuzemare-en-Caux 76669;E0.3430;N49.6663;13;
3;FRA;Haute-Normandie;Seine-Maritime;Senneville-sur-Fécamp 76670;E0.4167;N49.7667;13;
3;FRA;Haute-Normandie;Seine-Maritime;Sept-Meules 76671;E1.4167;N49.9500;13;
3;FRA;Haute-Normandie;Seine-Maritime;Serqueux 76672;E1.5500;N49.6333;13;
3;FRA;Haute-Normandie;Seine-Maritime;Servaville-Salmonville 76673;E1.2667;N49.4833;13;
3;FRA;Haute-Normandie;Seine-Maritime;Sévis 76674;E1.1667;N49.7000;13;
3;FRA;Haute-Normandie;Seine-Maritime;Sierville 76675;E1.0333;N49.5833;13;
3;FRA;Haute-Normandie;Seine-Maritime;Sigy-en-Bray 76676;E1.5000;N49.5500;13;
3;FRA;Haute-Normandie;Seine-Maritime;Smermesnil 76677;E1.4833;N49.8333;13;
3;FRA;Haute-Normandie;Seine-Maritime;Sommery 76678;E1.4333;N49.6333;13;
3;FRA;Haute-Normandie;Seine-Maritime;Sommesnil 76679;E0.6667;N49.7167;13;
3;FRA;Haute-Normandie;Seine-Maritime;Sorquainville 76680;E0.5500;N49.7000;13;
3;FRA;Haute-Normandie;Seine-Maritime;Sotteville-lès-Rouen 76681;E1.1000;N49.4167;13;
3;FRA;Haute-Normandie;Seine-Maritime;Sotteville-sous-le-Val 76682;E1.1333;N49.3167;13;
3;FRA;Haute-Normandie;Seine-Maritime;Sotteville-sur-Mer 76683;E0.8333;N49.8833;13;
3;FRA;Haute-Normandie;Seine-Maritime;Tancarville 76684;E0.4667;N49.4833;13;
3;FRA;Haute-Normandie;Seine-Maritime;Thérouldeville 76685;E0.5167;N49.7667;13;
3;FRA;Haute-Normandie;Seine-Maritime;Theuville-aux-Maillots 76686;E0.5500;N49.7667;13;
3;FRA;Haute-Normandie;Seine-Maritime;Thiédeville 76687=76018;E0.9491;N49.7322;13;
3;FRA;Haute-Normandie;Seine-Maritime;Thiergeville 76688;E0.5167;N49.7167;13;
3;FRA;Haute-Normandie;Seine-Maritime;Thiétreville 76689;E0.5167;N49.7167;13;
3;FRA;Haute-Normandie;Seine-Maritime;Thil-Manneville 76690;E0.9833;N49.8333;13;
3;FRA;Haute-Normandie;Seine-Maritime;Thiouville 76692;E0.6167;N49.7000;13;
3;FRA;Haute-Normandie;Seine-Maritime;Tocqueville-en-Caux 76694;E0.9000;N49.7833;13;
3;FRA;Haute-Normandie;Seine-Maritime;Tocqueville-les-Murs 76695;E0.5000;N49.6667;13;
3;FRA;Haute-Normandie;Seine-Maritime;Tocqueville-sur-Eu 76696;E1.2833;N50.0000;13;
3;FRA;Haute-Normandie;Seine-Maritime;Torcy-le-Grand 76697;E1.1833;N49.8000;13;
3;FRA;Haute-Normandie;Seine-Maritime;Torcy-le-Petit 76698;E1.1833;N49.8167;13;
3;FRA;Haute-Normandie;Seine-Maritime;Tôtes 76700;E1.0500;N49.6833;13;
3;FRA;Haute-Normandie;Seine-Maritime;Touffreville-la-Cable 76701;E0.6167;N49.5167;13;
3;FRA;Haute-Normandie;Seine-Maritime;Touffreville-la-Corbeline 76702;E0.7667;N49.5833;13;
3;FRA;Haute-Normandie;Seine-Maritime;Touffreville-sur-Eu 76703;E1.3167;N50.0000;13;
3;FRA;Haute-Normandie;Seine-Maritime;Tourville-la-Chapelle 76704;E1.2667;N49.9500;13;
3;FRA;Haute-Normandie;Seine-Maritime;Tourville-la-Rivière 76705;E1.1000;N49.3333;13;
3;FRA;Haute-Normandie;Seine-Maritime;Tourville-les-Ifs 76706;E0.4000;N49.7167;13;
3;FRA;Haute-Normandie;Seine-Maritime;Tourville-sur-Arques 76707;E1.1000;N49.8500;13;
3;FRA;Haute-Normandie;Seine-Maritime;Toussaint 76708;E0.4333;N49.7333;13;
3;FRA;Haute-Normandie;Seine-Maritime;Trémauville 76710;E0.5167;N49.6667;13;
3;FRA;Haute-Normandie;Seine-Maritime;Triquerville 76713;E0.6333;N49.5000;13;
3;FRA;Haute-Normandie;Seine-Maritime;Trouville 76715;E0.6012;N49.5730;13;
3;FRA;Haute-Normandie;Seine-Maritime;Turretot 76716;E0.2333;N49.6167;13;
3;FRA;Haute-Normandie;Seine-Maritime;Val-de-la-Haye 76717;E1.0000;N49.3833;13;
3;FRA;Haute-Normandie;Seine-Maritime;Val-de-Saâne 76018;E0.9658;N49.7057;13;
3;FRA;Haute-Normandie;Seine-Maritime;Valliquerville 76718;E0.6833;N49.6167;13;
3;FRA;Haute-Normandie;Seine-Maritime;Valmont 76719;E0.5167;N49.7333;13;
3;FRA;Haute-Normandie;Seine-Maritime;Varengeville-sur-Mer 76720;E0.9833;N49.9167;13;
3;FRA;Haute-Normandie;Seine-Maritime;Varneville-Bretteville 76721;E1.0500;N49.6500;13;
3;FRA;Haute-Normandie;Seine-Maritime;Varvannes 76722=76018;E0.9665;N49.6795;13;
3;FRA;Haute-Normandie;Seine-Maritime;Vassonville 76723;E1.0929;N49.6944;13;
3;FRA;Haute-Normandie;Seine-Maritime;Vatierville 76724;E1.5000;N49.7833;13;
3;FRA;Haute-Normandie;Seine-Maritime;Vattetot-sous-Beaumont 76725;E0.4500;N49.6333;13;
3;FRA;Haute-Normandie;Seine-Maritime;Vattetot-sur-Mer 76726;E0.2833;N49.7333;13;
3;FRA;Haute-Normandie;Seine-Maritime;Vatteville-la-Rue 76727;E0.6851;N49.4907;13;
3;FRA;Haute-Normandie;Seine-Maritime;Veauville-lès-Baons 76729;E0.7667;N49.6500;13;
3;FRA;Haute-Normandie;Seine-Maritime;Veauville-lès-Quelles 76730;E0.7162;N49.7367;13;
3;FRA;Haute-Normandie;Seine-Maritime;Vénestanville 76731;E0.9000;N49.8000;13;
3;FRA;Haute-Normandie;Seine-Maritime;Ventes-Saint-Rémy 76733;E1.3000;N49.7000;13;
3;FRA;Haute-Normandie;Seine-Maritime;Vergetot 76734;E0.2833;N49.6167;13;
3;FRA;Haute-Normandie;Seine-Maritime;Veules-les-Roses 76735;E0.8000;N49.8667;13;
3;FRA;Haute-Normandie;Seine-Maritime;Veulettes-sur-Mer 76736;E0.6000;N49.8500;13;
3;FRA;Haute-Normandie;Seine-Maritime;Vibeuf 76737;E0.9000;N49.7000;13;
3;FRA;Haute-Normandie;Seine-Maritime;Vieux-Manoir 76738;E1.3000;N49.5667;13;
3;FRA;Haute-Normandie;Seine-Maritime;Vieux-Rouen-sur-Bresle 76739;E1.7167;N49.8333;13;
3;FRA;Haute-Normandie;Seine-Maritime;Villainville 76741;E0.2500;N49.6500;13;
3;FRA;Haute-Normandie;Seine-Maritime;Villequier 76742;E0.6667;N49.5167;13;
3;FRA;Haute-Normandie;Seine-Maritime;Villers-Écalles 76743;E0.9167;N49.5333;13;
3;FRA;Haute-Normandie;Seine-Maritime;Villers-sous-Foucarmont 76744;E1.5667;N49.8333;13;
3;FRA;Haute-Normandie;Seine-Maritime;Villy-sur-Yères 76745;E1.4514;N49.9427;13;
3;FRA;Haute-Normandie;Seine-Maritime;Vinnemerville 76746;E0.5333;N49.8000;13;
3;FRA;Haute-Normandie;Seine-Maritime;Virville 76747;E0.3500;N49.5833;13;
3;FRA;Haute-Normandie;Seine-Maritime;Vittefleur 76748;E0.6500;N49.8167;13;
3;FRA;Haute-Normandie;Seine-Maritime;Wanchy-Capval 76749;E1.3667;N49.8500;13;
3;FRA;Haute-Normandie;Seine-Maritime;Yainville 76750;E0.8333;N49.4500;13;
3;FRA;Haute-Normandie;Seine-Maritime;Yébleron 76751;E0.5333;N49.6333;13;
3;FRA;Haute-Normandie;Seine-Maritime;Yerville 76752;E0.9000;N49.6667;13;
3;FRA;Haute-Normandie;Seine-Maritime;Ymare 76753;E1.1833;N49.3500;13;
3;FRA;Haute-Normandie;Seine-Maritime;Yport 76754;E0.3167;N49.7333;13;
3;FRA;Haute-Normandie;Seine-Maritime;Ypreville-Biville 76755;E0.5333;N49.7000;13;
3;FRA;Haute-Normandie;Seine-Maritime;Yquebeuf 76756;E1.2500;N49.6000;13;
3;FRA;Haute-Normandie;Seine-Maritime;Yvecrique 76757;E0.8167;N49.6833;13;
3;FRA;Haute-Normandie;Seine-Maritime;Yvetot 76758;E0.7667;N49.6167;13;
3;FRA;Haute-Normandie;Seine-Maritime;Yville-sur-Seine 76759;E0.8833;N49.4000;13;