"Level";"Country";"State";"County";"Place";"Longitude";"Latitude";"ZoomLevel";"Icon"
2;FRA;Poitou-Charentes;Charente;;E0.17;N45.78;9;
3;FRA;Poitou-Charentes;Charente;Abzac 16001;E0.7000;N46.1000;13;
3;FRA;Poitou-Charentes;Charente;Agris 16003;E0.3333;N45.7833;13;
3;FRA;Poitou-Charentes;Charente;Aignes-et-Puypéroux 16004;E0.1500;N45.4500;13;
3;FRA;Poitou-Charentes;Charente;Aigre 16005;E0.0167;N45.9000;13;
3;FRA;Poitou-Charentes;Charente;Aizecq 16006=16242;E0.2833;N45.9833;13;
3;FRA;Poitou-Charentes;Charente;Alloue 16007;E0.5167;N46.0333;13;
3;FRA;Poitou-Charentes;Charente;Ambérac 16008;E0.0667;N45.8500;13;
3;FRA;Poitou-Charentes;Charente;Ambernac 16009;E0.5333;N45.9833;13;
3;FRA;Poitou-Charentes;Charente;Ambleville 16010;W0.2167;N45.5500;13;
3;FRA;Poitou-Charentes;Charente;Anais 16011;E0.2083;N45.7739;13;
3;FRA;Poitou-Charentes;Charente;Angeac-Champagne 16012;W0.3000;N45.6000;13;
3;FRA;Poitou-Charentes;Charente;Angeac-Charente 16013;W0.0667;N45.6333;13;
3;FRA;Poitou-Charentes;Charente;Angeduc 16014;W0.0500;N45.4833;13;
3;FRA;Poitou-Charentes;Charente;Angoulême 16015;E0.1500;N45.6500;13;
3;FRA;Poitou-Charentes;Charente;Ansac-sur-Vienne 16016;E0.6500;N46.0000;13;
3;FRA;Poitou-Charentes;Charente;Anville 16017;W0.1000;N45.8333;13;
3;FRA;Poitou-Charentes;Charente;Ars 16018;W0.3833;N45.6500;13;
3;FRA;Poitou-Charentes;Charente;Asnières-sur-Nouère 16019;E0.0500;N45.7167;13;
3;FRA;Poitou-Charentes;Charente;Aubeterre-sur-Dronne 16020;E0.1667;N45.2667;13;
3;FRA;Poitou-Charentes;Charente;Aubeville 16021;W0.0167;N45.5000;13;
3;FRA;Poitou-Charentes;Charente;Auge 16022=16339;W0.1000;N45.8500;13;
3;FRA;Poitou-Charentes;Charente;Auge-Saint-Médard 16339;W0.0971;N45.8504;13;
3;FRA;Poitou-Charentes;Charente;Aunac 16023;E0.2500;N45.9167;13;
3;FRA;Poitou-Charentes;Charente;Aussac-Vadalle 16024;E0.1999;N45.8183;13;
3;FRA;Poitou-Charentes;Charente;Baignes-Sainte-Radegonde 16025;W0.2333;N45.3833;13;
3;FRA;Poitou-Charentes;Charente;Balzac 16026;E0.1167;N45.7000;13;
3;FRA;Poitou-Charentes;Charente;Barbezières 16027;W0.0833;N45.9167;13;
3;FRA;Poitou-Charentes;Charente;Barbezieux-Saint-Hilaire 16028;W0.1544;N45.4726;13;
3;FRA;Poitou-Charentes;Charente;Bardenac 16029;W0.0167;N45.3000;13;
3;FRA;Poitou-Charentes;Charente;Barret 16030;W0.2000;N45.4833;13;
3;FRA;Poitou-Charentes;Charente;Barro 16031;E0.2167;N46.0000;13;
3;FRA;Poitou-Charentes;Charente;Bassac 16032;W0.1000;N45.6667;13;
3;FRA;Poitou-Charentes;Charente;Bayers 16033;E0.2333;N45.9167;13;
3;FRA;Poitou-Charentes;Charente;Bazac 16034;E0.0500;N45.2167;13;
3;FRA;Poitou-Charentes;Charente;Beaulieu-sur-Sonnette 16035;E0.3833;N45.9333;13;
3;FRA;Poitou-Charentes;Charente;Bécheresse 16036;E0.0833;N45.5000;13;
3;FRA;Poitou-Charentes;Charente;Bellon 16037;E0.1167;N45.3000;13;
3;FRA;Poitou-Charentes;Charente;Benest 16038;E0.4500;N46.0333;13;
3;FRA;Poitou-Charentes;Charente;Bernac 16039;E0.1667;N46.0333;13;
3;FRA;Poitou-Charentes;Charente;Berneuil 16040;W0.0728;N45.3928;13;
3;FRA;Poitou-Charentes;Charente;Bessac 16041;W0.0333;N45.4333;13;
3;FRA;Poitou-Charentes;Charente;Bessé 16042;E0.0667;N45.9500;13;
3;FRA;Poitou-Charentes;Charente;Bignac 16043;E0.0667;N45.8000;13;
3;FRA;Poitou-Charentes;Charente;Bioussac 16044;E0.2833;N46.0333;13;
3;FRA;Poitou-Charentes;Charente;Birac 16045;W0.0667;N45.5667;13;
3;FRA;Poitou-Charentes;Charente;Blanzac-Porcheresse 16046;E0.0315;N45.4758;13;
3;FRA;Poitou-Charentes;Charente;Blanzaguet-Saint-Cybard 16047;E0.3010;N45.4841;13;
3;FRA;Poitou-Charentes;Charente;Boisbreteau 16048;W0.1500;N45.3167;13;
3;FRA;Poitou-Charentes;Charente;Bonnes 16049;E0.1503;N45.2395;13;
3;FRA;Poitou-Charentes;Charente;Bonneuil 16050;W0.1333;N45.5833;13;
3;FRA;Poitou-Charentes;Charente;Bonneville 16051;W0.0333;N45.8333;13;
3;FRA;Poitou-Charentes;Charente;Bouëx 16055;E0.3167;N45.6167;13;
3;FRA;Poitou-Charentes;Charente;Bourg-Charente 16056;W0.2333;N45.6667;13;
3;FRA;Poitou-Charentes;Charente;Bouteville 16057;W0.1333;N45.6000;13;
3;FRA;Poitou-Charentes;Charente;Boutiers-Saint-Trojan 16058;W0.3000;N45.7167;13;
3;FRA;Poitou-Charentes;Charente;Brettes 16059;E0.0333;N46.0000;13;
3;FRA;Poitou-Charentes;Charente;Bréville 16060;W0.2667;N45.8000;13;
3;FRA;Poitou-Charentes;Charente;Brie 16061;E0.2400;N45.7373;13;
3;FRA;Poitou-Charentes;Charente;Brie-sous-Barbezieux 16062;W0.0333;N45.4333;13;
3;FRA;Poitou-Charentes;Charente;Brie-sous-Chalais 16063;E0.0000;N45.3167;13;
3;FRA;Poitou-Charentes;Charente;Brigueuil 16064;E0.8588;N45.9531;13;
3;FRA;Poitou-Charentes;Charente;Brillac 16065;E0.7833;N46.0667;13;
3;FRA;Poitou-Charentes;Charente;Brossac 16066;W0.0500;N45.3333;13;
3;FRA;Poitou-Charentes;Charente;Bunzac 16067;E0.3500;N45.7000;13;
3;FRA;Poitou-Charentes;Charente;Cellefrouin 16068;E0.3833;N45.9000;13;
3;FRA;Poitou-Charentes;Charente;Cellettes 16069;E0.1500;N45.8667;13;
3;FRA;Poitou-Charentes;Charente;Chabanais 16070;E0.7167;N45.8667;13;
3;FRA;Poitou-Charentes;Charente;Chabrac 16071;E0.7333;N45.9333;13;
3;FRA;Poitou-Charentes;Charente;Chadurie 16072;E0.1333;N45.5000;13;
3;FRA;Poitou-Charentes;Charente;Chalais 16073;E0.0402;N45.2732;13;
3;FRA;Poitou-Charentes;Charente;Challignac 16074;W0.0833;N45.4167;13;
3;FRA;Poitou-Charentes;Charente;Champagne-Mouton 16076;E0.4167;N45.9833;13;
3;FRA;Poitou-Charentes;Charente;Champagne-Vigny 16075;E0.0360;N45.5073;13;
3;FRA;Poitou-Charentes;Charente;Champmillon 16077;E0.0000;N45.6333;13;
3;FRA;Poitou-Charentes;Charente;Champniers 16078;E0.2000;N45.7167;13;
3;FRA;Poitou-Charentes;Charente;Chantillac 16079;W0.2500;N45.3333;13;
3;FRA;Poitou-Charentes;Charente;Chantrezac 16080=16192;E0.5543;N45.9259;13;
3;FRA;Poitou-Charentes;Charente;Charmant 16082;E0.1833;N45.5000;13;
3;FRA;Poitou-Charentes;Charente;Charmé 16083;E0.1167;N45.9500;13;
3;FRA;Poitou-Charentes;Charente;Charras 16084;E0.4167;N45.5333;13;
3;FRA;Poitou-Charentes;Charente;Chasseneuil-sur-Bonnieure 16085;E0.4494;N45.8239;13;
3;FRA;Poitou-Charentes;Charente;Chassenon 16086;E0.7667;N45.8500;13;
3;FRA;Poitou-Charentes;Charente;Chassiecq 16087;E0.3833;N45.9500;13;
3;FRA;Poitou-Charentes;Charente;Chassors 16088;W0.2167;N45.7000;13;
3;FRA;Poitou-Charentes;Charente;Châteaubernard 16089;W0.3135;N45.6715;13;
3;FRA;Poitou-Charentes;Charente;Châteauneuf-sur-Charente 16090;W0.0500;N45.6000;13;
3;FRA;Poitou-Charentes;Charente;Châtignac 16091;E0.0000;N45.3500;13;
3;FRA;Poitou-Charentes;Charente;Chavenat 16092;E0.1667;N45.4500;13;
3;FRA;Poitou-Charentes;Charente;Chazelles 16093;E0.3667;N45.6500;13;
3;FRA;Poitou-Charentes;Charente;Chenommet 16094;E0.2500;N45.9333;13;
3;FRA;Poitou-Charentes;Charente;Chenon 16095;E0.2500;N45.9500;13;
3;FRA;Poitou-Charentes;Charente;Cherves-Châtelars 16096;E0.5500;N45.8000;13;
3;FRA;Poitou-Charentes;Charente;Cherves-Richemont 16097;W0.3653;N45.7219;13;
3;FRA;Poitou-Charentes;Charente;Chillac 16099;W0.0833;N45.3667;13;
3;FRA;Poitou-Charentes;Charente;Chirac 16100;E0.6500;N45.9167;13;
3;FRA;Poitou-Charentes;Charente;Claix 16101;E0.0500;N45.5500;13;
3;FRA;Poitou-Charentes;Charente;Cognac 16102;W0.3333;N45.7000;13;
3;FRA;Poitou-Charentes;Charente;Combiers 16103;E0.4167;N45.5000;13;
3;FRA;Poitou-Charentes;Charente;Condac 16104;E0.2333;N46.0167;13;
3;FRA;Poitou-Charentes;Charente;Condéon 16105;W0.1333;N45.4000;13;
3;FRA;Poitou-Charentes;Charente;Confolens 16106;E0.6667;N46.0167;13;
3;FRA;Poitou-Charentes;Charente;Coulgens 16107;E0.2833;N45.8167;13;
3;FRA;Poitou-Charentes;Charente;Coulonges 16108;E0.0913;N45.8333;13;
3;FRA;Poitou-Charentes;Charente;Courbillac 16109;W0.1667;N45.7667;13;
3;FRA;Poitou-Charentes;Charente;Courcôme 16110;E0.1333;N45.9833;13;
3;FRA;Poitou-Charentes;Charente;Courgeac 16111;E0.0833;N45.4000;13;
3;FRA;Poitou-Charentes;Charente;Courlac 16112;E0.0833;N45.3000;13;
3;FRA;Poitou-Charentes;Charente;Couture 16114;E0.2833;N45.9333;13;
3;FRA;Poitou-Charentes;Charente;Cressac-Saint-Genis 16115;E0.0124;N45.4466;13;
3;FRA;Poitou-Charentes;Charente;Criteuil-la-Magdeleine 16116;W0.2167;N45.5333;13;
3;FRA;Poitou-Charentes;Charente;Curac 16117;E0.0333;N45.3000;13;
3;FRA;Poitou-Charentes;Charente;Deviat 16118;E0.0167;N45.4167;13;
3;FRA;Poitou-Charentes;Charente;Dignac 16119;E0.2833;N45.5500;13;
3;FRA;Poitou-Charentes;Charente;Dirac 16120;E0.2500;N45.6000;13;
3;FRA;Poitou-Charentes;Charente;Douzat 16121;E0.0000;N45.7167;13;
3;FRA;Poitou-Charentes;Charente;Ébréon 16122;E0.0333;N45.9333;13;
3;FRA;Poitou-Charentes;Charente;Échallat 16123;W0.0333;N45.7167;13;
3;FRA;Poitou-Charentes;Charente;Écuras 16124;E0.5667;N45.6833;13;
3;FRA;Poitou-Charentes;Charente;Édon 16125;E0.3500;N45.4833;13;
3;FRA;Poitou-Charentes;Charente;Embourie 16126=16253;E0.0333;N46.0333;13;
3;FRA;Poitou-Charentes;Charente;Empuré 16127;E0.0500;N46.0167;13;
3;FRA;Poitou-Charentes;Charente;Épenède 16128;E0.5333;N46.0667;13;
3;FRA;Poitou-Charentes;Charente;Éraville 16129;W0.0833;N45.5833;13;
3;FRA;Poitou-Charentes;Charente;Esse 16131;E0.7167;N46.0333;13;
3;FRA;Poitou-Charentes;Charente;Étagnac 16132;E0.7833;N45.9000;13;
3;FRA;Poitou-Charentes;Charente;Étriac 16133;W0.0167;N45.5333;13;
3;FRA;Poitou-Charentes;Charente;Exideuil 16134;E0.6833;N45.8833;13;
3;FRA;Poitou-Charentes;Charente;Eymouthiers 16135;E0.5500;N45.6500;13;
3;FRA;Poitou-Charentes;Charente;Feuillade 16137;E0.4667;N45.6000;13;
3;FRA;Poitou-Charentes;Charente;Fléac 16138;E0.1000;N45.6667;13;
3;FRA;Poitou-Charentes;Charente;Fleurac 16139;W0.0833;N45.7167;13;
3;FRA;Poitou-Charentes;Charente;Fontclaireau 16140;E0.2000;N45.8833;13;
3;FRA;Poitou-Charentes;Charente;Fontenille 16141;E0.1667;N45.9167;13;
3;FRA;Poitou-Charentes;Charente;Fouquebrune 16143;E0.2000;N45.5333;13;
3;FRA;Poitou-Charentes;Charente;Fouqueure 16144;E0.0667;N45.8833;13;
3;FRA;Poitou-Charentes;Charente;Foussignac 16145;W0.1167;N45.7167;13;
3;FRA;Poitou-Charentes;Charente;Garat 16146;E0.2667;N45.6333;13;
3;FRA;Poitou-Charentes;Charente;Gardes-le-Pontaroux 16147;E0.3333;N45.5000;13;
3;FRA;Poitou-Charentes;Charente;Genac 16148;E0.0333;N45.8000;13;
3;FRA;Poitou-Charentes;Charente;Genouillac 16149;E0.5667;N45.8500;13;
3;FRA;Poitou-Charentes;Charente;Gensac-la-Pallue 16150;W0.2500;N45.6500;13;
3;FRA;Poitou-Charentes;Charente;Genté 16151;W0.3167;N45.6167;13;
3;FRA;Poitou-Charentes;Charente;Gimeux 16152;W0.3667;N45.6333;13;
3;FRA;Poitou-Charentes;Charente;Gond-Pontouvre 16154;E0.1643;N45.6837;13;
3;FRA;Poitou-Charentes;Charente;Gondeville 16153;W0.1500;N45.6667;13;
3;FRA;Poitou-Charentes;Charente;Gourville 16156;W0.0167;N45.8333;13;
3;FRA;Poitou-Charentes;Charente;Grassac 16158;E0.4000;N45.5833;13;
3;FRA;Poitou-Charentes;Charente;Graves 16159=16297;W0.1000;N45.6500;13;
3;FRA;Poitou-Charentes;Charente;Graves-Saint-Amant 16297;W0.1088;N45.6486;13;
3;FRA;Poitou-Charentes;Charente;Guimps 16160;W0.2500;N45.4667;13;
3;FRA;Poitou-Charentes;Charente;Guizengeard 16161;W0.1000;N45.3000;13;
3;FRA;Poitou-Charentes;Charente;Gurat 16162;E0.2667;N45.4333;13;
3;FRA;Poitou-Charentes;Charente;Hiersac 16163;E0.0000;N45.6667;13;
3;FRA;Poitou-Charentes;Charente;Hiesse 16164;E0.5833;N46.0500;13;
3;FRA;Poitou-Charentes;Charente;Houlette 16165;W0.2000;N45.7667;13;
3;FRA;Poitou-Charentes;Charente;Jarnac 16167;W0.1667;N45.6833;13;
3;FRA;Poitou-Charentes;Charente;Jauldes 16168;E0.2667;N45.7833;13;
3;FRA;Poitou-Charentes;Charente;Javrezac 16169;W0.3500;N45.7000;13;
3;FRA;Poitou-Charentes;Charente;Juignac 16170;E0.1667;N45.3833;13;
3;FRA;Poitou-Charentes;Charente;Juillac-le-Coq 16171;W0.2667;N45.5833;13;
3;FRA;Poitou-Charentes;Charente;Juillaguet 16172;E0.2167;N45.4833;13;
3;FRA;Poitou-Charentes;Charente;Juillé 16173;E0.1500;N45.9167;13;
3;FRA;Poitou-Charentes;Charente;Julienne 16174;W0.2333;N45.7000;13;
3;FRA;Poitou-Charentes;Charente;Jurignac 16175;W0.0333;N45.5333;13;
3;FRA;Poitou-Charentes;Charente;L'Isle-d'Espagnac 16166;E0.2000;N45.6667;13;
3;FRA;Poitou-Charentes;Charente;La Chapelle 16081;E0.0333;N45.8500;13;
3;FRA;Poitou-Charentes;Charente;La Chèvrerie 16098;E0.1333;N46.0333;13;
3;FRA;Poitou-Charentes;Charente;La Couronne 16113;E0.1000;N45.6167;13;
3;FRA;Poitou-Charentes;Charente;La Faye 16136;E0.1500;N46.0167;13;
3;FRA;Poitou-Charentes;Charente;La Forêt-de-Tessé 16142;E0.0833;N46.0833;13;
3;FRA;Poitou-Charentes;Charente;La Magdeleine 16197;E0.0833;N46.0500;13;
3;FRA;Poitou-Charentes;Charente;La Péruse 16259;E0.6167;N45.8833;13;
3;FRA;Poitou-Charentes;Charente;La Rochefoucauld 16281;E0.3833;N45.7333;13;
3;FRA;Poitou-Charentes;Charente;La Rochette 16282;E0.3167;N45.8167;13;
3;FRA;Poitou-Charentes;Charente;La Tâche 16377;E0.3500;N45.8833;13;
3;FRA;Poitou-Charentes;Charente;Lachaise 16176;W0.2417;N45.5333;13;
3;FRA;Poitou-Charentes;Charente;Ladiville 16177;W0.0667;N45.5167;13;
3;FRA;Poitou-Charentes;Charente;Lagarde-sur-le-Né 16178;W0.2000;N45.5167;13;
3;FRA;Poitou-Charentes;Charente;Lamérac 16179;W0.2167;N45.4333;13;
3;FRA;Poitou-Charentes;Charente;Laprade 16180;E0.1833;N45.2833;13;
3;FRA;Poitou-Charentes;Charente;Le Bouchage 16054;E0.3833;N46.0500;13;
3;FRA;Poitou-Charentes;Charente;Le Grand-Madieu 16157;E0.4333;N45.9333;13;
3;FRA;Poitou-Charentes;Charente;Le Lindois 16188;E0.5833;N45.7500;13;
3;FRA;Poitou-Charentes;Charente;Le Tâtre 16380;W0.2000;N45.4000;13;
3;FRA;Poitou-Charentes;Charente;Le Vieux-Cérier 16403;E0.4333;N45.9667;13;
3;FRA;Poitou-Charentes;Charente;Les Adjots 16002;E0.2064;N46.0771;13;
3;FRA;Poitou-Charentes;Charente;Les Essards 16130;E0.1161;N45.2403;13;
3;FRA;Poitou-Charentes;Charente;Les Gours 16155;W0.0667;N45.9667;13;
3;FRA;Poitou-Charentes;Charente;Les Métairies 16220;W0.1667;N45.7000;13;
3;FRA;Poitou-Charentes;Charente;Les Pins 16261;E0.3667;N45.8333;13;
3;FRA;Poitou-Charentes;Charente;Lésignac-Durand 16183;E0.6333;N45.8167;13;
3;FRA;Poitou-Charentes;Charente;Lessac 16181;E0.6667;N46.0667;13;
3;FRA;Poitou-Charentes;Charente;Lesterps 16182;E0.7833;N46.0167;13;
3;FRA;Poitou-Charentes;Charente;Lichères 16184;E0.2167;N45.9000;13;
3;FRA;Poitou-Charentes;Charente;Ligné 16185;E0.1167;N45.9167;13;
3;FRA;Poitou-Charentes;Charente;Lignières-Sonneville 16186;W0.1833;N45.5667;13;
3;FRA;Poitou-Charentes;Charente;Linars 16187;E0.0833;N45.6500;13;
3;FRA;Poitou-Charentes;Charente;Londigny 16189;E0.1333;N46.0833;13;
3;FRA;Poitou-Charentes;Charente;Longré 16190;W0.0167;N46.0000;13;
3;FRA;Poitou-Charentes;Charente;Lonnes 16191;E0.1667;N45.9333;13;
3;FRA;Poitou-Charentes;Charente;Louzac-Saint-André 16193;W0.4004;N45.7346;13;
3;FRA;Poitou-Charentes;Charente;Lupsault 16194;W0.0667;N45.9333;13;
3;FRA;Poitou-Charentes;Charente;Lussac 16195;E0.4642;N45.8605;13;
3;FRA;Poitou-Charentes;Charente;Luxé 16196;E0.1167;N45.8833;13;
3;FRA;Poitou-Charentes;Charente;Magnac-Lavalette-Villars 16198;E0.2699;N45.5217;13;
3;FRA;Poitou-Charentes;Charente;Magnac-sur-Touvre 16199;E0.2333;N45.6667;13;
3;FRA;Poitou-Charentes;Charente;Maine-de-Boixe 16200;E0.1750;N45.8493;13;
3;FRA;Poitou-Charentes;Charente;Mainfonds 16201;E0.0167;N45.5167;13;
3;FRA;Poitou-Charentes;Charente;Mainxe 16202;W0.1833;N45.6333;13;
3;FRA;Poitou-Charentes;Charente;Mainzac 16203;E0.4833;N45.5500;13;
3;FRA;Poitou-Charentes;Charente;Malaville 16204;W0.1000;N45.5500;13;
3;FRA;Poitou-Charentes;Charente;Manot 16205;E0.6333;N45.9500;13;
3;FRA;Poitou-Charentes;Charente;Mansle 16206;E0.1833;N45.8667;13;
3;FRA;Poitou-Charentes;Charente;Marcillac-Lanville 16207;E0.0167;N45.8500;13;
3;FRA;Poitou-Charentes;Charente;Mareuil 16208;W0.1333;N45.7667;13;
3;FRA;Poitou-Charentes;Charente;Marillac-le-Franc 16209;E0.4287;N45.7355;13;
3;FRA;Poitou-Charentes;Charente;Marsac 16210;E0.0833;N45.7333;13;
3;FRA;Poitou-Charentes;Charente;Marthon 16211;E0.4500;N45.6167;13;
3;FRA;Poitou-Charentes;Charente;Massignac 16212;E0.6500;N45.7833;13;
3;FRA;Poitou-Charentes;Charente;Mazerolles 16213;E0.5340;N45.7470;13;
3;FRA;Poitou-Charentes;Charente;Mazières 16214;E0.5667;N45.8333;13;
3;FRA;Poitou-Charentes;Charente;Médillac 16215;E0.0333;N45.2333;13;
3;FRA;Poitou-Charentes;Charente;Mérignac 16216;W0.0833;N45.7000;13;
3;FRA;Poitou-Charentes;Charente;Merpins 16217;W0.4000;N45.6833;13;
3;FRA;Poitou-Charentes;Charente;Mesnac 16218;W0.3500;N45.7833;13;
3;FRA;Poitou-Charentes;Charente;Messeux 16219=16242;E0.3500;N46.0167;13;
3;FRA;Poitou-Charentes;Charente;Mons 16221;W0.0150;N45.8688;13;
3;FRA;Poitou-Charentes;Charente;Montboyer 16222;E0.0833;N45.3333;13;
3;FRA;Poitou-Charentes;Charente;Montbron 16223;E0.5000;N45.6667;13;
3;FRA;Poitou-Charentes;Charente;Montchaude 16224;W0.2000;N45.4500;13;
3;FRA;Poitou-Charentes;Charente;Montemboeuf 16225;E0.5500;N45.7667;13;
3;FRA;Poitou-Charentes;Charente;Montignac-Charente 16226;E0.1167;N45.7833;13;
3;FRA;Poitou-Charentes;Charente;Montignac-le-Coq 16227;E0.2167;N45.3333;13;
3;FRA;Poitou-Charentes;Charente;Montigné 16228;W0.0833;N45.8167;13;
3;FRA;Poitou-Charentes;Charente;Montjean 16229;E0.1167;N46.0833;13;
3;FRA;Poitou-Charentes;Charente;Montmoreau-Saint-Cybard 16230;E0.1313;N45.3984;13;
3;FRA;Poitou-Charentes;Charente;Montrollet 16231;E0.8951;N45.9811;13;
3;FRA;Poitou-Charentes;Charente;Mornac 16232;E0.2667;N45.6833;13;
3;FRA;Poitou-Charentes;Charente;Mosnac 16233;W0.0167;N45.6167;13;
3;FRA;Poitou-Charentes;Charente;Moulidars 16234;W0.0333;N45.6667;13;
3;FRA;Poitou-Charentes;Charente;Moutardon 16235=16242;E0.3000;N46.0500;13;
3;FRA;Poitou-Charentes;Charente;Mouthiers-sur-Boëme 16236;E0.1167;N45.5500;13;
3;FRA;Poitou-Charentes;Charente;Mouton 16237;E0.2500;N45.8833;13;
3;FRA;Poitou-Charentes;Charente;Moutonneau 16238;E0.2333;N45.9000;13;
3;FRA;Poitou-Charentes;Charente;Mouzon 16239;E0.6167;N45.8000;13;
3;FRA;Poitou-Charentes;Charente;Nabinaud 16240;E0.2000;N45.2833;13;
3;FRA;Poitou-Charentes;Charente;Nanclars 16241;E0.2167;N45.8500;13;
3;FRA;Poitou-Charentes;Charente;Nanteuil-en-Vallée 16242;E0.3167;N46.0000;13;
3;FRA;Poitou-Charentes;Charente;Nercillac 16243;W0.2500;N45.7167;13;
3;FRA;Poitou-Charentes;Charente;Nersac 16244;E0.0500;N45.6333;13;
3;FRA;Poitou-Charentes;Charente;Nieuil 16245;E0.5000;N45.8833;13;
3;FRA;Poitou-Charentes;Charente;Nonac 16246;E0.0500;N45.4167;13;
3;FRA;Poitou-Charentes;Charente;Nonaville 16247;W0.0833;N45.5333;13;
3;FRA;Poitou-Charentes;Charente;Oradour 16248;W0.0333;N45.9000;13;
3;FRA;Poitou-Charentes;Charente;Oradour-Fanais 16249;E0.7833;N46.1167;13;
3;FRA;Poitou-Charentes;Charente;Orgedeuil 16250;E0.5000;N45.7000;13;
3;FRA;Poitou-Charentes;Charente;Oriolles 16251;W0.1167;N45.3500;13;
3;FRA;Poitou-Charentes;Charente;Orival 16252;E0.0667;N45.2833;13;
3;FRA;Poitou-Charentes;Charente;Paizay-Naudouin-Embourie 16253;W0.0597;N45.6918;13;
3;FRA;Poitou-Charentes;Charente;Palluaud 16254;E0.2500;N45.3500;13;
3;FRA;Poitou-Charentes;Charente;Parzac 16255;E0.4167;N45.9333;13;
3;FRA;Poitou-Charentes;Charente;Passirac 16256;W0.0667;N45.3500;13;
3;FRA;Poitou-Charentes;Charente;Péreuil 16257;W0.0167;N45.4833;13;
3;FRA;Poitou-Charentes;Charente;Pérignac 16258;E0.0833;N45.4667;13;
3;FRA;Poitou-Charentes;Charente;Pillac 16260;E0.1833;N45.3167;13;
3;FRA;Poitou-Charentes;Charente;Plaizac 16262;W0.1167;N45.7500;13;
3;FRA;Poitou-Charentes;Charente;Plassac-Rouffiac 16263;E0.0667;N45.5333;13;
3;FRA;Poitou-Charentes;Charente;Pleuville 16264;E0.5000;N46.1000;13;
3;FRA;Poitou-Charentes;Charente;Porcheresse 16265=16046;E0.0333;N45.4500;13;
3;FRA;Poitou-Charentes;Charente;Pougné 16266=16242;E0.3000;N45.9833;13;
3;FRA;Poitou-Charentes;Charente;Poullignac 16267;W0.0167;N45.4000;13;
3;FRA;Poitou-Charentes;Charente;Poursac 16268;E0.2500;N45.9500;13;
3;FRA;Poitou-Charentes;Charente;Pranzac 16269;E0.3500;N45.6667;13;
3;FRA;Poitou-Charentes;Charente;Pressignac 16270;E0.7333;N45.8333;13;
3;FRA;Poitou-Charentes;Charente;Puymoyen 16271;E0.1833;N45.6167;13;
3;FRA;Poitou-Charentes;Charente;Puyréaux 16272;E0.2167;N45.8667;13;
3;FRA;Poitou-Charentes;Charente;Raix 16273;E0.1167;N46.0000;13;
3;FRA;Poitou-Charentes;Charente;Rancogne 16274;E0.4000;N45.7000;13;
3;FRA;Poitou-Charentes;Charente;Ranville-Breuillaud 16275;W0.1167;N45.9000;13;
3;FRA;Poitou-Charentes;Charente;Reignac 16276;W0.1667;N45.4167;13;
3;FRA;Poitou-Charentes;Charente;Réparsac 16277;W0.2333;N45.7333;13;
3;FRA;Poitou-Charentes;Charente;Richemont 16278=16097;W0.3667;N45.7167;13;
3;FRA;Poitou-Charentes;Charente;Rioux-Martin 16279;E0.0000;N45.2500;13;
3;FRA;Poitou-Charentes;Charente;Rivières 16280;E0.3500;N45.7500;13;
3;FRA;Poitou-Charentes;Charente;Ronsenac 16283;E0.2333;N45.4833;13;
3;FRA;Poitou-Charentes;Charente;Rouffiac 16284;E0.0833;N45.2667;13;
3;FRA;Poitou-Charentes;Charente;Rougnac 16285;E0.3500;N45.5333;13;
3;FRA;Poitou-Charentes;Charente;Rouillac 16286;W0.0667;N45.7833;13;
3;FRA;Poitou-Charentes;Charente;Roullet-Saint-Estèphe 16287;E0.0467;N45.5831;13;
3;FRA;Poitou-Charentes;Charente;Roumazières 16288=16192;E0.5833;N45.8667;13;
3;FRA;Poitou-Charentes;Charente;Roumazières-Loubert 16192;E0.5817;N45.8765;13;
3;FRA;Poitou-Charentes;Charente;Roussines 16289;E0.6167;N45.7167;13;
3;FRA;Poitou-Charentes;Charente;Rouzède 16290;E0.5500;N45.7167;13;
3;FRA;Poitou-Charentes;Charente;Ruelle-sur-Touvre 16291;E0.2333;N45.6833;13;
3;FRA;Poitou-Charentes;Charente;Ruffec 16292;E0.2000;N46.0167;13;
3;FRA;Poitou-Charentes;Charente;Saint-Adjutory 16293;E0.4833;N45.7667;13;
3;FRA;Poitou-Charentes;Charente;Saint-Amant 16294;E0.1500;N45.4000;13;
3;FRA;Poitou-Charentes;Charente;Saint-Amant-de-Boixe 16295;E0.1333;N45.8000;13;
3;FRA;Poitou-Charentes;Charente;Saint-Amant-de-Bonnieure 16296;E0.3000;N45.8667;13;
3;FRA;Poitou-Charentes;Charente;Saint-Amant-de-Nouère 16298;E0.0000;N45.7500;13;
3;FRA;Poitou-Charentes;Charente;Saint-André 16299=16193;W0.4000;N45.7333;13;
3;FRA;Poitou-Charentes;Charente;Saint-Angeau 16300;E0.2833;N45.8500;13;
3;FRA;Poitou-Charentes;Charente;Saint-Aulais-la-Chapelle 16301;W0.0500;N45.4500;13;
3;FRA;Poitou-Charentes;Charente;Saint-Avit 16302;E0.0500;N45.2333;13;
3;FRA;Poitou-Charentes;Charente;Saint-Bonnet 16303;W0.1000;N45.4833;13;
3;FRA;Poitou-Charentes;Charente;Saint-Brice 16304;W0.2833;N45.6833;13;
3;FRA;Poitou-Charentes;Charente;Saint-Christophe 16305=16073;E0.0480;N45.2710;13;
3;FRA;Poitou-Charentes;Charente;Saint-Christophe 16306;E0.8501;N46.0031;13;
3;FRA;Poitou-Charentes;Charente;Saint-Ciers-sur-Bonnieure 16307;E0.2333;N45.8500;13;
3;FRA;Poitou-Charentes;Charente;Saint-Claud 16308;E0.4667;N45.9000;13;
3;FRA;Poitou-Charentes;Charente;Saint-Coutant 16310;E0.4485;N46.0036;13;
3;FRA;Poitou-Charentes;Charente;Saint-Cybard 16311=16230;E0.1399;N45.4216;13;
3;FRA;Poitou-Charentes;Charente;Saint-Cybardeaux 16312;W0.0167;N45.7667;13;
3;FRA;Poitou-Charentes;Charente;Saint-Estèphe 16313=16287;E0.0167;N45.5833;13;
3;FRA;Poitou-Charentes;Charente;Saint-Eutrope 16314;E0.1167;N45.4167;13;
3;FRA;Poitou-Charentes;Charente;Saint-Félix 16315;E0.0098;N45.3743;13;
3;FRA;Poitou-Charentes;Charente;Saint-Fort-sur-le-Né 16316;W0.3000;N45.5833;13;
3;FRA;Poitou-Charentes;Charente;Saint-Fraigne 16317;E0.0000;N45.9500;13;
3;FRA;Poitou-Charentes;Charente;Saint-Front 16318;E0.2667;N45.9000;13;
3;FRA;Poitou-Charentes;Charente;Saint-Genis-d'Hiersac 16320;E0.0333;N45.7500;13;
3;FRA;Poitou-Charentes;Charente;Saint-Genis-de-Blanzac 16319=16115;E0.0333;N45.4500;13;
3;FRA;Poitou-Charentes;Charente;Saint-Georges 16321;E0.2667;N45.9667;13;
3;FRA;Poitou-Charentes;Charente;Saint-Germain-de-Confolens 16322;E0.6833;N46.0500;13;
3;FRA;Poitou-Charentes;Charente;Saint-Germain-de-Montbron 16323;E0.4167;N45.6333;13;
3;FRA;Poitou-Charentes;Charente;Saint-Gervais 16324=16242;E0.3500;N45.9833;13;
3;FRA;Poitou-Charentes;Charente;Saint-Gourson 16325;E0.3167;N45.9500;13;
3;FRA;Poitou-Charentes;Charente;Saint-Groux 16326;E0.1667;N45.9000;13;
3;FRA;Poitou-Charentes;Charente;Saint-Hilaire 16327=16028;W0.1667;N45.4667;13;
3;FRA;Poitou-Charentes;Charente;Saint-Laurent-de-Belzagot 16328;E0.1167;N45.3833;13;
3;FRA;Poitou-Charentes;Charente;Saint-Laurent-de-Céris 16329;E0.4833;N45.9500;13;
3;FRA;Poitou-Charentes;Charente;Saint-Laurent-de-Cognac 16330;W0.4000;N45.7000;13;
3;FRA;Poitou-Charentes;Charente;Saint-Laurent-des-Combes 16331;E0.0333;N45.3500;13;
3;FRA;Poitou-Charentes;Charente;Saint-Léger 16332;E0.0448;N45.4597;13;
3;FRA;Poitou-Charentes;Charente;Saint-Martial 16334;E0.0574;N45.3715;13;
3;FRA;Poitou-Charentes;Charente;Saint-Martin-du-Clocher 16335;E0.1500;N46.0500;13;
3;FRA;Poitou-Charentes;Charente;Saint-Mary 16336;E0.3667;N45.8500;13;
3;FRA;Poitou-Charentes;Charente;Saint-Maurice-des-Lions 16337;E0.7000;N45.9667;13;
3;FRA;Poitou-Charentes;Charente;Saint-Médard 16338;W0.3548;N45.3979;13;
3;FRA;Poitou-Charentes;Charente;Saint-Même-les-Carrières 16340;W0.1500;N45.6500;13;
3;FRA;Poitou-Charentes;Charente;Saint-Michel 16341;E0.1000;N45.6500;13;
3;FRA;Poitou-Charentes;Charente;Saint-Palais-du-Né 16342;W0.2667;N45.5500;13;
3;FRA;Poitou-Charentes;Charente;Saint-Preuil 16343;W0.1667;N45.6000;13;
3;FRA;Poitou-Charentes;Charente;Saint-Projet-Saint-Constant 16344;E0.3500;N45.7333;13;
3;FRA;Poitou-Charentes;Charente;Saint-Quentin-de-Chalais 16346;E0.0667;N45.2667;13;
3;FRA;Poitou-Charentes;Charente;Saint-Quentin-sur-Charente 16345;E0.6833;N45.8333;13;
3;FRA;Poitou-Charentes;Charente;Saint-Romain 16347;E0.1473;N45.2769;13;
3;FRA;Poitou-Charentes;Charente;Saint-Saturnin 16348;E0.0500;N45.6667;13;
3;FRA;Poitou-Charentes;Charente;Saint-Séverin 16350;E0.2500;N45.3167;13;
3;FRA;Poitou-Charentes;Charente;Saint-Simeux 16351;W0.0333;N45.6333;13;
3;FRA;Poitou-Charentes;Charente;Saint-Simon 16352;W0.0667;N45.6500;13;
3;FRA;Poitou-Charentes;Charente;Saint-Sornin 16353;E0.4333;N45.7000;13;
3;FRA;Poitou-Charentes;Charente;Saint-Sulpice-de-Cognac 16355;W0.3833;N45.7667;13;
3;FRA;Poitou-Charentes;Charente;Saint-Sulpice-de-Ruffec 16356;E0.3167;N45.9417;13;
3;FRA;Poitou-Charentes;Charente;Saint-Vallier 16357;W0.0500;N45.3000;13;
3;FRA;Poitou-Charentes;Charente;Saint-Yrieix-sur-Charente 16358;E0.1167;N45.6833;13;
3;FRA;Poitou-Charentes;Charente;Sainte-Colombe 16309;E0.3193;N45.8331;13;
3;FRA;Poitou-Charentes;Charente;Sainte-Marie 16333=16073;E0.0500;N45.2833;13;
3;FRA;Poitou-Charentes;Charente;Sainte-Sévère 16349;W0.2333;N45.7500;13;
3;FRA;Poitou-Charentes;Charente;Sainte-Souline 16354;W0.0167;N45.3833;13;
3;FRA;Poitou-Charentes;Charente;Salles-d'Angles 16359;W0.3333;N45.6167;13;
3;FRA;Poitou-Charentes;Charente;Salles-de-Barbezieux 16360;W0.1333;N45.4500;13;
3;FRA;Poitou-Charentes;Charente;Salles-de-Villefagnan 16361;E0.1667;N45.9500;13;
3;FRA;Poitou-Charentes;Charente;Salles-Lavalette 16362;E0.2333;N45.3833;13;
3;FRA;Poitou-Charentes;Charente;Saulgond 16363;E0.7833;N45.9500;13;
3;FRA;Poitou-Charentes;Charente;Sauvagnac 16364;E0.6500;N45.7500;13;
3;FRA;Poitou-Charentes;Charente;Sauvignac 16365;W0.0833;N45.2500;13;
3;FRA;Poitou-Charentes;Charente;Segonzac 16366;W0.2167;N45.6167;13;
3;FRA;Poitou-Charentes;Charente;Sérignac 16367=16073;E0.0333;N45.2667;13;
3;FRA;Poitou-Charentes;Charente;Sers 16368;E0.3167;N45.6000;13;
3;FRA;Poitou-Charentes;Charente;Sigogne 16369;W0.1500;N45.7333;13;
3;FRA;Poitou-Charentes;Charente;Sireuil 16370;E0.0167;N45.6167;13;
3;FRA;Poitou-Charentes;Charente;Sonneville 16371;W0.1333;N45.8000;13;
3;FRA;Poitou-Charentes;Charente;Souffrignac 16372;E0.5000;N45.5833;13;
3;FRA;Poitou-Charentes;Charente;Souvigné 16373;E0.0667;N45.9667;13;
3;FRA;Poitou-Charentes;Charente;Soyaux 16374;E0.2000;N45.6500;13;
3;FRA;Poitou-Charentes;Charente;Suaux 16375;E0.5167;N45.8500;13;
3;FRA;Poitou-Charentes;Charente;Suris 16376;E0.6333;N45.8500;13;
3;FRA;Poitou-Charentes;Charente;Taizé-Aizie 16378;E0.2333;N46.0500;13;
3;FRA;Poitou-Charentes;Charente;Taponnat-Fleurignac 16379;E0.3833;N45.7833;13;
3;FRA;Poitou-Charentes;Charente;Theil-Rabier 16381;E0.0333;N46.0500;13;
3;FRA;Poitou-Charentes;Charente;Torsac 16382;E0.2167;N45.5667;13;
3;FRA;Poitou-Charentes;Charente;Tourriers 16383;E0.1833;N45.8000;13;
3;FRA;Poitou-Charentes;Charente;Touvérac 16384;W0.2000;N45.3833;13;
3;FRA;Poitou-Charentes;Charente;Touvre 16385;E0.2500;N45.6667;13;
3;FRA;Poitou-Charentes;Charente;Touzac 16386;W0.1500;N45.5500;13;
3;FRA;Poitou-Charentes;Charente;Triac-Lautrait 16387;W0.1167;N45.6667;13;
3;FRA;Poitou-Charentes;Charente;Trois-Palis 16388;E0.0500;N45.6333;13;
3;FRA;Poitou-Charentes;Charente;Turgon 16389;E0.4000;N45.9500;13;
3;FRA;Poitou-Charentes;Charente;Tusson 16390;E0.0667;N45.9333;13;
3;FRA;Poitou-Charentes;Charente;Tuzie 16391;E0.1500;N45.9667;13;
3;FRA;Poitou-Charentes;Charente;Valence 16392;E0.3000;N45.8833;13;
3;FRA;Poitou-Charentes;Charente;Vars 16393;E0.1167;N45.7667;13;
3;FRA;Poitou-Charentes;Charente;Vaux-Lavalette 16394;E0.2333;N45.4167;13;
3;FRA;Poitou-Charentes;Charente;Vaux-Rouillac 16395;W0.0833;N45.7500;13;
3;FRA;Poitou-Charentes;Charente;Ventouse 16396;E0.3333;N45.9000;13;
3;FRA;Poitou-Charentes;Charente;Verdille 16397;W0.1000;N45.8833;13;
3;FRA;Poitou-Charentes;Charente;Verneuil 16398;E0.7000;N45.7833;13;
3;FRA;Poitou-Charentes;Charente;Verrières 16399;W0.2667;N45.5711;13;
3;FRA;Poitou-Charentes;Charente;Verteuil-sur-Charente 16400;E0.2333;N45.9833;13;
3;FRA;Poitou-Charentes;Charente;Vervant 16401;E0.1167;N45.8333;13;
3;FRA;Poitou-Charentes;Charente;Vibrac 16402;W0.3417;N45.3553;13;
3;FRA;Poitou-Charentes;Charente;Vieux-Ruffec 16404;E0.3833;N46.0167;13;
3;FRA;Poitou-Charentes;Charente;Vignolles 16405;W0.0833;N45.5167;13;
3;FRA;Poitou-Charentes;Charente;Vilhonneur 16406;E0.4167;N45.6833;13;
3;FRA;Poitou-Charentes;Charente;Villars 16407=16198;E0.2692;N45.5217;13;
3;FRA;Poitou-Charentes;Charente;Villebois-Lavalette 16408;E0.2833;N45.4833;13;
3;FRA;Poitou-Charentes;Charente;Villefagnan 16409;E0.0833;N46.0167;13;
3;FRA;Poitou-Charentes;Charente;Villegats 16410;E0.2000;N45.9833;13;
3;FRA;Poitou-Charentes;Charente;Villejésus 16411;E0.0333;N45.9000;13;
3;FRA;Poitou-Charentes;Charente;Villejoubert 16412;E0.1833;N45.8000;13;
3;FRA;Poitou-Charentes;Charente;Villiers-le-Roux 16413;E0.1000;N46.0500;13;
3;FRA;Poitou-Charentes;Charente;Villognon 16414;E0.1000;N45.8667;13;
3;FRA;Poitou-Charentes;Charente;Vindelle 16415;E0.1167;N45.7167;13;
3;FRA;Poitou-Charentes;Charente;Vitrac-Saint-Vincent 16416;E0.5000;N45.8000;13;
3;FRA;Poitou-Charentes;Charente;Viville 16417;W0.1167;N45.5167;13;
3;FRA;Poitou-Charentes;Charente;Voeuil-et-Giget 16418;E0.1500;N45.5833;13;
3;FRA;Poitou-Charentes;Charente;Vouharte 16419;E0.0667;N45.8167;13;
3;FRA;Poitou-Charentes;Charente;Voulgézac 16420;E0.1167;N45.5167;13;
3;FRA;Poitou-Charentes;Charente;Vouthon 16421;E0.4667;N45.6667;13;
3;FRA;Poitou-Charentes;Charente;Vouzan 16422;E0.3500;N45.6000;13;
3;FRA;Poitou-Charentes;Charente;Xambes 16423;E0.1000;N45.8333;13;
3;FRA;Poitou-Charentes;Charente;Yviers 16424;E0.0000;N45.2833;13;
3;FRA;Poitou-Charentes;Charente;Yvrac-et-Malleyrand 16425;E0.4500;N45.7500;13;
2;FRA;Poitou-Charentes;Charente-Maritime;;W0.65;N45.88;9;
3;FRA;Poitou-Charentes;Charente-Maritime;Agonnay 17001=17397;W0.7333;N45.8833;13;
3;FRA;Poitou-Charentes;Charente-Maritime;Agudelle 17002;W0.4667;N45.3833;13;
3;FRA;Poitou-Charentes;Charente-Maritime;Aigrefeuille-d'Aunis 17003;W0.9333;N46.1167;13;
3;FRA;Poitou-Charentes;Charente-Maritime;Allas-Bocage 17005;W0.4833;N45.3833;13;
3;FRA;Poitou-Charentes;Charente-Maritime;Allas-Champagne 17006;W0.3333;N45.4667;13;
3;FRA;Poitou-Charentes;Charente-Maritime;Anais 17007;W0.9083;N46.1833;13;
3;FRA;Poitou-Charentes;Charente-Maritime;Andilly 17008;W1.0333;N46.2500;13;
3;FRA;Poitou-Charentes;Charente-Maritime;Angliers 17009;W0.9533;N46.2103;13;
3;FRA;Poitou-Charentes;Charente-Maritime;Angoulins 17010;W1.1101;N46.1054;13;
3;FRA;Poitou-Charentes;Charente-Maritime;Annepont 17011;W0.6167;N45.8500;13;
3;FRA;Poitou-Charentes;Charente-Maritime;Annezay 17012;W0.7167;N46.0167;13;
3;FRA;Poitou-Charentes;Charente-Maritime;Antezant-la-Chapelle 17013;W0.4554;N45.9817;13;
3;FRA;Poitou-Charentes;Charente-Maritime;Antignac 17014=17332;W0.4667;N45.5000;13;
3;FRA;Poitou-Charentes;Charente-Maritime;Arces 17015;W0.8625;N45.5553;13;
3;FRA;Poitou-Charentes;Charente-Maritime;Archiac 17016;W0.3000;N45.5167;13;
3;FRA;Poitou-Charentes;Charente-Maritime;Archingeay 17017;W0.7000;N45.9333;13;
3;FRA;Poitou-Charentes;Charente-Maritime;Ardillières 17018;W0.8833;N46.0500;13;
3;FRA;Poitou-Charentes;Charente-Maritime;Ars-en-Ré 17019;W1.5167;N46.2083;13;
3;FRA;Poitou-Charentes;Charente-Maritime;Arthenac 17020;W0.3167;N45.5167;13;
3;FRA;Poitou-Charentes;Charente-Maritime;Arvert 17021;W1.1333;N45.7333;13;
3;FRA;Poitou-Charentes;Charente-Maritime;Asnières-la-Giraud 17022;W0.5000;N45.8833;13;
3;FRA;Poitou-Charentes;Charente-Maritime;Aujac 17023;W0.4000;N45.8500;13;
3;FRA;Poitou-Charentes;Charente-Maritime;Aulnay 17024;W0.3465;N46.0210;13;
3;FRA;Poitou-Charentes;Charente-Maritime;Aumagne 17025;W0.4000;N45.8667;13;
3;FRA;Poitou-Charentes;Charente-Maritime;Authon-Ébéon 17026;W0.4087;N45.8367;13;
3;FRA;Poitou-Charentes;Charente-Maritime;Avy 17027;W0.5000;N45.5500;13;
3;FRA;Poitou-Charentes;Charente-Maritime;Aytré 17028;W1.1000;N46.1333;13;
3;FRA;Poitou-Charentes;Charente-Maritime;Bagnizeau 17029;W0.3167;N45.8833;13;
3;FRA;Poitou-Charentes;Charente-Maritime;Balanzac 17030;W0.8333;N45.7333;13;
3;FRA;Poitou-Charentes;Charente-Maritime;Ballans 17031;W0.2167;N45.8167;13;
3;FRA;Poitou-Charentes;Charente-Maritime;Ballon 17032;W0.9500;N46.0500;13;
3;FRA;Poitou-Charentes;Charente-Maritime;Barzan 17034;W0.8500;N45.5333;13;
3;FRA;Poitou-Charentes;Charente-Maritime;Bazauges 17035;W0.1667;N45.9167;13;
3;FRA;Poitou-Charentes;Charente-Maritime;Beaugeay 17036;W0.9833;N45.8667;13;
3;FRA;Poitou-Charentes;Charente-Maritime;Beauvais-sur-Matha 17037;W0.1833;N45.8833;13;
3;FRA;Poitou-Charentes;Charente-Maritime;Bedenac 17038;W0.3000;N45.1667;13;
3;FRA;Poitou-Charentes;Charente-Maritime;Belluire 17039;W0.5667;N45.5333;13;
3;FRA;Poitou-Charentes;Charente-Maritime;Benon 17041;W0.8167;N46.2000;13;
3;FRA;Poitou-Charentes;Charente-Maritime;Bercloux 17042;W0.4667;N45.8333;13;
3;FRA;Poitou-Charentes;Charente-Maritime;Bernay-Saint-Martin 17043;W0.6206;N46.0654;13;
3;FRA;Poitou-Charentes;Charente-Maritime;Berneuil 17044;W0.6000;N45.6500;13;
3;FRA;Poitou-Charentes;Charente-Maritime;Beurlay 17045;W0.8333;N45.8667;13;
3;FRA;Poitou-Charentes;Charente-Maritime;Bignay 17046;W0.6000;N45.9167;13;
3;FRA;Poitou-Charentes;Charente-Maritime;Biron 17047;W0.4667;N45.5667;13;
3;FRA;Poitou-Charentes;Charente-Maritime;Blanzac-lès-Matha 17048;W0.3500;N45.8667;13;
3;FRA;Poitou-Charentes;Charente-Maritime;Blanzay-sur-Boutonne 17049;W0.4333;N46.0500;13;
3;FRA;Poitou-Charentes;Charente-Maritime;Bois 17050;W0.6000;N45.4833;13;
3;FRA;Poitou-Charentes;Charente-Maritime;Boisredon 17052;W0.5333;N45.3167;13;
3;FRA;Poitou-Charentes;Charente-Maritime;Bords 17053;W0.8000;N45.9000;13;
3;FRA;Poitou-Charentes;Charente-Maritime;Boresse-et-Martron 17054;W0.1167;N45.2833;13;
3;FRA;Poitou-Charentes;Charente-Maritime;Boscamnant 17055;W0.0667;N45.2000;13;
3;FRA;Poitou-Charentes;Charente-Maritime;Bougneau 17056;W0.5167;N45.6000;13;
3;FRA;Poitou-Charentes;Charente-Maritime;Bouhet 17057;W0.8667;N46.1667;13;
3;FRA;Poitou-Charentes;Charente-Maritime;Bourcefranc-le-Chapus 17058;W1.1455;N45.8469;13;
3;FRA;Poitou-Charentes;Charente-Maritime;Bourgneuf 17059;W1.0167;N46.1667;13;
3;FRA;Poitou-Charentes;Charente-Maritime;Boutenac-Touvent 17060;W0.7573;N45.5049;13;
3;FRA;Poitou-Charentes;Charente-Maritime;Bran 17061;W0.2667;N45.3500;13;
3;FRA;Poitou-Charentes;Charente-Maritime;Bresdon 17062;W0.1500;N45.8833;13;
3;FRA;Poitou-Charentes;Charente-Maritime;Breuil-la-Réorte 17063;W0.6833;N46.0500;13;
3;FRA;Poitou-Charentes;Charente-Maritime;Breuil-Magné 17065;W0.9667;N45.9833;13;
3;FRA;Poitou-Charentes;Charente-Maritime;Breuillet 17064;W1.0500;N45.7000;13;
3;FRA;Poitou-Charentes;Charente-Maritime;Brie-sous-Archiac 17066;W0.3000;N45.4833;13;
3;FRA;Poitou-Charentes;Charente-Maritime;Brie-sous-Matha 17067;W0.2500;N45.8167;13;
3;FRA;Poitou-Charentes;Charente-Maritime;Brie-sous-Mortagne 17068;W0.7500;N45.5000;13;
3;FRA;Poitou-Charentes;Charente-Maritime;Brives-sur-Charente 17069;W0.4667;N45.6667;13;
3;FRA;Poitou-Charentes;Charente-Maritime;Brizambourg 17070;W0.4833;N45.8167;13;
3;FRA;Poitou-Charentes;Charente-Maritime;Burie 17072;W1.0667;N45.8667;13;
3;FRA;Poitou-Charentes;Charente-Maritime;Bussac-Forêt 17074;W0.4167;N45.7667;13;
3;FRA;Poitou-Charentes;Charente-Maritime;Bussac-sur-Charente 17073;W0.3667;N45.2167;13;
3;FRA;Poitou-Charentes;Charente-Maritime;Cabariot 17075;W0.8500;N45.9167;13;
3;FRA;Poitou-Charentes;Charente-Maritime;Celles 17076;W0.3667;N45.6000;13;
3;FRA;Poitou-Charentes;Charente-Maritime;Cercoux 17077;W0.2000;N45.1333;13;
3;FRA;Poitou-Charentes;Charente-Maritime;Chadenac 17078;W0.4333;N45.5500;13;
3;FRA;Poitou-Charentes;Charente-Maritime;Chaillevette 17079;W1.0500;N45.7333;13;
3;FRA;Poitou-Charentes;Charente-Maritime;Chambon 17080;W0.8500;N46.1333;13;
3;FRA;Poitou-Charentes;Charente-Maritime;Chamouillac 17081;W0.4667;N45.3167;13;
3;FRA;Poitou-Charentes;Charente-Maritime;Champagnac 17082;W0.3833;N45.4167;13;
3;FRA;Poitou-Charentes;Charente-Maritime;Champagne 17083;W0.9167;N45.8333;13;
3;FRA;Poitou-Charentes;Charente-Maritime;Champagnolles 17084;W0.6333;N45.5167;13;
3;FRA;Poitou-Charentes;Charente-Maritime;Champdolent 17085;W0.8000;N45.9167;13;
3;FRA;Poitou-Charentes;Charente-Maritime;Chaniers 17086;W0.5500;N45.7167;13;
3;FRA;Poitou-Charentes;Charente-Maritime;Chantemerle-sur-la-Soie 17087;W0.6500;N45.9833;13;
3;FRA;Poitou-Charentes;Charente-Maritime;Chardes 17090=17240;W0.3833;N45.3000;13;
3;FRA;Poitou-Charentes;Charente-Maritime;Charron 17091;W1.1000;N46.2833;13;
3;FRA;Poitou-Charentes;Charente-Maritime;Chartuzac 17092;W0.4167;N45.3333;13;
3;FRA;Poitou-Charentes;Charente-Maritime;Châtelaillon-Plage 17094;W1.0833;N46.0667;13;
3;FRA;Poitou-Charentes;Charente-Maritime;Chatenet 17095;W0.3000;N45.3000;13;
3;FRA;Poitou-Charentes;Charente-Maritime;Chaunac 17096;W1.3750;N45.9917;13;
3;FRA;Poitou-Charentes;Charente-Maritime;Chenac-Saint-Seurin-d'Uzet 17098;W0.3667;N45.3667;13;
3;FRA;Poitou-Charentes;Charente-Maritime;Chepniers 17099;W0.3000;N45.2500;13;
3;FRA;Poitou-Charentes;Charente-Maritime;Chérac 17100;W0.4333;N45.7000;13;
3;FRA;Poitou-Charentes;Charente-Maritime;Cherbonnières 17101;W0.3500;N45.9667;13;
3;FRA;Poitou-Charentes;Charente-Maritime;Chermignac 17102;W0.6667;N45.6833;13;
3;FRA;Poitou-Charentes;Charente-Maritime;Chervettes 17103;W0.7000;N46.0500;13;
3;FRA;Poitou-Charentes;Charente-Maritime;Chevanceaux 17104;W0.2333;N45.3000;13;
3;FRA;Poitou-Charentes;Charente-Maritime;Chives 17105;W0.1167;N45.9500;13;
3;FRA;Poitou-Charentes;Charente-Maritime;Cierzac 17106;W0.3167;N45.5667;13;
3;FRA;Poitou-Charentes;Charente-Maritime;Ciré-d'Aunis 17107;W0.9333;N46.0500;13;
3;FRA;Poitou-Charentes;Charente-Maritime;Clam 17108;W0.4500;N45.5000;13;
3;FRA;Poitou-Charentes;Charente-Maritime;Clavette 17109;W1.0167;N46.1333;13;
3;FRA;Poitou-Charentes;Charente-Maritime;Clérac 17110;W0.2167;N45.1833;13;
3;FRA;Poitou-Charentes;Charente-Maritime;Clion 17111;W0.5000;N45.4833;13;
3;FRA;Poitou-Charentes;Charente-Maritime;Coivert 17114;W0.4500;N46.0667;13;
3;FRA;Poitou-Charentes;Charente-Maritime;Colombiers 17115;W0.5500;N45.6500;13;
3;FRA;Poitou-Charentes;Charente-Maritime;Consac 17116;W0.6000;N45.4167;13;
3;FRA;Poitou-Charentes;Charente-Maritime;Contré 17117;W0.2833;N46.0167;13;
3;FRA;Poitou-Charentes;Charente-Maritime;Corignac 17118;W0.3833;N45.2500;13;
3;FRA;Poitou-Charentes;Charente-Maritime;Corme-Écluse 17119;W0.8500;N45.6333;13;
3;FRA;Poitou-Charentes;Charente-Maritime;Corme-Royal 17120;W0.8167;N45.7500;13;
3;FRA;Poitou-Charentes;Charente-Maritime;Coulonge-sur-Charente 17123=17397;W0.6839;N45.8539;13;
3;FRA;Poitou-Charentes;Charente-Maritime;Coulonges 17122;W0.4237;N45.6098;13;
3;FRA;Poitou-Charentes;Charente-Maritime;Courant 17124;W0.5667;N46.0333;13;
3;FRA;Poitou-Charentes;Charente-Maritime;Courcelles 17125;W0.4727;N45.9530;13;
3;FRA;Poitou-Charentes;Charente-Maritime;Courcerac 17126;W0.3667;N45.8333;13;
3;FRA;Poitou-Charentes;Charente-Maritime;Courçon 17127;W0.8167;N46.2500;13;
3;FRA;Poitou-Charentes;Charente-Maritime;Courcoury 17128;W0.5833;N45.7167;13;
3;FRA;Poitou-Charentes;Charente-Maritime;Courpignac 17129;W0.4833;N45.3333;13;
3;FRA;Poitou-Charentes;Charente-Maritime;Coux 17130;W0.4167;N45.3167;13;
3;FRA;Poitou-Charentes;Charente-Maritime;Cozes 17131;W0.8333;N45.5833;13;
3;FRA;Poitou-Charentes;Charente-Maritime;Cramchaban 17132;W0.7167;N46.2167;13;
3;FRA;Poitou-Charentes;Charente-Maritime;Cravans 17133;W0.7000;N45.6000;13;
3;FRA;Poitou-Charentes;Charente-Maritime;Crazannes 17134;W0.7000;N45.8500;13;
3;FRA;Poitou-Charentes;Charente-Maritime;Cressé 17135;W0.2167;N45.9167;13;
3;FRA;Poitou-Charentes;Charente-Maritime;Croix-Chapeau 17136;W1.0000;N46.1000;13;
3;FRA;Poitou-Charentes;Charente-Maritime;Dampierre-sur-Boutonne 17138;W0.4000;N46.0667;13;
3;FRA;Poitou-Charentes;Charente-Maritime;Dolus-d'Oléron 17140;W1.2646;N45.9106;13;
3;FRA;Poitou-Charentes;Charente-Maritime;Dompierre-sur-Charente 17141;W0.4833;N45.7000;13;
3;FRA;Poitou-Charentes;Charente-Maritime;Dompierre-sur-Mer 17142;W1.0667;N46.1833;13;
3;FRA;Poitou-Charentes;Charente-Maritime;Doeuil-sur-le-Mignon 17139;W0.5333;N46.1167;13;
3;FRA;Poitou-Charentes;Charente-Maritime;Ébéon 17144=17026;W0.4333;N45.8667;13;
3;FRA;Poitou-Charentes;Charente-Maritime;Échebrune 17145;W0.4500;N45.5833;13;
3;FRA;Poitou-Charentes;Charente-Maritime;Échillais 17146;W0.9500;N45.9000;13;
3;FRA;Poitou-Charentes;Charente-Maritime;Écoyeux 17147;W0.5000;N45.8167;13;
3;FRA;Poitou-Charentes;Charente-Maritime;Écurat 17148;W0.6667;N45.7833;13;
3;FRA;Poitou-Charentes;Charente-Maritime;Épargnes 17152;W0.8000;N45.5500;13;
3;FRA;Poitou-Charentes;Charente-Maritime;Esnandes 17153;W1.0833;N46.2500;13;
3;FRA;Poitou-Charentes;Charente-Maritime;Étaules 17155;W1.1000;N45.7333;13;
3;FRA;Poitou-Charentes;Charente-Maritime;Expiremont 17156;W0.3667;N45.3167;13;
3;FRA;Poitou-Charentes;Charente-Maritime;Fenioux 17157;W0.6000;N45.9000;13;
3;FRA;Poitou-Charentes;Charente-Maritime;Ferrières 17158;W0.8500;N46.2333;13;
3;FRA;Poitou-Charentes;Charente-Maritime;Fléac-sur-Seugne 17159;W0.5333;N45.5333;13;
3;FRA;Poitou-Charentes;Charente-Maritime;Floirac 17160;W0.7500;N45.4833;13;
3;FRA;Poitou-Charentes;Charente-Maritime;Fontaine-Chalendray 17162;W0.1833;N45.9500;13;
3;FRA;Poitou-Charentes;Charente-Maritime;Fontaines-d'Ozillac 17163;W0.3833;N45.3833;13;
3;FRA;Poitou-Charentes;Charente-Maritime;Fontcouverte 17164;W0.5833;N45.7667;13;
3;FRA;Poitou-Charentes;Charente-Maritime;Fontenet 17165;W0.4500;N45.9167;13;
3;FRA;Poitou-Charentes;Charente-Maritime;Forges 17166;W0.9000;N46.1000;13;
3;FRA;Poitou-Charentes;Charente-Maritime;Fouras 17168;W1.1000;N45.9833;13;
3;FRA;Poitou-Charentes;Charente-Maritime;Geay 17171;W0.7667;N45.8667;13;
3;FRA;Poitou-Charentes;Charente-Maritime;Gémozac 17172;W0.6667;N45.5667;13;
3;FRA;Poitou-Charentes;Charente-Maritime;Genouillé 17174;W0.7833;N46.0167;13;
3;FRA;Poitou-Charentes;Charente-Maritime;Germignac 17175;W0.3333;N45.5667;13;
3;FRA;Poitou-Charentes;Charente-Maritime;Gibourne 17176;W0.3000;N45.9333;13;
3;FRA;Poitou-Charentes;Charente-Maritime;Givrezac 17178;W0.6333;N45.5500;13;
3;FRA;Poitou-Charentes;Charente-Maritime;Gourvillette 17180;W0.2167;N45.8833;13;
3;FRA;Poitou-Charentes;Charente-Maritime;Grandjean 17181;W0.6000;N45.8667;13;
3;FRA;Poitou-Charentes;Charente-Maritime;Grézac 17183;W0.8500;N45.6000;13;
3;FRA;Poitou-Charentes;Charente-Maritime;Guitinières 17187;W0.5167;N45.4333;13;
3;FRA;Poitou-Charentes;Charente-Maritime;Haimps 17188;W0.2500;N45.8667;13;
3;FRA;Poitou-Charentes;Charente-Maritime;Hiers-Brouage 17189;W1.0667;N45.8500;13;
3;FRA;Poitou-Charentes;Charente-Maritime;Île-d'Aix 17004;W1.1750;N46.0167;13;
3;FRA;Poitou-Charentes;Charente-Maritime;Jarnac-Champagne 17192;W0.4000;N45.5667;13;
3;FRA;Poitou-Charentes;Charente-Maritime;Jazennes 17196;W0.6167;N45.5833;13;
3;FRA;Poitou-Charentes;Charente-Maritime;Jonzac 17197;W0.4333;N45.4500;13;
3;FRA;Poitou-Charentes;Charente-Maritime;Juicq 17198;W0.5667;N45.8500;13;
3;FRA;Poitou-Charentes;Charente-Maritime;Jussas 17199;W0.3500;N45.2833;13;
3;FRA;Poitou-Charentes;Charente-Maritime;L'Éguille 17151;W0.9833;N45.7000;13;
3;FRA;Poitou-Charentes;Charente-Maritime;L'Houmeau 17190;W1.1667;N46.1833;13;
3;FRA;Poitou-Charentes;Charente-Maritime;La Barde 17033;W0.0333;N45.1333;13;
3;FRA;Poitou-Charentes;Charente-Maritime;La Benâte 17040;W0.5667;N46.0000;13;
3;FRA;Poitou-Charentes;Charente-Maritime;La Brée-les-Bains 17486;W1.3500;N46.0167;13;
3;FRA;Poitou-Charentes;Charente-Maritime;La Brousse 17071;W0.3667;N45.8833;13;
3;FRA;Poitou-Charentes;Charente-Maritime;La Chapelle-Bâton 17088=17013;W0.4849;N46.0081;13;
3;FRA;Poitou-Charentes;Charente-Maritime;La Chapelle-des-Pots 17089;W0.5333;N45.7667;13;
3;FRA;Poitou-Charentes;Charente-Maritime;La Clisse 17112;W0.7667;N45.7333;13;
3;FRA;Poitou-Charentes;Charente-Maritime;La Clotte 17113;W0.1500;N45.1167;13;
3;FRA;Poitou-Charentes;Charente-Maritime;La Couarde-sur-Mer 17121;W1.4000;N46.2000;13;
3;FRA;Poitou-Charentes;Charente-Maritime;La Croix-Comtesse 17137;W0.4833;N46.0833;13;
3;FRA;Poitou-Charentes;Charente-Maritime;La Flotte 17161;W1.3333;N46.1833;13;
3;FRA;Poitou-Charentes;Charente-Maritime;La Frédière 17169;W0.5833;N45.8667;13;
3;FRA;Poitou-Charentes;Charente-Maritime;La Garde 17170=17243;W0.2657;N45.2421;13;
3;FRA;Poitou-Charentes;Charente-Maritime;La Genétouze 17173;W0.0167;N45.2167;13;
3;FRA;Poitou-Charentes;Charente-Maritime;La Grève-sur-Mignon 17182;W0.7667;N46.2500;13;
3;FRA;Poitou-Charentes;Charente-Maritime;La Gripperie-Saint-Symphorien 17184;W0.9516;N45.7998;13;
3;FRA;Poitou-Charentes;Charente-Maritime;La Jard 17191;W0.5833;N45.6500;13;
3;FRA;Poitou-Charentes;Charente-Maritime;La Jarne 17193;W1.0667;N46.1167;13;
3;FRA;Poitou-Charentes;Charente-Maritime;La Jarrie 17194;W1.0167;N46.1333;13;
3;FRA;Poitou-Charentes;Charente-Maritime;La Jarrie-Audouin 17195;W0.4833;N46.0333;13;
3;FRA;Poitou-Charentes;Charente-Maritime;La Laigne 17201;W0.7500;N46.2167;13;
3;FRA;Poitou-Charentes;Charente-Maritime;La Rochelle 17300;W1.1500;N46.1667;13;
3;FRA;Poitou-Charentes;Charente-Maritime;La Ronde 17303;W0.8077;N46.2992;13;
3;FRA;Poitou-Charentes;Charente-Maritime;La Tremblade 17452;W1.1333;N45.7667;13;
3;FRA;Poitou-Charentes;Charente-Maritime;La Vallée 17455;W0.8500;N45.8833;13;
3;FRA;Poitou-Charentes;Charente-Maritime;La Vergne 17465;W0.5667;N45.9667;13;
3;FRA;Poitou-Charentes;Charente-Maritime;La Villedieu 17471;W0.3167;N46.0667;13;
3;FRA;Poitou-Charentes;Charente-Maritime;Lagord 17200;W1.1333;N46.1833;13;
3;FRA;Poitou-Charentes;Charente-Maritime;Landes 17202;W0.6000;N45.9833;13;
3;FRA;Poitou-Charentes;Charente-Maritime;Landrais 17203;W0.8667;N46.0667;13;
3;FRA;Poitou-Charentes;Charente-Maritime;Le Bois-Plage-en-Ré 17051;W1.3833;N46.1833;13;
3;FRA;Poitou-Charentes;Charente-Maritime;Le Château-d'Oléron 17093;W1.2000;N45.9000;13;
3;FRA;Poitou-Charentes;Charente-Maritime;Le Chay 17097;W0.8977;N45.6404;13;
3;FRA;Poitou-Charentes;Charente-Maritime;Le Douhet 17143;W0.5667;N45.8167;13;
3;FRA;Poitou-Charentes;Charente-Maritime;Le Fouilloux 17167;W0.1167;N45.1833;13;
3;FRA;Poitou-Charentes;Charente-Maritime;Le Gicq 17177;W0.2500;N45.9333;13;
3;FRA;Poitou-Charentes;Charente-Maritime;Le Grand-Village-Plage 17485;W1.2364;N45.8633;13;
3;FRA;Poitou-Charentes;Charente-Maritime;Le Gua 17185;W0.9500;N45.7333;13;
3;FRA;Poitou-Charentes;Charente-Maritime;Le Gué-d'Alleré 17186;W0.8667;N46.1833;13;
3;FRA;Poitou-Charentes;Charente-Maritime;Le Mung 17252;W0.7000;N45.8667;13;
3;FRA;Poitou-Charentes;Charente-Maritime;Le Pin 17276;W0.2893;N45.3108;13;
3;FRA;Poitou-Charentes;Charente-Maritime;Le Seure 17426;W0.3667;N45.7833;13;
3;FRA;Poitou-Charentes;Charente-Maritime;Le Thou 17447;W0.9167;N46.0833;13;
3;FRA;Poitou-Charentes;Charente-Maritime;Léoville 17204;W0.3333;N45.3833;13;
3;FRA;Poitou-Charentes;Charente-Maritime;Les Éduts 17149;W0.2167;N45.9833;13;
3;FRA;Poitou-Charentes;Charente-Maritime;Les Églises-d'Argenteuil 17150;W0.4333;N45.9667;13;
3;FRA;Poitou-Charentes;Charente-Maritime;Les Essards 17154;W0.7667;N45.8000;13;
3;FRA;Poitou-Charentes;Charente-Maritime;Les Gonds 17179;W0.6167;N45.7167;13;
3;FRA;Poitou-Charentes;Charente-Maritime;Les Mathes 17225;W1.1500;N45.7167;13;
3;FRA;Poitou-Charentes;Charente-Maritime;Les Nouillers 17266;W0.6667;N45.9333;13;
3;FRA;Poitou-Charentes;Charente-Maritime;Les Portes-en-Ré 17286;W1.5007;N46.2466;13;
3;FRA;Poitou-Charentes;Charente-Maritime;Les Touches-de-Périgny 17451;W0.2667;N45.9167;13;
3;FRA;Poitou-Charentes;Charente-Maritime;Loire-les-Marais 17205;W0.9167;N45.9833;13;
3;FRA;Poitou-Charentes;Charente-Maritime;Loiré-sur-Nie 17206;W0.2833;N45.9500;13;
3;FRA;Poitou-Charentes;Charente-Maritime;Loix 17207;W1.4379;N46.2235;13;
3;FRA;Poitou-Charentes;Charente-Maritime;Longèves 17208;W0.9833;N46.2333;13;
3;FRA;Poitou-Charentes;Charente-Maritime;Lonzac 17209;W0.4000;N45.6000;13;
3;FRA;Poitou-Charentes;Charente-Maritime;Lorignac 17210;W0.6833;N45.4500;13;
3;FRA;Poitou-Charentes;Charente-Maritime;Loulay 17211;W0.5000;N46.0500;13;
3;FRA;Poitou-Charentes;Charente-Maritime;Louzignac 17212;W0.2333;N45.8333;13;
3;FRA;Poitou-Charentes;Charente-Maritime;Lozay 17213;W0.5333;N46.0500;13;
3;FRA;Poitou-Charentes;Charente-Maritime;Luchat 17214;W0.7667;N45.7167;13;
3;FRA;Poitou-Charentes;Charente-Maritime;Lussac 17215;W0.4833;N45.4667;13;
3;FRA;Poitou-Charentes;Charente-Maritime;Lussant 17216;W0.8167;N45.9667;13;
3;FRA;Poitou-Charentes;Charente-Maritime;Macqueville 17217;W0.2167;N45.8000;13;
3;FRA;Poitou-Charentes;Charente-Maritime;Marans 17218;W1.0000;N46.3000;13;
3;FRA;Poitou-Charentes;Charente-Maritime;Marennes 17219;W1.1167;N45.8167;13;
3;FRA;Poitou-Charentes;Charente-Maritime;Marignac 17220;W0.4833;N45.5167;13;
3;FRA;Poitou-Charentes;Charente-Maritime;Marsais 17221;W0.6000;N46.1167;13;
3;FRA;Poitou-Charentes;Charente-Maritime;Marsilly 17222;W1.1167;N46.2333;13;
3;FRA;Poitou-Charentes;Charente-Maritime;Massac 17223;W0.2167;N45.8667;13;
3;FRA;Poitou-Charentes;Charente-Maritime;Matha 17224;W0.3167;N45.8667;13;
3;FRA;Poitou-Charentes;Charente-Maritime;Mazeray 17226;W0.5667;N45.9167;13;
3;FRA;Poitou-Charentes;Charente-Maritime;Mazerolles 17227;W0.5833;N45.5500;13;
3;FRA;Poitou-Charentes;Charente-Maritime;Médis 17228;W0.9667;N45.6500;13;
3;FRA;Poitou-Charentes;Charente-Maritime;Mérignac 17229;W0.2924;N45.3245;13;
3;FRA;Poitou-Charentes;Charente-Maritime;Meschers-sur-Gironde 17230;W0.9500;N45.5667;13;
3;FRA;Poitou-Charentes;Charente-Maritime;Messac 17231;W0.3167;N45.3500;13;
3;FRA;Poitou-Charentes;Charente-Maritime;Meursac 17232;W0.8167;N45.6500;13;
3;FRA;Poitou-Charentes;Charente-Maritime;Meux 17233;W0.3500;N45.4500;13;
3;FRA;Poitou-Charentes;Charente-Maritime;Migré 17234;W0.5500;N46.0667;13;
3;FRA;Poitou-Charentes;Charente-Maritime;Migron 17235;W0.4000;N45.8000;13;
3;FRA;Poitou-Charentes;Charente-Maritime;Mirambeau 17236;W0.5667;N45.3667;13;
3;FRA;Poitou-Charentes;Charente-Maritime;Moëze 17237;W1.0333;N45.9000;13;
3;FRA;Poitou-Charentes;Charente-Maritime;Moings 17238;W0.3500;N45.4833;13;
3;FRA;Poitou-Charentes;Charente-Maritime;Mons 17239;W0.3500;N45.8167;13;
3;FRA;Poitou-Charentes;Charente-Maritime;Montendre 17240;W0.4000;N45.2833;13;
3;FRA;Poitou-Charentes;Charente-Maritime;Montguyon 17241;W0.1833;N45.2167;13;
3;FRA;Poitou-Charentes;Charente-Maritime;Montils 17242;W0.5000;N45.6500;13;
3;FRA;Poitou-Charentes;Charente-Maritime;Montlieu-la-Garde 17243;W0.2581;N45.2447;13;
3;FRA;Poitou-Charentes;Charente-Maritime;Montpellier-de-Médillan 17244;W0.7500;N45.6333;13;
3;FRA;Poitou-Charentes;Charente-Maritime;Montroy 17245;W1.0167;N46.1500;13;
3;FRA;Poitou-Charentes;Charente-Maritime;Moragne 17246;W0.8000;N45.9667;13;
3;FRA;Poitou-Charentes;Charente-Maritime;Mornac-sur-Seudre 17247;W1.0333;N45.7167;13;
3;FRA;Poitou-Charentes;Charente-Maritime;Mortagne-sur-Gironde 17248;W0.7833;N45.4833;13;
3;FRA;Poitou-Charentes;Charente-Maritime;Mortiers 17249;W0.3167;N45.4000;13;
3;FRA;Poitou-Charentes;Charente-Maritime;Mosnac 17250;W0.5167;N45.5000;13;
3;FRA;Poitou-Charentes;Charente-Maritime;Moulons 17251=17282;W0.3333;N45.3333;13;
3;FRA;Poitou-Charentes;Charente-Maritime;Muron 17253;W0.8333;N46.0333;13;
3;FRA;Poitou-Charentes;Charente-Maritime;Nachamps 17254;W0.6167;N46.0167;13;
3;FRA;Poitou-Charentes;Charente-Maritime;Nancras 17255;W0.8833;N45.7500;13;
3;FRA;Poitou-Charentes;Charente-Maritime;Nantillé 17256;W0.4833;N45.8667;13;
3;FRA;Poitou-Charentes;Charente-Maritime;Néré 17257;W0.2333;N45.9667;13;
3;FRA;Poitou-Charentes;Charente-Maritime;Neuillac 17258;W0.4000;N45.5167;13;
3;FRA;Poitou-Charentes;Charente-Maritime;Neulles 17259;W0.4167;N45.5000;13;
3;FRA;Poitou-Charentes;Charente-Maritime;Neuvicq 17260;W0.1847;N45.2439;13;
3;FRA;Poitou-Charentes;Charente-Maritime;Neuvicq-le-Château 17261;W0.1667;N45.8000;13;
3;FRA;Poitou-Charentes;Charente-Maritime;Nieul-le-Virouil 17263;W0.5333;N45.4167;13;
3;FRA;Poitou-Charentes;Charente-Maritime;Nieul-lès-Saintes 17262;W0.7333;N45.7667;13;
3;FRA;Poitou-Charentes;Charente-Maritime;Nieul-sur-Mer 17264;W1.1667;N46.2000;13;
3;FRA;Poitou-Charentes;Charente-Maritime;Nieulle-sur-Seudre 17265;W0.9833;N45.7500;13;
3;FRA;Poitou-Charentes;Charente-Maritime;Nuaillé-d'Aunis 17267;W0.9333;N46.2167;13;
3;FRA;Poitou-Charentes;Charente-Maritime;Nuaillé-sur-Boutonne 17268;W0.4167;N46.0000;13;
3;FRA;Poitou-Charentes;Charente-Maritime;Orignolles 17269;W0.2333;N45.2333;13;
3;FRA;Poitou-Charentes;Charente-Maritime;Ozillac 17270;W0.4000;N45.4000;13;
3;FRA;Poitou-Charentes;Charente-Maritime;Paillé 17271;W0.3833;N45.9833;13;
3;FRA;Poitou-Charentes;Charente-Maritime;Péré 17272;W0.8167;N46.0833;13;
3;FRA;Poitou-Charentes;Charente-Maritime;Pérignac 17273;W0.4667;N45.6167;13;
3;FRA;Poitou-Charentes;Charente-Maritime;Périgny 17274;W1.0833;N46.1500;13;
3;FRA;Poitou-Charentes;Charente-Maritime;Pessines 17275;W0.7167;N45.7333;13;
3;FRA;Poitou-Charentes;Charente-Maritime;Pisany 17278;W0.7833;N45.7000;13;
3;FRA;Poitou-Charentes;Charente-Maritime;Plassac 17279;W0.5667;N45.4667;13;
3;FRA;Poitou-Charentes;Charente-Maritime;Plassay 17280;W0.7333;N45.8167;13;
3;FRA;Poitou-Charentes;Charente-Maritime;Polignac 17281;W0.3000;N45.2833;13;
3;FRA;Poitou-Charentes;Charente-Maritime;Pommiers-Moulons 17282;W0.3511;N45.3256;13;
3;FRA;Poitou-Charentes;Charente-Maritime;Pons 17283;W0.5500;N45.5833;13;
3;FRA;Poitou-Charentes;Charente-Maritime;Pont-l'Abbé-d'Arnoult 17284;W0.8833;N45.8333;13;
3;FRA;Poitou-Charentes;Charente-Maritime;Port-d'Envaux 17285;W0.6833;N45.8333;13;
3;FRA;Poitou-Charentes;Charente-Maritime;Port-des-Barques 17484;W1.0778;N45.9483;13;
3;FRA;Poitou-Charentes;Charente-Maritime;Pouillac 17287;W0.2532;N45.2694;13;
3;FRA;Poitou-Charentes;Charente-Maritime;Poursay-Garnaud 17288;W0.4667;N45.9500;13;
3;FRA;Poitou-Charentes;Charente-Maritime;Préguillac 17289;W0.6167;N45.6667;13;
3;FRA;Poitou-Charentes;Charente-Maritime;Prignac 17290;W0.3571;N45.8294;13;
3;FRA;Poitou-Charentes;Charente-Maritime;Puilboreau 17291;W1.1000;N46.1833;13;
3;FRA;Poitou-Charentes;Charente-Maritime;Puy-du-Lac 17292;W0.7167;N45.9667;13;
3;FRA;Poitou-Charentes;Charente-Maritime;Puyravault 17293;W0.8000;N46.1333;13;
3;FRA;Poitou-Charentes;Charente-Maritime;Puyrolland 17294;W0.6000;N46.0333;13;
3;FRA;Poitou-Charentes;Charente-Maritime;Réaux 17295;W0.3667;N45.4833;13;
3;FRA;Poitou-Charentes;Charente-Maritime;Rétaud 17296;W0.7333;N45.6833;13;
3;FRA;Poitou-Charentes;Charente-Maritime;Rioux 17298;W0.7167;N45.6333;13;
3;FRA;Poitou-Charentes;Charente-Maritime;Rivedoux-Plage 17297;W1.2667;N46.1667;13;
3;FRA;Poitou-Charentes;Charente-Maritime;Rochefort 17299;W0.9833;N45.9333;13;
3;FRA;Poitou-Charentes;Charente-Maritime;Romazières 17301;W0.1667;N45.9833;13;
3;FRA;Poitou-Charentes;Charente-Maritime;Romegoux 17302;W0.8000;N45.8667;13;
3;FRA;Poitou-Charentes;Charente-Maritime;Rouffiac 17304;W0.4833;N45.6833;13;
3;FRA;Poitou-Charentes;Charente-Maritime;Rouffignac 17305;W0.4500;N45.3333;13;
3;FRA;Poitou-Charentes;Charente-Maritime;Royan 17306;W1.0333;N45.6333;13;
3;FRA;Poitou-Charentes;Charente-Maritime;Sablonceaux 17307;W0.8833;N45.7167;13;
3;FRA;Poitou-Charentes;Charente-Maritime;Saint-Agnant 17308;W0.9667;N45.8667;13;
3;FRA;Poitou-Charentes;Charente-Maritime;Saint-Aigulin 17309;W0.0167;N45.1500;13;
3;FRA;Poitou-Charentes;Charente-Maritime;Saint-André-de-Lidon 17310;W0.7500;N45.6000;13;
3;FRA;Poitou-Charentes;Charente-Maritime;Saint-Augustin 17311;W1.1167;N45.6833;13;
3;FRA;Poitou-Charentes;Charente-Maritime;Saint-Bonnet-sur-Gironde 17312;W0.6667;N45.3500;13;
3;FRA;Poitou-Charentes;Charente-Maritime;Saint-Bris-des-Bois 17313;W0.4833;N45.7667;13;
3;FRA;Poitou-Charentes;Charente-Maritime;Saint-Césaire 17314;W0.5064;N45.7533;13;
3;FRA;Poitou-Charentes;Charente-Maritime;Saint-Christophe 17315;W0.9333;N46.1333;13;
3;FRA;Poitou-Charentes;Charente-Maritime;Saint-Ciers-Champagne 17316;W0.3000;N45.4500;13;
3;FRA;Poitou-Charentes;Charente-Maritime;Saint-Ciers-du-Taillon 17317;W0.6500;N45.4167;13;
3;FRA;Poitou-Charentes;Charente-Maritime;Saint-Clément-des-Baleines 17318;W1.5417;N46.2250;13;
3;FRA;Poitou-Charentes;Charente-Maritime;Saint-Coutant-le-Grand 17320;W0.7500;N45.9500;13;
3;FRA;Poitou-Charentes;Charente-Maritime;Saint-Crépin 17321;W0.7333;N46.0000;13;
3;FRA;Poitou-Charentes;Charente-Maritime;Saint-Cyr-du-Doret 17322;W0.8167;N46.2667;13;
3;FRA;Poitou-Charentes;Charente-Maritime;Saint-Denis-d'Oléron 17323;W1.3833;N46.0333;13;
3;FRA;Poitou-Charentes;Charente-Maritime;Saint-Denis-du-Pin 17277;W0.5219;N45.9863;13;
3;FRA;Poitou-Charentes;Charente-Maritime;Saint-Dizant-du-Bois 17324;W0.5667;N45.4000;13;
3;FRA;Poitou-Charentes;Charente-Maritime;Saint-Dizant-du-Gua 17325;W0.7000;N45.4333;13;
3;FRA;Poitou-Charentes;Charente-Maritime;Saint-Eugène 17326;W0.2833;N45.5000;13;
3;FRA;Poitou-Charentes;Charente-Maritime;Saint-Félix 17327;W0.6000;N46.0833;13;
3;FRA;Poitou-Charentes;Charente-Maritime;Saint-Fort-sur-Gironde 17328;W0.7167;N45.4667;13;
3;FRA;Poitou-Charentes;Charente-Maritime;Saint-Froult 17329;W1.0500;N45.9167;13;
3;FRA;Poitou-Charentes;Charente-Maritime;Saint-Genis-de-Saintonge 17331;W0.5667;N45.4833;13;
3;FRA;Poitou-Charentes;Charente-Maritime;Saint-Georges-Antignac 17332;W0.4667;N45.4998;13;
3;FRA;Poitou-Charentes;Charente-Maritime;Saint-Georges-d'Oléron 17337;W1.3333;N45.9833;13;
3;FRA;Poitou-Charentes;Charente-Maritime;Saint-Georges-de-Didonne 17333;W1.0000;N45.6000;13;
3;FRA;Poitou-Charentes;Charente-Maritime;Saint-Georges-de-Longuepierre 17334;W0.4000;N46.0333;13;
3;FRA;Poitou-Charentes;Charente-Maritime;Saint-Georges-des-Agoûts 17335;W0.6500;N45.3833;13;
3;FRA;Poitou-Charentes;Charente-Maritime;Saint-Georges-des-Coteaux 17336;W0.7167;N45.7667;13;
3;FRA;Poitou-Charentes;Charente-Maritime;Saint-Georges-du-Bois 17338;W0.7333;N46.1333;13;
3;FRA;Poitou-Charentes;Charente-Maritime;Saint-Germain-de-Lusignan 17339;W0.4667;N45.4500;13;
3;FRA;Poitou-Charentes;Charente-Maritime;Saint-Germain-de-Marencennes 17340;W0.7833;N46.0667;13;
3;FRA;Poitou-Charentes;Charente-Maritime;Saint-Germain-de-Vibrac 17341;W0.3167;N45.4333;13;
3;FRA;Poitou-Charentes;Charente-Maritime;Saint-Germain-du-Seudre 17342;W0.6667;N45.5167;13;
3;FRA;Poitou-Charentes;Charente-Maritime;Saint-Grégoire-d'Ardennes 17343;W0.5000;N45.5000;13;
3;FRA;Poitou-Charentes;Charente-Maritime;Saint-Hilaire-de-Villefranche 17344;W0.5333;N45.8500;13;
3;FRA;Poitou-Charentes;Charente-Maritime;Saint-Hilaire-du-Bois 17345;W0.5000;N45.4167;13;
3;FRA;Poitou-Charentes;Charente-Maritime;Saint-Hippolyte 17346;W0.8833;N45.9167;13;
3;FRA;Poitou-Charentes;Charente-Maritime;Saint-Jean-d'Angély 17347;W0.5167;N45.9500;13;
3;FRA;Poitou-Charentes;Charente-Maritime;Saint-Jean-d'Angle 17348;W0.9500;N45.8167;13;
3;FRA;Poitou-Charentes;Charente-Maritime;Saint-Jean-de-Liversay 17349;W0.8833;N46.2667;13;
3;FRA;Poitou-Charentes;Charente-Maritime;Saint-Julien-de-l'Escap 17350;W0.4833;N45.9333;13;
3;FRA;Poitou-Charentes;Charente-Maritime;Saint-Just-Luzac 17351;W1.0549;N45.7972;13;
3;FRA;Poitou-Charentes;Charente-Maritime;Saint-Laurent-de-la-Barrière 17352;W0.7000;N46.0333;13;
3;FRA;Poitou-Charentes;Charente-Maritime;Saint-Laurent-de-la-Prée 17353;W1.0333;N45.9833;13;
3;FRA;Poitou-Charentes;Charente-Maritime;Saint-Léger 17354;W0.5833;N45.6167;13;
3;FRA;Poitou-Charentes;Charente-Maritime;Saint-Loup 17356;W0.6248;N45.9986;13;
3;FRA;Poitou-Charentes;Charente-Maritime;Saint-Maigrin 17357;W0.2833;N45.4167;13;
3;FRA;Poitou-Charentes;Charente-Maritime;Saint-Mandé-sur-Brédoire 17358;W0.3000;N46.0167;13;
3;FRA;Poitou-Charentes;Charente-Maritime;Saint-Mard 17359;W0.7167;N46.0833;13;
3;FRA;Poitou-Charentes;Charente-Maritime;Saint-Martial 17361;W0.4500;N46.0500;13;
3;FRA;Poitou-Charentes;Charente-Maritime;Saint-Martial-de-Mirambeau 17362;W0.6000;N45.3833;13;
3;FRA;Poitou-Charentes;Charente-Maritime;Saint-Martial-de-Vitaterne 17363;W0.4333;N45.4667;13;
3;FRA;Poitou-Charentes;Charente-Maritime;Saint-Martial-sur-Né 17364;W0.3667;N45.5833;13;
3;FRA;Poitou-Charentes;Charente-Maritime;Saint-Martin-d'Ary 17365;W0.2167;N45.2333;13;
3;FRA;Poitou-Charentes;Charente-Maritime;Saint-Martin-de-Coux 17366;W0.1000;N45.1500;13;
3;FRA;Poitou-Charentes;Charente-Maritime;Saint-Martin-de-Juillers 17367;W0.3667;N45.9333;13;
3;FRA;Poitou-Charentes;Charente-Maritime;Saint-Martin-de-la-Coudre 17368=17043;W0.6000;N46.0667;13;
3;FRA;Poitou-Charentes;Charente-Maritime;Saint-Martin-de-Ré 17369;W1.3667;N46.2000;13;
3;FRA;Poitou-Charentes;Charente-Maritime;Saint-Maurice-de-Laurençanne 17370=17454;W0.3833;N45.3500;13;
3;FRA;Poitou-Charentes;Charente-Maritime;Saint-Maurice-de-Tavernole 17371;W0.4000;N45.4833;13;
3;FRA;Poitou-Charentes;Charente-Maritime;Saint-Médard 17372;W0.3545;N45.3979;13;
3;FRA;Poitou-Charentes;Charente-Maritime;Saint-Médard-d'Aunis 17373;W0.9667;N46.1500;13;
3;FRA;Poitou-Charentes;Charente-Maritime;Saint-Nazaire-sur-Charente 17375;W1.0500;N45.9500;13;
3;FRA;Poitou-Charentes;Charente-Maritime;Saint-Ouen 17377;W0.1667;N45.8667;13;
3;FRA;Poitou-Charentes;Charente-Maritime;Saint-Ouen-d'Aunis 17376;W1.0333;N46.2167;13;
3;FRA;Poitou-Charentes;Charente-Maritime;Saint-Palais-de-Négrignac 17378;W0.2167;N45.2667;13;
3;FRA;Poitou-Charentes;Charente-Maritime;Saint-Palais-de-Phiolin 17379;W0.6000;N45.5167;13;
3;FRA;Poitou-Charentes;Charente-Maritime;Saint-Palais-sur-Mer 17380;W1.0833;N45.6333;13;
3;FRA;Poitou-Charentes;Charente-Maritime;Saint-Pardoult 17381;W0.4500;N46.0000;13;
3;FRA;Poitou-Charentes;Charente-Maritime;Saint-Pierre-d'Amilly 17382;W0.6667;N46.1667;13;
3;FRA;Poitou-Charentes;Charente-Maritime;Saint-Pierre-d'Oléron 17385;W1.3167;N45.9500;13;
3;FRA;Poitou-Charentes;Charente-Maritime;Saint-Pierre-de-Juillers 17383;W0.3667;N45.9333;13;
3;FRA;Poitou-Charentes;Charente-Maritime;Saint-Pierre-de-l'Île 17384;W0.4333;N46.0167;13;
3;FRA;Poitou-Charentes;Charente-Maritime;Saint-Pierre-du-Palais 17386;W0.1500;N45.1667;13;
3;FRA;Poitou-Charentes;Charente-Maritime;Saint-Porchaire 17387;W0.7833;N45.8167;13;
3;FRA;Poitou-Charentes;Charente-Maritime;Saint-Quantin-de-Rançanne 17388;W0.6000;N45.5333;13;
3;FRA;Poitou-Charentes;Charente-Maritime;Saint-Rogatien 17391;W1.0667;N46.1500;13;
3;FRA;Poitou-Charentes;Charente-Maritime;Saint-Romain-de-Benet 17393;W0.8500;N45.7000;13;
3;FRA;Poitou-Charentes;Charente-Maritime;Saint-Romain-sur-Gironde 17392;W0.7500;N45.4500;13;
3;FRA;Poitou-Charentes;Charente-Maritime;Saint-Saturnin-du-Bois 17394;W0.6667;N46.1333;13;
3;FRA;Poitou-Charentes;Charente-Maritime;Saint-Sauvant 17395;W0.5043;N45.7394;13;
3;FRA;Poitou-Charentes;Charente-Maritime;Saint-Sauveur-d'Aunis 17396;W0.8833;N46.2167;13;
3;FRA;Poitou-Charentes;Charente-Maritime;Saint-Savinien 17397;W0.6833;N45.8833;13;
3;FRA;Poitou-Charentes;Charente-Maritime;Saint-Seurin-d'Uzet 17399=17098;W0.8333;N45.5015;13;
3;FRA;Poitou-Charentes;Charente-Maritime;Saint-Seurin-de-Palenne 17398;W0.5167;N45.6333;13;
3;FRA;Poitou-Charentes;Charente-Maritime;Saint-Sever-de-Saintonge 17400;W0.5097;N45.6949;13;
3;FRA;Poitou-Charentes;Charente-Maritime;Saint-Séverin-sur-Boutonne 17401;W0.4167;N46.0833;13;
3;FRA;Poitou-Charentes;Charente-Maritime;Saint-Sigismond-de-Clermont 17402;W0.5333;N45.4500;13;
3;FRA;Poitou-Charentes;Charente-Maritime;Saint-Simon-de-Bordes 17403;W0.4500;N45.4000;13;
3;FRA;Poitou-Charentes;Charente-Maritime;Saint-Simon-de-Pellouaille 17404;W0.7000;N45.6167;13;
3;FRA;Poitou-Charentes;Charente-Maritime;Saint-Sorlin-de-Conac 17405;W0.6833;N45.3667;13;
3;FRA;Poitou-Charentes;Charente-Maritime;Saint-Sornin 17406;W0.9833;N45.7667;13;
3;FRA;Poitou-Charentes;Charente-Maritime;Saint-Sulpice-d'Arnoult 17408;W0.8500;N45.8000;13;
3;FRA;Poitou-Charentes;Charente-Maritime;Saint-Sulpice-de-Royan 17409;W1.0167;N45.6667;13;
3;FRA;Poitou-Charentes;Charente-Maritime;Saint-Thomas-de-Conac 17410;W0.6833;N45.3833;13;
3;FRA;Poitou-Charentes;Charente-Maritime;Saint-Trojan-les-Bains 17411;W1.2000;N45.8333;13;
3;FRA;Poitou-Charentes;Charente-Maritime;Saint-Vaize 17412;W0.6333;N45.8167;13;
3;FRA;Poitou-Charentes;Charente-Maritime;Saint-Vivien 17413;W1.0500;N46.0667;13;
3;FRA;Poitou-Charentes;Charente-Maritime;Saint-Xandre 17414;W1.1000;N46.2000;13;
3;FRA;Poitou-Charentes;Charente-Maritime;Sainte-Colombe 17319;W0.2798;N45.2835;13;
3;FRA;Poitou-Charentes;Charente-Maritime;Sainte-Gemme 17330;W0.8883;N45.7717;13;
3;FRA;Poitou-Charentes;Charente-Maritime;Sainte-Lheurine 17355;W0.3667;N45.5333;13;
3;FRA;Poitou-Charentes;Charente-Maritime;Sainte-Marie-de-Ré 17360;W1.3000;N46.1500;13;
3;FRA;Poitou-Charentes;Charente-Maritime;Sainte-Même 17374;W0.4667;N45.8833;13;
3;FRA;Poitou-Charentes;Charente-Maritime;Sainte-Radegonde 17389;W0.8743;N45.8459;13;
3;FRA;Poitou-Charentes;Charente-Maritime;Sainte-Ramée 17390;W0.6667;N45.4167;13;
3;FRA;Poitou-Charentes;Charente-Maritime;Sainte-Soulle 17407;W1.0167;N46.1833;13;
3;FRA;Poitou-Charentes;Charente-Maritime;Saintes 17415;W0.6333;N45.7500;13;
3;FRA;Poitou-Charentes;Charente-Maritime;Saleignes 17416;W0.1833;N46.0167;13;
3;FRA;Poitou-Charentes;Charente-Maritime;Salignac-de-Mirambeau 17417;W0.4833;N45.3500;13;
3;FRA;Poitou-Charentes;Charente-Maritime;Salignac-sur-Charente 17418;W0.4167;N45.6667;13;
3;FRA;Poitou-Charentes;Charente-Maritime;Salles-lès-Aulnay 17419=17024;W0.3167;N46.0333;13;
3;FRA;Poitou-Charentes;Charente-Maritime;Salles-sur-Mer 17420;W1.0500;N46.1000;13;
3;FRA;Poitou-Charentes;Charente-Maritime;Saujon 17421;W0.9167;N45.6667;13;
3;FRA;Poitou-Charentes;Charente-Maritime;Seigné 17422;W0.2000;N45.9500;13;
3;FRA;Poitou-Charentes;Charente-Maritime;Semillac 17423;W0.6000;N45.4000;13;
3;FRA;Poitou-Charentes;Charente-Maritime;Semoussac 17424;W0.6167;N45.3833;13;
3;FRA;Poitou-Charentes;Charente-Maritime;Semussac 17425;W0.9167;N45.6000;13;
3;FRA;Poitou-Charentes;Charente-Maritime;Siecq 17427;W0.2000;N45.8333;13;
3;FRA;Poitou-Charentes;Charente-Maritime;Sonnac 17428;W0.2667;N45.8333;13;
3;FRA;Poitou-Charentes;Charente-Maritime;Soubise 17429;W1.0000;N45.9333;13;
3;FRA;Poitou-Charentes;Charente-Maritime;Soubran 17430;W0.5167;N45.3500;13;
3;FRA;Poitou-Charentes;Charente-Maritime;Soulignonne 17431;W0.7833;N45.7833;13;
3;FRA;Poitou-Charentes;Charente-Maritime;Souméras 17432;W0.4167;N45.3000;13;
3;FRA;Poitou-Charentes;Charente-Maritime;Sousmoulins 17433;W0.3333;N45.3000;13;
3;FRA;Poitou-Charentes;Charente-Maritime;Surgères 17434;W0.7500;N46.1000;13;
3;FRA;Poitou-Charentes;Charente-Maritime;Taillant 17435;W0.6167;N45.9000;13;
3;FRA;Poitou-Charentes;Charente-Maritime;Taillebourg 17436;W0.6500;N45.8333;13;
3;FRA;Poitou-Charentes;Charente-Maritime;Talmont-sur-Gironde 17437;W0.9000;N45.5333;13;
3;FRA;Poitou-Charentes;Charente-Maritime;Tanzac 17438;W0.6333;N45.5667;13;
3;FRA;Poitou-Charentes;Charente-Maritime;Taugon 17439;W0.8333;N46.3000;13;
3;FRA;Poitou-Charentes;Charente-Maritime;Ternant 17440;W0.5833;N45.9500;13;
3;FRA;Poitou-Charentes;Charente-Maritime;Tesson 17441;W0.6500;N45.6333;13;
3;FRA;Poitou-Charentes;Charente-Maritime;Thaims 17442;W0.7833;N45.6167;13;
3;FRA;Poitou-Charentes;Charente-Maritime;Thairé 17443;W1.0000;N46.0667;13;
3;FRA;Poitou-Charentes;Charente-Maritime;Thénac 17444;W0.6500;N45.6667;13;
3;FRA;Poitou-Charentes;Charente-Maritime;Thézac 17445;W0.7833;N45.6667;13;
3;FRA;Poitou-Charentes;Charente-Maritime;Thors 17446;W0.3167;N45.8333;13;
3;FRA;Poitou-Charentes;Charente-Maritime;Tonnay-Boutonne 17448;W0.7167;N45.9667;13;
3;FRA;Poitou-Charentes;Charente-Maritime;Tonnay-Charente 17449;W0.9000;N45.9500;13;
3;FRA;Poitou-Charentes;Charente-Maritime;Torxé 17450;W0.6167;N45.9500;13;
3;FRA;Poitou-Charentes;Charente-Maritime;Trizay 17453;W0.9000;N45.8833;13;
3;FRA;Poitou-Charentes;Charente-Maritime;Tugéras-Saint-Maurice 17454;W0.4083;N45.3592;13;
3;FRA;Poitou-Charentes;Charente-Maritime;Vallet 17456=17240;W0.3500;N45.3000;13;
3;FRA;Poitou-Charentes;Charente-Maritime;Vandré 17457;W0.7500;N46.0500;13;
3;FRA;Poitou-Charentes;Charente-Maritime;Vanzac 17458;W0.3000;N45.3667;13;
3;FRA;Poitou-Charentes;Charente-Maritime;Varaize 17459;W0.4167;N45.9167;13;
3;FRA;Poitou-Charentes;Charente-Maritime;Varzay 17460;W0.7333;N45.7000;13;
3;FRA;Poitou-Charentes;Charente-Maritime;Vaux-sur-Mer 17461;W1.0333;N45.6500;13;
3;FRA;Poitou-Charentes;Charente-Maritime;Vénérand 17462;W0.5667;N45.8000;13;
3;FRA;Poitou-Charentes;Charente-Maritime;Vergeroux 17463;W0.9833;N45.9667;13;
3;FRA;Poitou-Charentes;Charente-Maritime;Vergné 17464;W0.5167;N46.0667;13;
3;FRA;Poitou-Charentes;Charente-Maritime;Vérines 17466;W0.9667;N46.2000;13;
3;FRA;Poitou-Charentes;Charente-Maritime;Vervant 17467;W0.4500;N45.9833;13;
3;FRA;Poitou-Charentes;Charente-Maritime;Vibrac 17468;W0.3417;N45.3583;13;
3;FRA;Poitou-Charentes;Charente-Maritime;Villars-en-Pons 17469;W0.6167;N45.6000;13;
3;FRA;Poitou-Charentes;Charente-Maritime;Villars-les-Bois 17470;W0.4333;N45.8000;13;
3;FRA;Poitou-Charentes;Charente-Maritime;Villedoux 17472;W1.0500;N46.2333;13;
3;FRA;Poitou-Charentes;Charente-Maritime;Villemorin 17473;W0.2833;N46.0000;13;
3;FRA;Poitou-Charentes;Charente-Maritime;Villeneuve-la-Comtesse 17474;W0.5000;N46.1000;13;
3;FRA;Poitou-Charentes;Charente-Maritime;Villenouvelle 17475=17474;W0.4500;N46.1000;13;
3;FRA;Poitou-Charentes;Charente-Maritime;Villexavier 17476;W0.4333;N45.3667;13;
3;FRA;Poitou-Charentes;Charente-Maritime;Villiers-Couture 17477;W0.1500;N45.9833;13;
3;FRA;Poitou-Charentes;Charente-Maritime;Vinax 17478;W0.2000;N46.0333;13;
3;FRA;Poitou-Charentes;Charente-Maritime;Virollet 17479;W0.7167;N45.5500;13;
3;FRA;Poitou-Charentes;Charente-Maritime;Virson 17480;W0.9000;N46.1333;13;
3;FRA;Poitou-Charentes;Charente-Maritime;Voissay 17481;W0.6000;N45.9500;13;
3;FRA;Poitou-Charentes;Charente-Maritime;Vouhé 17482;W0.7833;N46.1333;13;
3;FRA;Poitou-Charentes;Charente-Maritime;Yves 17483;W1.0500;N46.0167;13;
2;FRA;Poitou-Charentes;Deux-Sèvres;;W0.29;N46.67;9;
3;FRA;Poitou-Charentes;Deux-Sèvres;Adilly 79002;W0.3167;N46.6833;13;
3;FRA;Poitou-Charentes;Deux-Sèvres;Aiffres 79003;W0.4167;N46.2833;13;
3;FRA;Poitou-Charentes;Deux-Sèvres;Aigonnay 79004;W0.2500;N46.3167;13;
3;FRA;Poitou-Charentes;Deux-Sèvres;Airvault 79005;W0.1500;N46.8333;13;
3;FRA;Poitou-Charentes;Deux-Sèvres;Allonne 79007;W0.3833;N46.5833;13;
3;FRA;Poitou-Charentes;Deux-Sèvres;Amailloux 79008;W0.3167;N46.7500;13;
3;FRA;Poitou-Charentes;Deux-Sèvres;Amuré 79009;W0.6167;N46.2667;13;
3;FRA;Poitou-Charentes;Deux-Sèvres;Arçais 79010;W0.6833;N46.3000;13;
3;FRA;Poitou-Charentes;Deux-Sèvres;Ardilleux 79011;W0.0333;N46.1000;13;
3;FRA;Poitou-Charentes;Deux-Sèvres;Ardin 79012;W0.5500;N46.4833;13;
3;FRA;Poitou-Charentes;Deux-Sèvres;Argenton-Château 79013;W0.4500;N46.9833;13;
3;FRA;Poitou-Charentes;Deux-Sèvres;Argenton-l'Église 79014;W0.2667;N47.0500;13;
3;FRA;Poitou-Charentes;Deux-Sèvres;Asnières-en-Poitou 79015;W0.1833;N46.1000;13;
3;FRA;Poitou-Charentes;Deux-Sèvres;Assais-les-Jumeaux 79016;W0.0597;N46.7880;13;
3;FRA;Poitou-Charentes;Deux-Sèvres;Aubigné 79018;W0.1333;N46.0500;13;
3;FRA;Poitou-Charentes;Deux-Sèvres;Aubigny 79019;W0.1333;N46.7333;13;
3;FRA;Poitou-Charentes;Deux-Sèvres;Augé 79020;W0.2833;N46.4333;13;
3;FRA;Poitou-Charentes;Deux-Sèvres;Availles-sur-Chizé 79021=79090;W0.3500;N46.1000;13;
3;FRA;Poitou-Charentes;Deux-Sèvres;Availles-Thouarsais 79022;W0.1500;N46.8500;13;
3;FRA;Poitou-Charentes;Deux-Sèvres;Avon 79023;E0.0000;N46.3833;13;
3;FRA;Poitou-Charentes;Deux-Sèvres;Azay-le-Brûlé 79024;W0.2500;N46.4000;13;
3;FRA;Poitou-Charentes;Deux-Sèvres;Azay-sur-Thouet 79025;W0.3500;N46.6167;13;
3;FRA;Poitou-Charentes;Deux-Sèvres;Bagneux 79026=79014;W0.2167;N47.0833;13;
3;FRA;Poitou-Charentes;Deux-Sèvres;Beaulieu-sous-Bressuire 79028=79049;W0.5333;N46.8667;13;
3;FRA;Poitou-Charentes;Deux-Sèvres;Beaulieu-sous-Parthenay 79029;W0.2333;N46.5833;13;
3;FRA;Poitou-Charentes;Deux-Sèvres;Beaussais 79030;W0.1500;N46.2833;13;
3;FRA;Poitou-Charentes;Deux-Sèvres;Beauvoir-sur-Niort 79031;W0.4667;N46.1667;13;
3;FRA;Poitou-Charentes;Deux-Sèvres;Béceleuf 79032;W0.5000;N46.4667;13;
3;FRA;Poitou-Charentes;Deux-Sèvres;Belleville 79033;W0.4990;N46.1263;13;
3;FRA;Poitou-Charentes;Deux-Sèvres;Bessines 79034;W0.5000;N46.3000;13;
3;FRA;Poitou-Charentes;Deux-Sèvres;Bilazais 79036=79196;W0.1000;N46.9333;13;
3;FRA;Poitou-Charentes;Deux-Sèvres;Boësse 79037;W0.4667;N46.9833;13;
3;FRA;Poitou-Charentes;Deux-Sèvres;Boismé 79038;W0.4333;N46.7833;13;
3;FRA;Poitou-Charentes;Deux-Sèvres;Boisserolles 79039;W0.4667;N46.1000;13;
3;FRA;Poitou-Charentes;Deux-Sèvres;Borcq-sur-Airvault 79041=79005;W0.0833;N46.8333;13;
3;FRA;Poitou-Charentes;Deux-Sèvres;Bougon 79042;W0.0667;N46.3667;13;
3;FRA;Poitou-Charentes;Deux-Sèvres;Bouillé-Loretz 79043;W0.2833;N47.0833;13;
3;FRA;Poitou-Charentes;Deux-Sèvres;Bouillé-Saint-Paul 79044;W0.3500;N47.0333;13;
3;FRA;Poitou-Charentes;Deux-Sèvres;Bouin 79045;W0.0167;N46.0833;13;
3;FRA;Poitou-Charentes;Deux-Sèvres;Boussais 79047;W0.2500;N46.8333;13;
3;FRA;Poitou-Charentes;Deux-Sèvres;Bressuire 79049;W0.4833;N46.8500;13;
3;FRA;Poitou-Charentes;Deux-Sèvres;Bretignolles 79050;W0.6000;N46.8667;13;
3;FRA;Poitou-Charentes;Deux-Sèvres;Breuil-Chaussée 79052=79049;W0.5500;N46.8333;13;
3;FRA;Poitou-Charentes;Deux-Sèvres;Brie 79054;W0.0411;N46.9194;13;
3;FRA;Poitou-Charentes;Deux-Sèvres;Brieuil-sur-Chizé 79055;W0.3167;N46.1167;13;
3;FRA;Poitou-Charentes;Deux-Sèvres;Brion-près-Thouet 79056;W0.1833;N47.0500;13;
3;FRA;Poitou-Charentes;Deux-Sèvres;Brioux-sur-Boutonne 79057;W0.2167;N46.1333;13;
3;FRA;Poitou-Charentes;Deux-Sèvres;Brûlain 79058;W0.3167;N46.2000;13;
3;FRA;Poitou-Charentes;Deux-Sèvres;Caunay 79060;E0.0833;N46.2000;13;
3;FRA;Poitou-Charentes;Deux-Sèvres;Celles-sur-Belle 79061;W0.2000;N46.2667;13;
3;FRA;Poitou-Charentes;Deux-Sèvres;Cerizay 79062;W0.6667;N46.8167;13;
3;FRA;Poitou-Charentes;Deux-Sèvres;Cersay 79063;W0.3500;N47.0500;13;
3;FRA;Poitou-Charentes;Deux-Sèvres;Chail 79064;W0.1000;N46.2000;13;
3;FRA;Poitou-Charentes;Deux-Sèvres;Chambroutet 79065=79049;W0.4667;N46.8833;13;
3;FRA;Poitou-Charentes;Deux-Sèvres;Champdeniers-Saint-Denis 79066;W0.4048;N46.4845;13;
3;FRA;Poitou-Charentes;Deux-Sèvres;Champeaux 79067=79066;W0.3500;N46.4833;13;
3;FRA;Poitou-Charentes;Deux-Sèvres;Chantecorps 79068;W0.1500;N46.5000;13;
3;FRA;Poitou-Charentes;Deux-Sèvres;Chanteloup 79069;W0.5167;N46.7667;13;
3;FRA;Poitou-Charentes;Deux-Sèvres;Châtillon-sur-Thouet 79080;W0.2333;N46.6500;13;
3;FRA;Poitou-Charentes;Deux-Sèvres;Chauray 79081;W0.3833;N46.3500;13;
3;FRA;Poitou-Charentes;Deux-Sèvres;Chavagné 79082=79048;W0.3184;N46.3400;13;
3;FRA;Poitou-Charentes;Deux-Sèvres;Chef-Boutonne 79083;W0.0500;N46.1000;13;
3;FRA;Poitou-Charentes;Deux-Sèvres;Chenay 79084;W0.0333;N46.3167;13;
3;FRA;Poitou-Charentes;Deux-Sèvres;Chérigné 79085;W0.1667;N46.1167;13;
3;FRA;Poitou-Charentes;Deux-Sèvres;Cherveux 79086;W0.3500;N46.4167;13;
3;FRA;Poitou-Charentes;Deux-Sèvres;Chey 79087;W0.0500;N46.3000;13;
3;FRA;Poitou-Charentes;Deux-Sèvres;Chiché 79088;W0.3667;N46.8000;13;
3;FRA;Poitou-Charentes;Deux-Sèvres;Chizé 79090;W0.3500;N46.1167;13;
3;FRA;Poitou-Charentes;Deux-Sèvres;Cirières 79091;W0.6167;N46.8333;13;
3;FRA;Poitou-Charentes;Deux-Sèvres;Clavé 79092;W0.2167;N46.5000;13;
3;FRA;Poitou-Charentes;Deux-Sèvres;Clazay 79093=79049;W0.5667;N46.8000;13;
3;FRA;Poitou-Charentes;Deux-Sèvres;Clessé 79094;W0.4167;N46.7167;13;
3;FRA;Poitou-Charentes;Deux-Sèvres;Clussais-la-Pommeraie 79095;E0.0500;N46.2000;13;
3;FRA;Poitou-Charentes;Deux-Sèvres;Combrand 79096;W0.6833;N46.8667;13;
3;FRA;Poitou-Charentes;Deux-Sèvres;Coulon 79100;W0.5833;N46.3167;13;
3;FRA;Poitou-Charentes;Deux-Sèvres;Coulonges-sur-l'Autize 79101;W0.6000;N46.4833;13;
3;FRA;Poitou-Charentes;Deux-Sèvres;Coulonges-Thouarsais 79102;W0.3167;N46.9333;13;
3;FRA;Poitou-Charentes;Deux-Sèvres;Courlay 79103;W0.5667;N46.7833;13;
3;FRA;Poitou-Charentes;Deux-Sèvres;Cours 79104;W0.4167;N46.5000;13;
3;FRA;Poitou-Charentes;Deux-Sèvres;Coutières 79105;W0.1167;N46.5000;13;
3;FRA;Poitou-Charentes;Deux-Sèvres;Couture-d'Argenson 79106;W0.0833;N46.0000;13;
3;FRA;Poitou-Charentes;Deux-Sèvres;Crézières 79107;W0.1333;N46.0833;13;
3;FRA;Poitou-Charentes;Deux-Sèvres;Doux 79108;E0.0167;N46.7500;13;
3;FRA;Poitou-Charentes;Deux-Sèvres;Échiré 79109;W0.4000;N46.3833;13;
3;FRA;Poitou-Charentes;Deux-Sèvres;Ensigné 79111;W0.2333;N46.0833;13;
3;FRA;Poitou-Charentes;Deux-Sèvres;Épannes 79112;W0.5833;N46.2333;13;
3;FRA;Poitou-Charentes;Deux-Sèvres;Étusson 79113;W0.5167;N47.0167;13;
3;FRA;Poitou-Charentes;Deux-Sèvres;Exireuil 79114;W0.1833;N46.4333;13;
3;FRA;Poitou-Charentes;Deux-Sèvres;Exoudun 79115;W0.0667;N46.3333;13;
3;FRA;Poitou-Charentes;Deux-Sèvres;Faye-l'Abbesse 79116;W0.3500;N46.8333;13;
3;FRA;Poitou-Charentes;Deux-Sèvres;Faye-sur-Ardin 79117;W0.5167;N46.4500;13;
3;FRA;Poitou-Charentes;Deux-Sèvres;Fénery 79118;W0.3667;N46.6833;13;
3;FRA;Poitou-Charentes;Deux-Sèvres;Fenioux 79119;W0.4833;N46.5500;13;
3;FRA;Poitou-Charentes;Deux-Sèvres;Fomperron 79121;W0.1000;N46.4833;13;
3;FRA;Poitou-Charentes;Deux-Sèvres;Fors 79125;W0.4000;N46.2333;13;
3;FRA;Poitou-Charentes;Deux-Sèvres;François 79128;W0.3500;N46.3667;13;
3;FRA;Poitou-Charentes;Deux-Sèvres;Fressines 79129;W0.2917;N46.3250;13;
3;FRA;Poitou-Charentes;Deux-Sèvres;Frontenay-Rohan-Rohan 79130;W0.5333;N46.2500;13;
3;FRA;Poitou-Charentes;Deux-Sèvres;Geay 79131;W0.3275;N46.8796;13;
3;FRA;Poitou-Charentes;Deux-Sèvres;Genneton 79132;W0.4167;N47.0500;13;
3;FRA;Poitou-Charentes;Deux-Sèvres;Germond-Rouvre 79133;W0.4216;N46.4556;13;
3;FRA;Poitou-Charentes;Deux-Sèvres;Glénay 79134;W0.2500;N46.8667;13;
3;FRA;Poitou-Charentes;Deux-Sèvres;Gourgé 79135;W0.1667;N46.7333;13;
3;FRA;Poitou-Charentes;Deux-Sèvres;Gournay-Loizé 79136;W0.0618;N46.1501;13;
3;FRA;Poitou-Charentes;Deux-Sèvres;Granzay-Gript 79137;W0.4964;N46.2219;13;
3;FRA;Poitou-Charentes;Deux-Sèvres;Gript 79138=79137;W0.4667;N46.2167;13;
3;FRA;Poitou-Charentes;Deux-Sèvres;Hanc 79140;W0.0167;N46.0833;13;
3;FRA;Poitou-Charentes;Deux-Sèvres;Irais 79141;W0.0833;N46.8833;13;
3;FRA;Poitou-Charentes;Deux-Sèvres;Juillé 79142;W0.2167;N46.1167;13;
3;FRA;Poitou-Charentes;Deux-Sèvres;Juscorps 79144;W0.3833;N46.2167;13;
3;FRA;Poitou-Charentes;Deux-Sèvres;L'Absie 79001;W0.5833;N46.6333;13;
3;FRA;Poitou-Charentes;Deux-Sèvres;L'Enclave-de-la-Martinière 79110=79264;W0.1272;N46.2516;13;
3;FRA;Poitou-Charentes;Deux-Sèvres;La Bataille 79027;W0.1000;N46.0833;13;
3;FRA;Poitou-Charentes;Deux-Sèvres;La Boissière-en-Gâtine 79040;W0.3667;N46.5667;13;
3;FRA;Poitou-Charentes;Deux-Sèvres;La Chapelle-Bâton 79070;W0.3298;N46.4743;13;
3;FRA;Poitou-Charentes;Deux-Sèvres;La Chapelle-Bertrand 79071;W0.1833;N46.6167;13;
3;FRA;Poitou-Charentes;Deux-Sèvres;La Chapelle-Gaudin 79072;W0.3833;N46.9333;13;
3;FRA;Poitou-Charentes;Deux-Sèvres;La Chapelle-Largeau 79073=79079;W0.8333;N46.9500;13;
3;FRA;Poitou-Charentes;Deux-Sèvres;La Chapelle-Pouilloux 79074;E0.0333;N46.1333;13;
3;FRA;Poitou-Charentes;Deux-Sèvres;La Chapelle-Saint-Étienne 79075;W0.5667;N46.6833;13;
3;FRA;Poitou-Charentes;Deux-Sèvres;La Chapelle-Saint-Laurent 79076;W0.4833;N46.7500;13;
3;FRA;Poitou-Charentes;Deux-Sèvres;La Chapelle-Thireuil 79077;W0.5500;N46.5667;13;
3;FRA;Poitou-Charentes;Deux-Sèvres;La Couarde 79098;W0.1500;N46.3167;13;
3;FRA;Poitou-Charentes;Deux-Sèvres;La Coudre 79099;W0.4667;N46.9500;13;
3;FRA;Poitou-Charentes;Deux-Sèvres;La Crèche 79048;W0.3002;N46.3615;13;
3;FRA;Poitou-Charentes;Deux-Sèvres;La Ferrière-en-Parthenay 79120;W0.0833;N46.6667;13;
3;FRA;Poitou-Charentes;Deux-Sèvres;La Forêt-sur-Sèvre 79123;W0.6500;N46.7667;13;
3;FRA;Poitou-Charentes;Deux-Sèvres;La Foye-Monjault 79127;W0.5333;N46.1833;13;
3;FRA;Poitou-Charentes;Deux-Sèvres;La Mothe-Saint-Héray 79184;W0.1000;N46.3667;13;
3;FRA;Poitou-Charentes;Deux-Sèvres;La Petite-Boissière 79207;W0.7500;N46.8833;13;
3;FRA;Poitou-Charentes;Deux-Sèvres;La Peyratte 79208;W0.1500;N46.6667;13;
3;FRA;Poitou-Charentes;Deux-Sèvres;La Revêtizon 79227=79031;W0.4667;N46.1833;13;
3;FRA;Poitou-Charentes;Deux-Sèvres;La Rochénard 79229;W0.5833;N46.2000;13;
3;FRA;Poitou-Charentes;Deux-Sèvres;La Ronde 79232=79123;W0.6428;N46.7230;13;
3;FRA;Poitou-Charentes;Deux-Sèvres;Lageon 79145;W0.2500;N46.7333;13;
3;FRA;Poitou-Charentes;Deux-Sèvres;Lamairé 79146=79268;W0.1333;N46.7500;13;
3;FRA;Poitou-Charentes;Deux-Sèvres;Largeasse 79147;W0.5000;N46.6833;13;
3;FRA;Poitou-Charentes;Deux-Sèvres;Le Beugnon 79035;W0.5000;N46.5833;13;
3;FRA;Poitou-Charentes;Deux-Sèvres;Le Bourdet 79046;W0.6167;N46.2333;13;
3;FRA;Poitou-Charentes;Deux-Sèvres;Le Breuil-Bernard 79051;W0.5500;N46.7167;13;
3;FRA;Poitou-Charentes;Deux-Sèvres;Le Breuil-sous-Argenton 79053;W0.4167;N46.9833;13;
3;FRA;Poitou-Charentes;Deux-Sèvres;Le Busseau 79059;W0.6000;N46.5833;13;
3;FRA;Poitou-Charentes;Deux-Sèvres;Le Chillou 79089;W0.1333;N46.7500;13;
3;FRA;Poitou-Charentes;Deux-Sèvres;Le Cormenier 79097=79031;W0.4667;N46.1833;13;
3;FRA;Poitou-Charentes;Deux-Sèvres;Le Pin 79210;W0.6557;N46.8611;13;
3;FRA;Poitou-Charentes;Deux-Sèvres;Le Puy-Saint-Bonnet 79224=49099;W0.8930;N46.9957;13;
3;FRA;Poitou-Charentes;Deux-Sèvres;Le Retail 79226;W0.4333;N46.5667;13;
3;FRA;Poitou-Charentes;Deux-Sèvres;Le Tallud 79322;W0.3000;N46.6333;13;
3;FRA;Poitou-Charentes;Deux-Sèvres;Le Temple 79323=79079;W0.8165;N46.9291;13;
3;FRA;Poitou-Charentes;Deux-Sèvres;Le Vanneau-Irleau 79337;W0.6520;N46.3082;13;
3;FRA;Poitou-Charentes;Deux-Sèvres;Le Vert 79346;W0.3833;N46.0833;13;
3;FRA;Poitou-Charentes;Deux-Sèvres;Les Alleuds 79006;E0.0000;N46.1500;13;
3;FRA;Poitou-Charentes;Deux-Sèvres;Les Aubiers 79017=79195;W0.5833;N46.9500;13;
3;FRA;Poitou-Charentes;Deux-Sèvres;Les Forges 79124;W0.0333;N46.5500;13;
3;FRA;Poitou-Charentes;Deux-Sèvres;Les Fosses 79126;W0.3667;N46.1667;13;
3;FRA;Poitou-Charentes;Deux-Sèvres;Les Groseillers 79139;W0.4000;N46.5333;13;
3;FRA;Poitou-Charentes;Deux-Sèvres;Les Jumeaux 79143=79016;W0.0833;N46.8167;13;
3;FRA;Poitou-Charentes;Deux-Sèvres;Lezay 79148;W0.0167;N46.2667;13;
3;FRA;Poitou-Charentes;Deux-Sèvres;Lhoumois 79149;W0.1333;N46.7000;13;
3;FRA;Poitou-Charentes;Deux-Sèvres;Limalonges 79150;E0.1667;N46.1333;13;
3;FRA;Poitou-Charentes;Deux-Sèvres;Loizé 79151=79136;W0.0333;N46.1333;13;
3;FRA;Poitou-Charentes;Deux-Sèvres;Lorigné 79152;E0.0667;N46.1000;13;
3;FRA;Poitou-Charentes;Deux-Sèvres;Loubigné 79153;W0.0833;N46.0667;13;
3;FRA;Poitou-Charentes;Deux-Sèvres;Loubillé 79154;W0.0667;N46.0500;13;
3;FRA;Poitou-Charentes;Deux-Sèvres;Loublande 79155=79079;W0.8333;N46.9833;13;
3;FRA;Poitou-Charentes;Deux-Sèvres;Louin 79156;W0.1667;N46.8000;13;
3;FRA;Poitou-Charentes;Deux-Sèvres;Louzy 79157;W0.1833;N47.0167;13;
3;FRA;Poitou-Charentes;Deux-Sèvres;Luché-sur-Brioux 79158;W0.1500;N46.1333;13;
3;FRA;Poitou-Charentes;Deux-Sèvres;Luché-Thouarsais 79159;W0.3333;N46.9000;13;
3;FRA;Poitou-Charentes;Deux-Sèvres;Lusseray 79160;W0.1667;N46.1500;13;
3;FRA;Poitou-Charentes;Deux-Sèvres;Luzay 79161;W0.2000;N46.9333;13;
3;FRA;Poitou-Charentes;Deux-Sèvres;Magné 79162;W0.5500;N46.3167;13;
3;FRA;Poitou-Charentes;Deux-Sèvres;Mairé-Levescault 79163;W0.0821;N46.1541;13;
3;FRA;Poitou-Charentes;Deux-Sèvres;Maisonnay 79164;W0.0667;N46.1833;13;
3;FRA;Poitou-Charentes;Deux-Sèvres;Maisontiers 79165;W0.2500;N46.7833;13;
3;FRA;Poitou-Charentes;Deux-Sèvres;Marigny 79166;W0.4167;N46.2000;13;
3;FRA;Poitou-Charentes;Deux-Sèvres;Marnes 79167;W0.0167;N46.8500;13;
3;FRA;Poitou-Charentes;Deux-Sèvres;Massais 79168;W0.3500;N47.0167;13;
3;FRA;Poitou-Charentes;Deux-Sèvres;Maulais 79169=79321;W0.1667;N46.9333;13;
3;FRA;Poitou-Charentes;Deux-Sèvres;Mauléon 79079;W0.7483;N46.9236;13;
3;FRA;Poitou-Charentes;Deux-Sèvres;Mauzé-sur-le-Mignon 79170;W0.6667;N46.2000;13;
3;FRA;Poitou-Charentes;Deux-Sèvres;Mauzé-Thouarsais 79171;W0.2667;N46.9833;13;
3;FRA;Poitou-Charentes;Deux-Sèvres;Mazières-en-Gâtine 79172;W0.3167;N46.5333;13;
3;FRA;Poitou-Charentes;Deux-Sèvres;Mazières-sur-Béronne 79173;W0.1833;N46.2000;13;
3;FRA;Poitou-Charentes;Deux-Sèvres;Melle 79174;W0.1333;N46.2167;13;
3;FRA;Poitou-Charentes;Deux-Sèvres;Melleran 79175;E0.0000;N46.1333;13;
3;FRA;Poitou-Charentes;Deux-Sèvres;Ménigoute 79176;W0.0500;N46.5000;13;
3;FRA;Poitou-Charentes;Deux-Sèvres;Messé 79177;E0.1167;N46.2667;13;
3;FRA;Poitou-Charentes;Deux-Sèvres;Missé 79178;W0.2000;N46.9500;13;
3;FRA;Poitou-Charentes;Deux-Sèvres;Moncoutant 79179;W0.5833;N46.7167;13;
3;FRA;Poitou-Charentes;Deux-Sèvres;Montalembert 79180;E0.1500;N46.1000;13;
3;FRA;Poitou-Charentes;Deux-Sèvres;Montigné 79181=79061;W0.2333;N46.2000;13;
3;FRA;Poitou-Charentes;Deux-Sèvres;Montigny 79182=79123;W0.6333;N46.8000;13;
3;FRA;Poitou-Charentes;Deux-Sèvres;Montravers 79183;W0.7167;N46.8333;13;
3;FRA;Poitou-Charentes;Deux-Sèvres;Mougon 79185;W0.2833;N46.2917;13;
3;FRA;Poitou-Charentes;Deux-Sèvres;Moulins 79186=79079;W0.8000;N46.9500;13;
3;FRA;Poitou-Charentes;Deux-Sèvres;Moutiers-sous-Argenton 79187;W0.3833;N46.9500;13;
3;FRA;Poitou-Charentes;Deux-Sèvres;Moutiers-sous-Chantemerle 79188;W0.6167;N46.7000;13;
3;FRA;Poitou-Charentes;Deux-Sèvres;Nanteuil 79189;W0.1667;N46.4167;13;
3;FRA;Poitou-Charentes;Deux-Sèvres;Neuvy-Bouin 79190;W0.4667;N46.6833;13;
3;FRA;Poitou-Charentes;Deux-Sèvres;Niort 79191;W0.4667;N46.3167;13;
3;FRA;Poitou-Charentes;Deux-Sèvres;Noirlieu 79192=79049;W0.4333;N46.9167;13;
3;FRA;Poitou-Charentes;Deux-Sèvres;Noirterre 79193=79049;W0.4000;N46.8667;13;
3;FRA;Poitou-Charentes;Deux-Sèvres;Noizé 79194=79196;W0.1000;N46.9000;13;
3;FRA;Poitou-Charentes;Deux-Sèvres;Nueil-les-Aubiers 79195;W0.5909;N46.9374;13;
3;FRA;Poitou-Charentes;Deux-Sèvres;Oiron 79196;W0.0833;N46.9500;13;
3;FRA;Poitou-Charentes;Deux-Sèvres;Oroux 79197;W0.1000;N46.6833;13;
3;FRA;Poitou-Charentes;Deux-Sèvres;Paizay-le-Chapt 79198;W0.1833;N46.0833;13;
3;FRA;Poitou-Charentes;Deux-Sèvres;Paizay-le-Tort 79199;W0.1833;N46.1667;13;
3;FRA;Poitou-Charentes;Deux-Sèvres;Pamplie 79200;W0.4333;N46.5333;13;
3;FRA;Poitou-Charentes;Deux-Sèvres;Pamproux 79201;W0.0500;N46.3833;13;
3;FRA;Poitou-Charentes;Deux-Sèvres;Parthenay 79202;W0.2500;N46.6500;13;
3;FRA;Poitou-Charentes;Deux-Sèvres;Pas-de-Jeu 79203;W0.0333;N46.9833;13;
3;FRA;Poitou-Charentes;Deux-Sèvres;Périgné 79204;W0.2500;N46.1833;13;
3;FRA;Poitou-Charentes;Deux-Sèvres;Pers 79205;E0.0667;N46.2167;13;
3;FRA;Poitou-Charentes;Deux-Sèvres;Petit-Breuil-Deyrançon 79206=79170;W0.6436;N46.1945;13;
3;FRA;Poitou-Charentes;Deux-Sèvres;Pierrefitte 79209;W0.3000;N46.8667;13;
3;FRA;Poitou-Charentes;Deux-Sèvres;Pioussay 79211;E0.0333;N46.0667;13;
3;FRA;Poitou-Charentes;Deux-Sèvres;Pliboux 79212;E0.1333;N46.1667;13;
3;FRA;Poitou-Charentes;Deux-Sèvres;Pompaire 79213;W0.2333;N46.6167;13;
3;FRA;Poitou-Charentes;Deux-Sèvres;Pouffonds 79214;W0.1000;N46.2000;13;
3;FRA;Poitou-Charentes;Deux-Sèvres;Pougne-Hérisson 79215;W0.4000;N46.6500;13;
3;FRA;Poitou-Charentes;Deux-Sèvres;Prahecq 79216;W0.3500;N46.2500;13;
3;FRA;Poitou-Charentes;Deux-Sèvres;Prailles 79217;W0.2167;N46.3167;13;
3;FRA;Poitou-Charentes;Deux-Sèvres;Pressigny 79218;W0.1000;N46.7500;13;
3;FRA;Poitou-Charentes;Deux-Sèvres;Priaires 79219;W0.6000;N46.1333;13;
3;FRA;Poitou-Charentes;Deux-Sèvres;Prin-Deyrançon 79220;W0.6333;N46.2167;13;
3;FRA;Poitou-Charentes;Deux-Sèvres;Prissé 79221=79078;W0.5000;N46.1500;13;
3;FRA;Poitou-Charentes;Deux-Sèvres;Prissé-la-Charrière 79078;W0.4847;N46.1541;13;
3;FRA;Poitou-Charentes;Deux-Sèvres;Pugny 79222;W0.5167;N46.7167;13;
3;FRA;Poitou-Charentes;Deux-Sèvres;Puihardy 79223;W0.5355;N46.5234;13;
3;FRA;Poitou-Charentes;Deux-Sèvres;Reffannes 79225;W0.1833;N46.5500;13;
3;FRA;Poitou-Charentes;Deux-Sèvres;Rigné 79228=79171;W0.2500;N46.9500;13;
3;FRA;Poitou-Charentes;Deux-Sèvres;Rom 79230;E0.1167;N46.3000;13;
3;FRA;Poitou-Charentes;Deux-Sèvres;Romans 79231;W0.2333;N46.3500;13;
3;FRA;Poitou-Charentes;Deux-Sèvres;Rorthais 79233=79079;W0.7167;N46.9167;13;
3;FRA;Poitou-Charentes;Deux-Sèvres;Rouvre 79234=79133;W0.4000;N46.4333;13;
3;FRA;Poitou-Charentes;Deux-Sèvres;Saint-Amand-sur-Sèvre 79235;W0.8000;N46.8667;13;
3;FRA;Poitou-Charentes;Deux-Sèvres;Saint-André-sur-Sèvre 79236;W0.6667;N46.7833;13;
3;FRA;Poitou-Charentes;Deux-Sèvres;Saint-Aubin-de-Baubigné 79237=79079;W0.7000;N46.9500;13;
3;FRA;Poitou-Charentes;Deux-Sèvres;Saint-Aubin-du-Plain 79238;W0.4833;N46.9333;13;
3;FRA;Poitou-Charentes;Deux-Sèvres;Saint-Aubin-le-Cloud 79239;W0.3500;N46.6500;13;
3;FRA;Poitou-Charentes;Deux-Sèvres;Saint-Christophe-sur-Roc 79241;W0.3500;N46.4500;13;
3;FRA;Poitou-Charentes;Deux-Sèvres;Saint-Clémentin 79242;W0.5167;N46.9500;13;
3;FRA;Poitou-Charentes;Deux-Sèvres;Saint-Coutant 79243;W0.0120;N46.2293;13;
3;FRA;Poitou-Charentes;Deux-Sèvres;Saint-Cyr-la-Lande 79244;W0.1500;N47.0500;13;
3;FRA;Poitou-Charentes;Deux-Sèvres;Saint-Denis 79245=79066;W0.3833;N46.4833;13;
3;FRA;Poitou-Charentes;Deux-Sèvres;Saint-Étienne-la-Cigogne 79247;W0.5000;N46.1167;13;
3;FRA;Poitou-Charentes;Deux-Sèvres;Saint-Florent 79248=79191;W0.4665;N46.3081;13;
3;FRA;Poitou-Charentes;Deux-Sèvres;Saint-Gelais 79249;W0.3833;N46.3833;13;
3;FRA;Poitou-Charentes;Deux-Sèvres;Saint-Génard 79251;W0.1333;N46.1833;13;
3;FRA;Poitou-Charentes;Deux-Sèvres;Saint-Généroux 79252;W0.1500;N46.8833;13;
3;FRA;Poitou-Charentes;Deux-Sèvres;Saint-Georges-de-Noisné 79253;W0.2500;N46.4833;13;
3;FRA;Poitou-Charentes;Deux-Sèvres;Saint-Georges-de-Rex 79254;W0.6500;N46.2833;13;
3;FRA;Poitou-Charentes;Deux-Sèvres;Saint-Germain-de-Longue-Chaume 79255;W0.3500;N46.7167;13;
3;FRA;Poitou-Charentes;Deux-Sèvres;Saint-Germier 79256;W0.0333;N46.4500;13;
3;FRA;Poitou-Charentes;Deux-Sèvres;Saint-Hilaire-la-Palud 79257;W0.7167;N46.2667;13;
3;FRA;Poitou-Charentes;Deux-Sèvres;Saint-Jacques-de-Thouars 79258;W0.2167;N46.9833;13;
3;FRA;Poitou-Charentes;Deux-Sèvres;Saint-Jean-de-Thouars 79259;W0.2167;N46.9667;13;
3;FRA;Poitou-Charentes;Deux-Sèvres;Saint-Jouin-de-Marnes 79260;W0.0500;N46.8833;13;
3;FRA;Poitou-Charentes;Deux-Sèvres;Saint-Jouin-de-Milly 79261;W0.6000;N46.7500;13;
3;FRA;Poitou-Charentes;Deux-Sèvres;Saint-Jouin-sous-Châtillon 79262=79079;W0.7582;N46.9275;13;
3;FRA;Poitou-Charentes;Deux-Sèvres;Saint-Laurs 79263;W0.5667;N46.5167;13;
3;FRA;Poitou-Charentes;Deux-Sèvres;Saint-Léger-de-la-Martinière 79264;W0.1237;N46.2280;13;
3;FRA;Poitou-Charentes;Deux-Sèvres;Saint-Léger-de-Montbrun 79265;W0.1333;N47.0000;13;
3;FRA;Poitou-Charentes;Deux-Sèvres;Saint-Liguaire 79266=79191;W0.5167;N46.3333;13;
3;FRA;Poitou-Charentes;Deux-Sèvres;Saint-Lin 79267;W0.2333;N46.5333;13;
3;FRA;Poitou-Charentes;Deux-Sèvres;Saint-Loup-Lamairé 79268;W0.1670;N46.7874;13;
3;FRA;Poitou-Charentes;Deux-Sèvres;Saint-Maixent-de-Beugné 79269;W0.6000;N46.5000;13;
3;FRA;Poitou-Charentes;Deux-Sèvres;Saint-Maixent-l'École 79270;W0.2000;N46.4167;13;
3;FRA;Poitou-Charentes;Deux-Sèvres;Saint-Marc-la-Lande 79271;W0.3801;N46.5199;13;
3;FRA;Poitou-Charentes;Deux-Sèvres;Saint-Marsault 79272=79123;W0.6500;N46.7333;13;
3;FRA;Poitou-Charentes;Deux-Sèvres;Saint-Martin-d'Entraigues 79275=79122;W0.1167;N46.1000;13;
3;FRA;Poitou-Charentes;Deux-Sèvres;Saint-Martin-de-Bernegoue 79273;W0.3500;N46.2333;13;
3;FRA;Poitou-Charentes;Deux-Sèvres;Saint-Martin-de-Mâcon 79274;W0.1167;N47.0167;13;
3;FRA;Poitou-Charentes;Deux-Sèvres;Saint-Martin-de-Saint-Maixent 79276;W0.2000;N46.4000;13;
3;FRA;Poitou-Charentes;Deux-Sèvres;Saint-Martin-de-Sanzay 79277;W0.2000;N47.0833;13;
3;FRA;Poitou-Charentes;Deux-Sèvres;Saint-Martin-du-Fouilloux 79278;W0.1167;N46.6000;13;
3;FRA;Poitou-Charentes;Deux-Sèvres;Saint-Martin-lès-Melle 79279;W0.1500;N46.2167;13;
3;FRA;Poitou-Charentes;Deux-Sèvres;Saint-Maurice-la-Fougereuse 79280;W0.5000;N47.0333;13;
3;FRA;Poitou-Charentes;Deux-Sèvres;Saint-Maxire 79281;W0.4833;N46.4000;13;
3;FRA;Poitou-Charentes;Deux-Sèvres;Saint-Médard 79282;W0.2667;N46.2167;13;
3;FRA;Poitou-Charentes;Deux-Sèvres;Saint-Pardoux 79285;W0.3000;N46.5667;13;
3;FRA;Poitou-Charentes;Deux-Sèvres;Saint-Paul-en-Gâtine 79286;W0.6000;N46.6333;13;
3;FRA;Poitou-Charentes;Deux-Sèvres;Saint-Pierre-à-Champ 79288=79063;W0.3667;N47.0667;13;
3;FRA;Poitou-Charentes;Deux-Sèvres;Saint-Pierre-des-Échaubrognes 79289;W0.7436;N46.9900;13;
3;FRA;Poitou-Charentes;Deux-Sèvres;Saint-Pompain 79290;W0.6000;N46.4333;13;
3;FRA;Poitou-Charentes;Deux-Sèvres;Saint-Porchaire 79291=79049;W0.4506;N46.8552;13;
3;FRA;Poitou-Charentes;Deux-Sèvres;Saint-Rémy 79293;W0.5333;N46.3667;13;
3;FRA;Poitou-Charentes;Deux-Sèvres;Saint-Romans-des-Champs 79294;W0.3500;N46.2000;13;
3;FRA;Poitou-Charentes;Deux-Sèvres;Saint-Romans-lès-Melle 79295;W0.1833;N46.2000;13;
3;FRA;Poitou-Charentes;Deux-Sèvres;Saint-Sauveur 79296=79049;W0.4182;N46.8250;13;
3;FRA;Poitou-Charentes;Deux-Sèvres;Saint-Symphorien 79298;W0.5000;N46.2667;13;
3;FRA;Poitou-Charentes;Deux-Sèvres;Saint-Varent 79299;W0.2333;N46.8833;13;
3;FRA;Poitou-Charentes;Deux-Sèvres;Saint-Vincent-la-Châtre 79301;W0.0333;N46.2167;13;
3;FRA;Poitou-Charentes;Deux-Sèvres;Sainte-Blandine 79240;W0.2667;N46.2500;13;
3;FRA;Poitou-Charentes;Deux-Sèvres;Sainte-Eanne 79246;W0.1500;N46.3833;13;
3;FRA;Poitou-Charentes;Deux-Sèvres;Sainte-Gemme 79250;W0.2865;N46.9005;13;
3;FRA;Poitou-Charentes;Deux-Sèvres;Sainte-Néomaye 79283;W0.2500;N46.3667;13;
3;FRA;Poitou-Charentes;Deux-Sèvres;Sainte-Ouenne 79284;W0.4500;N46.4500;13;
3;FRA;Poitou-Charentes;Deux-Sèvres;Sainte-Pezenne 79287=79191;W0.4667;N46.3500;13;
3;FRA;Poitou-Charentes;Deux-Sèvres;Sainte-Radegonde 79292;W0.2483;N46.9850;13;
3;FRA;Poitou-Charentes;Deux-Sèvres;Sainte-Soline 79297;E0.0333;N46.2500;13;
3;FRA;Poitou-Charentes;Deux-Sèvres;Sainte-Verge 79300;W0.2167;N47.0167;13;
3;FRA;Poitou-Charentes;Deux-Sèvres;Saivres 79302;W0.2333;N46.4333;13;
3;FRA;Poitou-Charentes;Deux-Sèvres;Salles 79303;W0.0980;N46.3862;13;
3;FRA;Poitou-Charentes;Deux-Sèvres;Sansais 79304;W0.5833;N46.2667;13;
3;FRA;Poitou-Charentes;Deux-Sèvres;Sanzay 79305;W0.4357;N46.9587;13;
3;FRA;Poitou-Charentes;Deux-Sèvres;Saurais 79306;W0.1500;N46.6167;13;
3;FRA;Poitou-Charentes;Deux-Sèvres;Sauzé-Vaussais 79307;E0.1000;N46.1333;13;
3;FRA;Poitou-Charentes;Deux-Sèvres;Sciecq 79308;W0.4667;N46.3667;13;
3;FRA;Poitou-Charentes;Deux-Sèvres;Scillé 79309;W0.5667;N46.6000;13;
3;FRA;Poitou-Charentes;Deux-Sèvres;Secondigné-sur-Belle 79310;W0.3000;N46.1667;13;
3;FRA;Poitou-Charentes;Deux-Sèvres;Secondigny 79311;W0.4167;N46.6167;13;
3;FRA;Poitou-Charentes;Deux-Sèvres;Séligné 79312;W0.2833;N46.1333;13;
3;FRA;Poitou-Charentes;Deux-Sèvres;Sepvret 79313;W0.0833;N46.2833;13;
3;FRA;Poitou-Charentes;Deux-Sèvres;Sompt 79314;W0.1000;N46.1500;13;
3;FRA;Poitou-Charentes;Deux-Sèvres;Souché 79315=79191;W0.4167;N46.3333;13;
3;FRA;Poitou-Charentes;Deux-Sèvres;Soudan 79316;W0.1167;N46.4333;13;
3;FRA;Poitou-Charentes;Deux-Sèvres;Soulièvres 79317=79005;W0.1500;N46.8167;13;
3;FRA;Poitou-Charentes;Deux-Sèvres;Soutiers 79318;W0.2667;N46.5667;13;
3;FRA;Poitou-Charentes;Deux-Sèvres;Souvigné 79319;W0.1833;N46.3667;13;
3;FRA;Poitou-Charentes;Deux-Sèvres;Surin 79320;W0.4636;N46.4604;13;
3;FRA;Poitou-Charentes;Deux-Sèvres;Taizé 79321;W0.1167;N46.9167;13;
3;FRA;Poitou-Charentes;Deux-Sèvres;Terves 79324=79049;W0.5167;N46.8000;13;
3;FRA;Poitou-Charentes;Deux-Sèvres;Tessonnière 79325;W0.1833;N46.8167;13;
3;FRA;Poitou-Charentes;Deux-Sèvres;Thénezay 79326;W0.0333;N46.7167;13;
3;FRA;Poitou-Charentes;Deux-Sèvres;Thorigné 79327;W0.2500;N46.2833;13;
3;FRA;Poitou-Charentes;Deux-Sèvres;Thorigny-sur-le-Mignon 79328;W0.5500;N46.1500;13;
3;FRA;Poitou-Charentes;Deux-Sèvres;Thouars 79329;W0.2167;N46.9667;13;
3;FRA;Poitou-Charentes;Deux-Sèvres;Tillou 79330;W0.1167;N46.1500;13;
3;FRA;Poitou-Charentes;Deux-Sèvres;Tourtenay 79331;W0.1333;N47.0333;13;
3;FRA;Poitou-Charentes;Deux-Sèvres;Trayes 79332;W0.4833;N46.6833;13;
3;FRA;Poitou-Charentes;Deux-Sèvres;Ulcot 79333;W0.4167;N47.0333;13;
3;FRA;Poitou-Charentes;Deux-Sèvres;Usseau 79334;W0.5789;N46.1733;13;
3;FRA;Poitou-Charentes;Deux-Sèvres;Vallans 79335;W0.5500;N46.2167;13;
3;FRA;Poitou-Charentes;Deux-Sèvres;Vançais 79336;E0.0500;N46.3000;13;
3;FRA;Poitou-Charentes;Deux-Sèvres;Vanzay 79338;E0.1000;N46.2333;13;
3;FRA;Poitou-Charentes;Deux-Sèvres;Vasles 79339;W0.0167;N46.5833;13;
3;FRA;Poitou-Charentes;Deux-Sèvres;Vausseroux 79340;W0.1333;N46.5500;13;
3;FRA;Poitou-Charentes;Deux-Sèvres;Vautebis 79341;W0.1500;N46.5333;13;
3;FRA;Poitou-Charentes;Deux-Sèvres;Vernoux-en-Gâtine 79342;W0.5167;N46.6333;13;
3;FRA;Poitou-Charentes;Deux-Sèvres;Vernoux-sur-Boutonne 79343;W0.2500;N46.1500;13;
3;FRA;Poitou-Charentes;Deux-Sèvres;Verrines-sous-Celles 79344=79061;W0.2333;N46.2333;13;
3;FRA;Poitou-Charentes;Deux-Sèvres;Verruyes 79345;W0.2833;N46.5167;13;
3;FRA;Poitou-Charentes;Deux-Sèvres;Viennay 79347;W0.2500;N46.6833;13;
3;FRA;Poitou-Charentes;Deux-Sèvres;Villefollet 79348;W0.2667;N46.1167;13;
3;FRA;Poitou-Charentes;Deux-Sèvres;Villemain 79349;W0.0833;N46.0167;13;
3;FRA;Poitou-Charentes;Deux-Sèvres;Villiers-en-Bois 79350;W0.4000;N46.1500;13;
3;FRA;Poitou-Charentes;Deux-Sèvres;Villiers-en-Plaine 79351;W0.5333;N46.4000;13;
3;FRA;Poitou-Charentes;Deux-Sèvres;Villiers-sur-Chizé 79352;W0.3000;N46.1000;13;
3;FRA;Poitou-Charentes;Deux-Sèvres;Vitré 79353;W0.2000;N46.2833;13;
3;FRA;Poitou-Charentes;Deux-Sèvres;Vouhé 79354;W0.2333;N46.5500;13;
3;FRA;Poitou-Charentes;Deux-Sèvres;Vouillé 79355;W0.3667;N46.3167;13;
3;FRA;Poitou-Charentes;Deux-Sèvres;Voultegon 79356;W0.5167;N46.9333;13;
3;FRA;Poitou-Charentes;Deux-Sèvres;Xaintray 79357;W0.4667;N46.5000;13;
2;FRA;Poitou-Charentes;Vienne;;E0.38;N46.61;9;
3;FRA;Poitou-Charentes;Vienne;Adriers 86001;E0.8000;N46.2500;13;
3;FRA;Poitou-Charentes;Vienne;Amberre 86002;E0.1500;N46.7833;13;
3;FRA;Poitou-Charentes;Vienne;Anché 86003;E0.2667;N46.3500;13;
3;FRA;Poitou-Charentes;Vienne;Angles-sur-l'Anglin 86004;E0.8833;N46.7000;13;
3;FRA;Poitou-Charentes;Vienne;Angliers 86005;E0.1191;N46.9471;13;
3;FRA;Poitou-Charentes;Vienne;Antigny 86006;E0.8500;N46.5333;13;
3;FRA;Poitou-Charentes;Vienne;Antran 86007;E0.5333;N46.8500;13;
3;FRA;Poitou-Charentes;Vienne;Arçay 86008;E0.0167;N46.9667;13;
3;FRA;Poitou-Charentes;Vienne;Archigny 86009;E0.6500;N46.6667;13;
3;FRA;Poitou-Charentes;Vienne;Aslonnes 86010;E0.3333;N46.4000;13;
3;FRA;Poitou-Charentes;Vienne;Asnières-sur-Blour 86011;E0.8000;N46.1667;13;
3;FRA;Poitou-Charentes;Vienne;Asnois 86012;E0.4167;N46.1167;13;
3;FRA;Poitou-Charentes;Vienne;Aulnay 86013;E0.0917;N46.9083;13;
3;FRA;Poitou-Charentes;Vienne;Availles-en-Châtellerault 86014;E0.5791;N46.7573;13;
3;FRA;Poitou-Charentes;Vienne;Availles-Limouzine 86015;E0.6500;N46.1167;13;
3;FRA;Poitou-Charentes;Vienne;Avanton 86016;E0.3167;N46.6667;13;
3;FRA;Poitou-Charentes;Vienne;Ayron 86017;E0.0667;N46.6667;13;
3;FRA;Poitou-Charentes;Vienne;Basses 86018;E0.1167;N47.0333;13;
3;FRA;Poitou-Charentes;Vienne;Beaumont 86019;E0.4333;N46.7333;13;
3;FRA;Poitou-Charentes;Vienne;Bellefonds 86020;E0.5833;N46.6333;13;
3;FRA;Poitou-Charentes;Vienne;Benassay 86021;E0.0500;N46.5667;13;
3;FRA;Poitou-Charentes;Vienne;Berrie 86022;W0.0667;N47.0667;13;
3;FRA;Poitou-Charentes;Vienne;Berthegon 86023;E0.2667;N46.9000;13;
3;FRA;Poitou-Charentes;Vienne;Béruges 86024;E0.2000;N46.5667;13;
3;FRA;Poitou-Charentes;Vienne;Béthines 86025;E0.9833;N46.5500;13;
3;FRA;Poitou-Charentes;Vienne;Beuxes 86026;E0.1833;N47.0833;13;
3;FRA;Poitou-Charentes;Vienne;Biard 86027;E0.3000;N46.5667;13;
3;FRA;Poitou-Charentes;Vienne;Bignoux 86028;E0.4667;N46.6000;13;
3;FRA;Poitou-Charentes;Vienne;Blanzay 86029;E0.2500;N46.2000;13;
3;FRA;Poitou-Charentes;Vienne;Blaslay 86030;E0.2500;N46.7500;13;
3;FRA;Poitou-Charentes;Vienne;Bonnes 86031;E0.6000;N46.6000;13;
3;FRA;Poitou-Charentes;Vienne;Bonneuil-Matours 86032;E0.5500;N46.6833;13;
3;FRA;Poitou-Charentes;Vienne;Bouresse 86034;E0.6167;N46.3667;13;
3;FRA;Poitou-Charentes;Vienne;Bourg-Archambault 86035;E1.0000;N46.3833;13;
3;FRA;Poitou-Charentes;Vienne;Bournand 86036;E0.0667;N47.0833;13;
3;FRA;Poitou-Charentes;Vienne;Brigueil-le-Chantre 86037;E1.0833;N46.4000;13;
3;FRA;Poitou-Charentes;Vienne;Brion 86038;E0.4667;N46.3500;13;
3;FRA;Poitou-Charentes;Vienne;Brux 86039;E0.2000;N46.2333;13;
3;FRA;Poitou-Charentes;Vienne;Buxerolles 86041;E0.4833;N46.6167;13;
3;FRA;Poitou-Charentes;Vienne;Buxeuil 86042;E0.6743;N46.9771;13;
3;FRA;Poitou-Charentes;Vienne;Ceaux-en-Couhé 86043;E0.2333;N46.3167;13;
3;FRA;Poitou-Charentes;Vienne;Ceaux-en-Loudun 86044;E0.2333;N47.0167;13;
3;FRA;Poitou-Charentes;Vienne;Celle-Lévescault 86045;E0.1833;N46.4333;13;
3;FRA;Poitou-Charentes;Vienne;Cenon-sur-Vienne 86046;E0.5333;N46.7667;13;
3;FRA;Poitou-Charentes;Vienne;Cernay 86047;E0.3000;N46.8333;13;
3;FRA;Poitou-Charentes;Vienne;Chabournay 86048;E0.2667;N46.7167;13;
3;FRA;Poitou-Charentes;Vienne;Chalais 86049;E0.0872;N46.9718;13;
3;FRA;Poitou-Charentes;Vienne;Chalandray 86050;E0.0000;N46.6667;13;
3;FRA;Poitou-Charentes;Vienne;Champagné-le-Sec 86051;E0.2000;N46.1833;13;
3;FRA;Poitou-Charentes;Vienne;Champagné-Saint-Hilaire 86052;E0.3333;N46.3167;13;
3;FRA;Poitou-Charentes;Vienne;Champigny-le-Sec 86053;E0.1500;N46.7167;13;
3;FRA;Poitou-Charentes;Vienne;Champniers 86054;E0.3362;N46.2180;13;
3;FRA;Poitou-Charentes;Vienne;Chapelle-Morthemer 86057=86233;E0.6000;N46.4833;13;
3;FRA;Poitou-Charentes;Vienne;Chapelle-Viviers 86059;E0.7260;N46.4838;13;
3;FRA;Poitou-Charentes;Vienne;Charrais 86060;E0.1833;N46.7000;13;
3;FRA;Poitou-Charentes;Vienne;Charroux 86061;E0.4000;N46.1500;13;
3;FRA;Poitou-Charentes;Vienne;Chasseneuil-du-Poitou 86062;E0.3667;N46.6500;13;
3;FRA;Poitou-Charentes;Vienne;Chatain 86063;E0.4333;N46.0667;13;
3;FRA;Poitou-Charentes;Vienne;Château-Garnier 86064;E0.4167;N46.2667;13;
3;FRA;Poitou-Charentes;Vienne;Château-Larcher 86065;E0.3167;N46.4167;13;
3;FRA;Poitou-Charentes;Vienne;Châtellerault 86066;E0.5333;N46.8000;13;
3;FRA;Poitou-Charentes;Vienne;Châtillon 86067;E0.2000;N46.3167;13;
3;FRA;Poitou-Charentes;Vienne;Chaunay 86068;E0.1667;N46.2000;13;
3;FRA;Poitou-Charentes;Vienne;Chauvigny 86070;E0.6500;N46.5667;13;
3;FRA;Poitou-Charentes;Vienne;Cheneché 86071;E0.2833;N46.7333;13;
3;FRA;Poitou-Charentes;Vienne;Chenevelles 86072;E0.6167;N46.7167;13;
3;FRA;Poitou-Charentes;Vienne;Cherves 86073;E0.0167;N46.7167;13;
3;FRA;Poitou-Charentes;Vienne;Chiré-en-Montreuil 86074;E0.1333;N46.6500;13;
3;FRA;Poitou-Charentes;Vienne;Chouppes 86075;E0.1667;N46.8167;13;
3;FRA;Poitou-Charentes;Vienne;Cissé 86076;E0.2500;N46.6500;13;
3;FRA;Poitou-Charentes;Vienne;Civaux 86077;E0.6667;N46.4500;13;
3;FRA;Poitou-Charentes;Vienne;Civray 86078;E0.3000;N46.1500;13;
3;FRA;Poitou-Charentes;Vienne;Cloué 86080;E0.1667;N46.4333;13;
3;FRA;Poitou-Charentes;Vienne;Colombiers 86081;E0.4333;N46.7667;13;
3;FRA;Poitou-Charentes;Vienne;Couhé 86082;E0.1833;N46.3000;13;
3;FRA;Poitou-Charentes;Vienne;Coulombiers 86083;E0.1833;N46.4833;13;
3;FRA;Poitou-Charentes;Vienne;Coulonges 86084;E1.1539;N46.4015;13;
3;FRA;Poitou-Charentes;Vienne;Coussay 86085;E0.2000;N46.8333;13;
3;FRA;Poitou-Charentes;Vienne;Coussay-les-Bois 86086;E0.7500;N46.8000;13;
3;FRA;Poitou-Charentes;Vienne;Craon 86087;E0.0333;N46.7833;13;
3;FRA;Poitou-Charentes;Vienne;Croutelle 86088;E0.2833;N46.5333;13;
3;FRA;Poitou-Charentes;Vienne;Cuhon 86089;E0.1000;N46.7667;13;
3;FRA;Poitou-Charentes;Vienne;Curçay-sur-Dive 86090;W0.0569;N47.0124;13;
3;FRA;Poitou-Charentes;Vienne;Curzay-sur-Vonne 86091;E0.0500;N46.4833;13;
3;FRA;Poitou-Charentes;Vienne;Dangé-Saint-Romain 86092;E0.6063;N46.9376;13;
3;FRA;Poitou-Charentes;Vienne;Dercé 86093;E0.2222;N46.9492;13;
3;FRA;Poitou-Charentes;Vienne;Dienné 86094;E0.5500;N46.4500;13;
3;FRA;Poitou-Charentes;Vienne;Dissay 86095;E0.4333;N46.7000;13;
3;FRA;Poitou-Charentes;Vienne;Doussay 86096;E0.2667;N46.8333;13;
3;FRA;Poitou-Charentes;Vienne;Fleix 86098;E0.7500;N46.5500;13;
3;FRA;Poitou-Charentes;Vienne;Fleuré 86099;E0.5167;N46.4833;13;
3;FRA;Poitou-Charentes;Vienne;Fontaine-le-Comte 86100;E0.2667;N46.5333;13;
3;FRA;Poitou-Charentes;Vienne;Frontenay-sur-Dive 86101=86225;E0.0500;N46.8500;13;
3;FRA;Poitou-Charentes;Vienne;Frozes 86102;E0.1500;N46.6667;13;
3;FRA;Poitou-Charentes;Vienne;Gençay 86103;E0.4058;N46.3733;13;
3;FRA;Poitou-Charentes;Vienne;Genouillé 86104;E0.3367;N46.1072;13;
3;FRA;Poitou-Charentes;Vienne;Gizay 86105;E0.4167;N46.4333;13;
3;FRA;Poitou-Charentes;Vienne;Glénouze 86106;W0.0167;N47.0000;13;
3;FRA;Poitou-Charentes;Vienne;Gouex 86107;E0.6833;N46.3667;13;
3;FRA;Poitou-Charentes;Vienne;Guesnes 86109;E0.1667;N46.9167;13;
3;FRA;Poitou-Charentes;Vienne;Haims 86110;E0.9167;N46.5000;13;
3;FRA;Poitou-Charentes;Vienne;Ingrandes 86111;E0.5667;N46.8667;13;
3;FRA;Poitou-Charentes;Vienne;Iteuil 86113;E0.3167;N46.4833;13;
3;FRA;Poitou-Charentes;Vienne;Jardres 86114;E0.5667;N46.5667;13;
3;FRA;Poitou-Charentes;Vienne;Jaunay-Clan 86115;E0.3667;N46.6833;13;
3;FRA;Poitou-Charentes;Vienne;Jazeneuil 86116;E0.0667;N46.4667;13;
3;FRA;Poitou-Charentes;Vienne;Jouhet 86117;E0.8333;N46.4833;13;
3;FRA;Poitou-Charentes;Vienne;Journet 86118;E0.9667;N46.4667;13;
3;FRA;Poitou-Charentes;Vienne;Joussé 86119;E0.4667;N46.2333;13;
3;FRA;Poitou-Charentes;Vienne;L'Isle-Jourdain 86112;E0.6833;N46.2333;13;
3;FRA;Poitou-Charentes;Vienne;La Bussière 86040;E0.8167;N46.6167;13;
3;FRA;Poitou-Charentes;Vienne;La Chapelle-Bâton 86055;E0.3952;N46.1857;13;
3;FRA;Poitou-Charentes;Vienne;La Chapelle-Montreuil 86056;E0.1155;N46.5343;13;
3;FRA;Poitou-Charentes;Vienne;La Chapelle-Moulière 86058;E0.5667;N46.6500;13;
3;FRA;Poitou-Charentes;Vienne;La Chaussée 86069;E0.1167;N46.8833;13;
3;FRA;Poitou-Charentes;Vienne;La Ferrière-Airoux 86097;E0.4000;N46.3167;13;
3;FRA;Poitou-Charentes;Vienne;La Grimaudière 86108;E0.0167;N46.8000;13;
3;FRA;Poitou-Charentes;Vienne;La Puye 86202;E0.7500;N46.6500;13;
3;FRA;Poitou-Charentes;Vienne;La Roche-Posay 86207;E0.8167;N46.7833;13;
3;FRA;Poitou-Charentes;Vienne;La Roche-Rigault 86079;E0.1779;N46.9694;13;
3;FRA;Poitou-Charentes;Vienne;La Trimouille 86273;E1.0500;N46.4667;13;
3;FRA;Poitou-Charentes;Vienne;La Villedieu-du-Clain 86290;E0.3667;N46.4500;13;
3;FRA;Poitou-Charentes;Vienne;Lathus-Saint-Rémy 86120;E0.4000;N46.1833;13;
3;FRA;Poitou-Charentes;Vienne;Latillé 86121;E0.0667;N46.6167;13;
3;FRA;Poitou-Charentes;Vienne;Lauthiers 86122;E0.7333;N46.6000;13;
3;FRA;Poitou-Charentes;Vienne;Lavausseau 86123;E0.0833;N46.5500;13;
3;FRA;Poitou-Charentes;Vienne;Lavoux 86124;E0.5333;N46.6000;13;
3;FRA;Poitou-Charentes;Vienne;Le Bouchet 86033=86079;E0.1569;N46.9594;13;
3;FRA;Poitou-Charentes;Vienne;Le Rochereau 86208;E0.1667;N46.7167;13;
3;FRA;Poitou-Charentes;Vienne;Le Vigeant 86289;E0.6500;N46.2333;13;
3;FRA;Poitou-Charentes;Vienne;Leigné-les-Bois 86125;E0.7000;N46.7500;13;
3;FRA;Poitou-Charentes;Vienne;Leigné-sur-Usseau 86127;E0.4667;N46.9167;13;
3;FRA;Poitou-Charentes;Vienne;Leignes-sur-Fontaine 86126;E0.7833;N46.5000;13;
3;FRA;Poitou-Charentes;Vienne;Lencloître 86128;E0.3333;N46.8167;13;
3;FRA;Poitou-Charentes;Vienne;Les Ormes 86183;E0.6000;N46.9667;13;
3;FRA;Poitou-Charentes;Vienne;Les Trois-Moutiers 86274;E0.0167;N47.0667;13;
3;FRA;Poitou-Charentes;Vienne;Lésigny 86129;E0.7667;N46.8500;13;
3;FRA;Poitou-Charentes;Vienne;Leugny 86130;E0.7000;N46.9167;13;
3;FRA;Poitou-Charentes;Vienne;Lhommaizé 86131;E0.5833;N46.4333;13;
3;FRA;Poitou-Charentes;Vienne;Liglet 86132;E1.0833;N46.5167;13;
3;FRA;Poitou-Charentes;Vienne;Ligugé 86133;E0.3333;N46.5167;13;
3;FRA;Poitou-Charentes;Vienne;Linazay 86134;E0.1833;N46.1667;13;
3;FRA;Poitou-Charentes;Vienne;Liniers 86135;E0.5333;N46.6167;13;
3;FRA;Poitou-Charentes;Vienne;Lizant 86136;E0.2833;N46.0833;13;
3;FRA;Poitou-Charentes;Vienne;Loudun 86137;E0.0667;N47.0000;13;
3;FRA;Poitou-Charentes;Vienne;Luchapt 86138;E0.7833;N46.0167;13;
3;FRA;Poitou-Charentes;Vienne;Lusignan 86139;E0.1167;N46.4333;13;
3;FRA;Poitou-Charentes;Vienne;Lussac-les-Châteaux 86140;E0.7167;N46.4000;13;
3;FRA;Poitou-Charentes;Vienne;Magné 86141;E0.4000;N46.3500;13;
3;FRA;Poitou-Charentes;Vienne;Maillé 86142;E0.1000;N46.7000;13;
3;FRA;Poitou-Charentes;Vienne;Mairé 86143;E0.7500;N46.8500;13;
3;FRA;Poitou-Charentes;Vienne;Maisonneuve 86144;E0.0833;N46.7333;13;
3;FRA;Poitou-Charentes;Vienne;Marçay 86145;E0.2167;N46.4667;13;
3;FRA;Poitou-Charentes;Vienne;Marigny-Brizay 86146;E0.3833;N46.7333;13;
3;FRA;Poitou-Charentes;Vienne;Marigny-Chemereau 86147;E0.2333;N46.4333;13;
3;FRA;Poitou-Charentes;Vienne;Marnay 86148;E0.3500;N46.4000;13;
3;FRA;Poitou-Charentes;Vienne;Martaizé 86149;E0.0667;N46.9167;13;
3;FRA;Poitou-Charentes;Vienne;Massognes 86150;E0.0833;N46.7500;13;
3;FRA;Poitou-Charentes;Vienne;Maulay 86151;E0.2167;N46.9833;13;
3;FRA;Poitou-Charentes;Vienne;Mauprévoir 86152;E0.5167;N46.1667;13;
3;FRA;Poitou-Charentes;Vienne;Mazerolles 86153;E0.6833;N46.4000;13;
3;FRA;Poitou-Charentes;Vienne;Mazeuil 86154;E0.1000;N46.7833;13;
3;FRA;Poitou-Charentes;Vienne;Messais 86155=86161;E0.0167;N46.8667;13;
3;FRA;Poitou-Charentes;Vienne;Messemé 86156;E0.1667;N47.0167;13;
3;FRA;Poitou-Charentes;Vienne;Mignaloux-Beauvoir 86157;E0.4167;N46.5500;13;
3;FRA;Poitou-Charentes;Vienne;Migné-Auxances 86158;E0.3167;N46.6333;13;
3;FRA;Poitou-Charentes;Vienne;Millac 86159;E0.6833;N46.1833;13;
3;FRA;Poitou-Charentes;Vienne;Mirebeau 86160;E0.1833;N46.7833;13;
3;FRA;Poitou-Charentes;Vienne;Moncontour 86161;W0.0167;N46.8833;13;
3;FRA;Poitou-Charentes;Vienne;Mondion 86162;E0.4833;N46.9333;13;
3;FRA;Poitou-Charentes;Vienne;Montamisé 86163;E0.4333;N46.6167;13;
3;FRA;Poitou-Charentes;Vienne;Monthoiron 86164;E0.6167;N46.7333;13;
3;FRA;Poitou-Charentes;Vienne;Montmorillon 86165;E0.8667;N46.4333;13;
3;FRA;Poitou-Charentes;Vienne;Montreuil-Bonnin 86166;E0.1500;N46.5500;13;
3;FRA;Poitou-Charentes;Vienne;Monts-sur-Guesnes 86167;E0.2167;N46.9167;13;
3;FRA;Poitou-Charentes;Vienne;Morthemer 86168=86233;E0.6167;N46.4667;13;
3;FRA;Poitou-Charentes;Vienne;Morton 86169;W0.0167;N47.1167;13;
3;FRA;Poitou-Charentes;Vienne;Moulismes 86170;E0.8167;N46.3333;13;
3;FRA;Poitou-Charentes;Vienne;Moussac 86171;E0.6869;N46.2814;13;
3;FRA;Poitou-Charentes;Vienne;Mouterre-Silly 86173;E0.0667;N46.9833;13;
3;FRA;Poitou-Charentes;Vienne;Mouterre-sur-Blourde 86172;E0.7500;N46.2000;13;
3;FRA;Poitou-Charentes;Vienne;Naintré 86174;E0.4833;N46.7667;13;
3;FRA;Poitou-Charentes;Vienne;Nalliers 86175;E0.8667;N46.6000;13;
3;FRA;Poitou-Charentes;Vienne;Nérignac 86176;E0.7333;N46.3000;13;
3;FRA;Poitou-Charentes;Vienne;Neuville-de-Poitou 86177;E0.2458;N46.6861;13;
3;FRA;Poitou-Charentes;Vienne;Nieuil-l'Espoir 86178;E0.4500;N46.4833;13;
3;FRA;Poitou-Charentes;Vienne;Notre-Dame-d'Or 86179=86108;E0.0333;N46.8167;13;
3;FRA;Poitou-Charentes;Vienne;Nouaillé-Maupertuis 86180;E0.4167;N46.5167;13;
3;FRA;Poitou-Charentes;Vienne;Nueil-sous-Faye 86181;E0.2667;N46.9667;13;
3;FRA;Poitou-Charentes;Vienne;Orches 86182;E0.3167;N46.8833;13;
3;FRA;Poitou-Charentes;Vienne;Ouzilly 86184;E0.3667;N46.7833;13;
3;FRA;Poitou-Charentes;Vienne;Ouzilly-Vignolles 86185=86161;E0.0112;N46.9028;13;
3;FRA;Poitou-Charentes;Vienne;Oyré 86186;E0.6333;N46.8667;13;
3;FRA;Poitou-Charentes;Vienne;Paizay-le-Sec 86187;E0.7833;N46.5833;13;
3;FRA;Poitou-Charentes;Vienne;Payré 86188;E0.2000;N46.3333;13;
3;FRA;Poitou-Charentes;Vienne;Payroux 86189;E0.4833;N46.2167;13;
3;FRA;Poitou-Charentes;Vienne;Persac 86190;E0.7000;N46.3500;13;
3;FRA;Poitou-Charentes;Vienne;Pindray 86191;E0.8167;N46.4833;13;
3;FRA;Poitou-Charentes;Vienne;Plaisance 86192;E0.8667;N46.3333;13;
3;FRA;Poitou-Charentes;Vienne;Pleumartin 86193;E0.7333;N46.7500;13;
3;FRA;Poitou-Charentes;Vienne;Poitiers 86194;E0.3333;N46.5833;13;
3;FRA;Poitou-Charentes;Vienne;Port-de-Piles 86195;E0.6000;N47.0000;13;
3;FRA;Poitou-Charentes;Vienne;Pouançay 86196;W0.0833;N47.0833;13;
3;FRA;Poitou-Charentes;Vienne;Pouant 86197;E0.2667;N47.0000;13;
3;FRA;Poitou-Charentes;Vienne;Pouillé 86198;E0.5833;N46.5333;13;
3;FRA;Poitou-Charentes;Vienne;Pouzioux 86199=86070;E0.6938;N46.5173;13;
3;FRA;Poitou-Charentes;Vienne;Pressac 86200;E0.5667;N46.1167;13;
3;FRA;Poitou-Charentes;Vienne;Prinçay 86201;E0.2500;N46.9333;13;
3;FRA;Poitou-Charentes;Vienne;Queaux 86203;E0.6667;N46.3333;13;
3;FRA;Poitou-Charentes;Vienne;Quinçay 86204;E0.2355;N46.6075;13;
3;FRA;Poitou-Charentes;Vienne;Ranton 86205;W0.0333;N47.0000;13;
3;FRA;Poitou-Charentes;Vienne;Raslay 86206;W0.0022;N47.1125;13;
3;FRA;Poitou-Charentes;Vienne;Roches-Prémarie-Andillé 86209;E0.3667;N46.4667;13;
3;FRA;Poitou-Charentes;Vienne;Roiffé 86210;E0.0500;N47.1333;13;
3;FRA;Poitou-Charentes;Vienne;Romagne 86211;E0.3000;N46.2667;13;
3;FRA;Poitou-Charentes;Vienne;Rossay 86212=86137;E0.1333;N46.9833;13;
3;FRA;Poitou-Charentes;Vienne;Rouillé 86213;E0.0500;N46.4167;13;
3;FRA;Poitou-Charentes;Vienne;Saint-Benoît 86214;E0.3333;N46.5500;13;
3;FRA;Poitou-Charentes;Vienne;Saint-Cassien 86215=86005;E0.0809;N46.9483;13;
3;FRA;Poitou-Charentes;Vienne;Saint-Chartres 86216=86161;W0.0167;N46.8333;13;
3;FRA;Poitou-Charentes;Vienne;Saint-Christophe 86217;E0.3667;N46.9167;13;
3;FRA;Poitou-Charentes;Vienne;Saint-Clair 86218;E0.0667;N46.8833;13;
3;FRA;Poitou-Charentes;Vienne;Saint-Cyr 86219;E0.4500;N46.7167;13;
3;FRA;Poitou-Charentes;Vienne;Saint-Gaudent 86220;E0.2890;N46.1163;13;
3;FRA;Poitou-Charentes;Vienne;Saint-Genest-d'Ambière 86221;E0.3667;N46.8167;13;
3;FRA;Poitou-Charentes;Vienne;Saint-Georges-lès-Baillargeaux 86222;E0.4000;N46.6667;13;
3;FRA;Poitou-Charentes;Vienne;Saint-Germain 86223;E0.8667;N46.5667;13;
3;FRA;Poitou-Charentes;Vienne;Saint-Gervais-les-Trois-Clochers 86224;E0.4167;N46.9000;13;
3;FRA;Poitou-Charentes;Vienne;Saint-Jean-de-Sauves 86225;E0.0833;N46.8333;13;
3;FRA;Poitou-Charentes;Vienne;Saint-Julien-l'Ars 86226;E0.5000;N46.5500;13;
3;FRA;Poitou-Charentes;Vienne;Saint-Laon 86227;W0.0167;N46.9833;13;
3;FRA;Poitou-Charentes;Vienne;Saint-Laurent-de-Jourdes 86228;E0.5500;N46.4000;13;
3;FRA;Poitou-Charentes;Vienne;Saint-Léger-de-Montbrillais 86229;W0.0500;N47.0667;13;
3;FRA;Poitou-Charentes;Vienne;Saint-Léomer 86230;E1.0000;N46.4333;13;
3;FRA;Poitou-Charentes;Vienne;Saint-Macoux 86231;E0.2333;N46.1167;13;
3;FRA;Poitou-Charentes;Vienne;Saint-Martial 86232=86070;E0.6494;N46.5756;13;
3;FRA;Poitou-Charentes;Vienne;Saint-Martin-l'Ars 86234;E0.5333;N46.2167;13;
3;FRA;Poitou-Charentes;Vienne;Saint-Maurice-la-Clouère 86235;E0.6333;N46.5167;13;
3;FRA;Poitou-Charentes;Vienne;Saint-Pierre-d'Exideuil 86237;E0.4167;N46.3667;13;
3;FRA;Poitou-Charentes;Vienne;Saint-Pierre-de-Maillé 86236;E0.8500;N46.6833;13;
3;FRA;Poitou-Charentes;Vienne;Saint-Pierre-les-Églises 86238=86070;E0.6393;N46.5531;13;
3;FRA;Poitou-Charentes;Vienne;Saint-Rémy-en-Montmorillon 86240=86120;E0.9000;N46.2667;13;
3;FRA;Poitou-Charentes;Vienne;Saint-Rémy-sur-Creuse 86241;E0.6833;N46.9500;13;
3;FRA;Poitou-Charentes;Vienne;Saint-Romain 86242;E0.3659;N46.2219;13;
3;FRA;Poitou-Charentes;Vienne;Saint-Romain-sur-Vienne 86243=86092;E0.5984;N46.9362;13;
3;FRA;Poitou-Charentes;Vienne;Saint-Sauvant 86244;E0.0583;N46.3583;13;
3;FRA;Poitou-Charentes;Vienne;Saint-Sauveur 86245;E0.6167;N46.8000;13;
3;FRA;Poitou-Charentes;Vienne;Saint-Savin 86246;E0.8667;N46.5667;13;
3;FRA;Poitou-Charentes;Vienne;Saint-Saviol 86247;E0.2333;N46.1333;13;
3;FRA;Poitou-Charentes;Vienne;Saint-Secondin 86248;E0.4833;N46.3333;13;
3;FRA;Poitou-Charentes;Vienne;Sainte-Radégonde 86239;E0.7000;N46.6167;13;
3;FRA;Poitou-Charentes;Vienne;Saires 86249;E0.2500;N46.8833;13;
3;FRA;Poitou-Charentes;Vienne;Saix 86250;E0.0000;N47.1333;13;
3;FRA;Poitou-Charentes;Vienne;Salles-en-Toulon 86251=86233;E0.6399;N46.4926;13;
3;FRA;Poitou-Charentes;Vienne;Sammarçolles 86252;E0.1500;N47.0333;13;
3;FRA;Poitou-Charentes;Vienne;Sanxay 86253;E0.0000;N46.5000;13;
3;FRA;Poitou-Charentes;Vienne;Saulgé 86254;E0.8833;N46.3833;13;
3;FRA;Poitou-Charentes;Vienne;Savigné 86255;E0.3167;N46.1667;13;
3;FRA;Poitou-Charentes;Vienne;Savigny-Lévescault 86256;E0.5000;N46.5333;13;
3;FRA;Poitou-Charentes;Vienne;Savigny-sous-Faye 86257;E0.2833;N46.8667;13;
3;FRA;Poitou-Charentes;Vienne;Scorbé-Clairvaux 86258;E0.4167;N46.8167;13;
3;FRA;Poitou-Charentes;Vienne;Senillé 86259;E0.6000;N46.7667;13;
3;FRA;Poitou-Charentes;Vienne;Sérigny 86260;E0.3500;N46.9000;13;
3;FRA;Poitou-Charentes;Vienne;Sèvres-Anxaumont 86261;E0.4667;N46.5667;13;
3;FRA;Poitou-Charentes;Vienne;Sillars 86262;E0.7667;N46.4167;13;
3;FRA;Poitou-Charentes;Vienne;Smarves 86263;E0.3500;N46.5167;13;
3;FRA;Poitou-Charentes;Vienne;Sommières-du-Clain 86264;E0.3500;N46.2833;13;
3;FRA;Poitou-Charentes;Vienne;Sossais 86265;E0.3833;N46.8500;13;
3;FRA;Poitou-Charentes;Vienne;Surin 86266;E0.3718;N46.0775;13;
3;FRA;Poitou-Charentes;Vienne;Targé 86267=86066;E0.5833;N46.8000;13;
3;FRA;Poitou-Charentes;Vienne;Tercé 86268;E0.5667;N46.5167;13;
3;FRA;Poitou-Charentes;Vienne;Ternay 86269;W0.0500;N47.0333;13;
3;FRA;Poitou-Charentes;Vienne;Thollet 86270;E1.1230;N46.4211;13;
3;FRA;Poitou-Charentes;Vienne;Thurageau 86271;E0.2500;N46.7667;13;
3;FRA;Poitou-Charentes;Vienne;Thuré 86272;E0.4500;N46.8333;13;
3;FRA;Poitou-Charentes;Vienne;Usseau 86275;E0.5000;N46.8667;13;
3;FRA;Poitou-Charentes;Vienne;Usson-du-Poitou 86276;E0.5333;N46.2833;13;
3;FRA;Poitou-Charentes;Vienne;Valdivienne 86233;E0.6372;N46.5064;13;
3;FRA;Poitou-Charentes;Vienne;Varennes 86277;E0.2000;N46.7667;13;
3;FRA;Poitou-Charentes;Vienne;Vaux 86278;E0.2167;N46.3000;13;
3;FRA;Poitou-Charentes;Vienne;Vaux-sur-Vienne 86279;E0.5500;N46.9000;13;
3;FRA;Poitou-Charentes;Vienne;Vellèches 86280;E0.5167;N46.9833;13;
3;FRA;Poitou-Charentes;Vienne;Vendeuvre-du-Poitou 86281;E0.3167;N46.7333;13;
3;FRA;Poitou-Charentes;Vienne;Véniers 86282=86137;E0.0866;N47.0364;13;
3;FRA;Poitou-Charentes;Vienne;Verger-sur-Dive 86283=86108;E0.0833;N46.7833;13;
3;FRA;Poitou-Charentes;Vienne;Vernon 86284;E0.4833;N46.4500;13;
3;FRA;Poitou-Charentes;Vienne;Verrières 86285;E0.6000;N46.4167;13;
3;FRA;Poitou-Charentes;Vienne;Verrue 86286;E0.1667;N46.8667;13;
3;FRA;Poitou-Charentes;Vienne;Vézières 86287;E0.1000;N47.0833;13;
3;FRA;Poitou-Charentes;Vienne;Vicq-sur-Gartempe 86288;E0.8667;N46.7167;13;
3;FRA;Poitou-Charentes;Vienne;Villemort 86291;E0.9167;N46.5500;13;
3;FRA;Poitou-Charentes;Vienne;Villiers 86292;E0.1833;N46.6833;13;
3;FRA;Poitou-Charentes;Vienne;Vivonne 86293;E0.2667;N46.4333;13;
3;FRA;Poitou-Charentes;Vienne;Vouillé 86294;E0.1667;N46.6333;13;
3;FRA;Poitou-Charentes;Vienne;Voulême 86295;E0.2333;N46.1000;13;
3;FRA;Poitou-Charentes;Vienne;Voulon 86296;E0.2333;N46.3500;13;
3;FRA;Poitou-Charentes;Vienne;Vouneuil-sous-Biard 86297;E0.2667;N46.5833;13;
3;FRA;Poitou-Charentes;Vienne;Vouneuil-sur-Vienne 86298;E0.5333;N46.7167;13;
3;FRA;Poitou-Charentes;Vienne;Vouzailles 86299;E0.0833;N46.7000;13;
3;FRA;Poitou-Charentes;Vienne;Yversay 86300;E0.2167;N46.7000;13;