"Level";"Country";"County";"Place";"void";"Longitude";"Latitude";"ZoomLevel";"Icon"
2;ENG;Buckinghamshire;Addington;;W0.92;N51.94;10;
2;ENG;Buckinghamshire;Adstock;;W0.93;N51.96;10;
2;ENG;Buckinghamshire;Akeley;;W0.98;N52.02;10;
2;ENG;Buckinghamshire;Alscot;;W0.84;N51.72;10;
2;ENG;Buckinghamshire;Amersham;;W0.61;N51.67;10;
2;ENG;Buckinghamshire;Amersham Common;;W0.61;N51.66;10;
2;ENG;Buckinghamshire;Amersham Old Town;;W0.62;N51.66;10;
2;ENG;Buckinghamshire;Amersham on the Hill;;W0.61;N51.67;10;
2;ENG;Buckinghamshire;Ashendon;;W0.98;N51.82;10;
2;ENG;Buckinghamshire;Asheridge;;W0.65;N51.72;10;
2;ENG;Buckinghamshire;Ashley Green;;W0.59;N51.73;10;
2;ENG;Buckinghamshire;Askett;;W0.82;N51.73;10;
2;ENG;Buckinghamshire;Aston Abbotts;;W0.78;N51.87;10;
2;ENG;Buckinghamshire;Aston Clinton;;W0.73;N51.80;10;
2;ENG;Buckinghamshire;Aston Sandford;;W0.91;N51.75;10;
2;ENG;Buckinghamshire;Astrope;;W0.71;N51.81;10;
2;ENG;Buckinghamshire;Austenwood;;W0.57;N51.59;10;
2;ENG;Buckinghamshire;Aylesbury;;W0.82;N51.81;10;
2;ENG;Buckinghamshire;Baker's Wood;;W0.52;N51.57;10;
2;ENG;Buckinghamshire;Ballinger Bottom;;W0.68;N51.71;10;
2;ENG;Buckinghamshire;Ballinger Bottom (South);;W0.68;N51.70;10;
2;ENG;Buckinghamshire;Ballinger Common;;W0.68;N51.71;10;
2;ENG;Buckinghamshire;Barley End;;W0.60;N51.81;10;
2;ENG;Buckinghamshire;Barton Hartshorn;;W01.06;N51.97;10;
2;ENG;Buckinghamshire;Beachampton;;W0.87;N52.01;10;
2;ENG;Buckinghamshire;Beacon Hill;;W0.70;N51.62;10;
2;ENG;Buckinghamshire;Beacon's Bottom;;W0.87;N51.64;10;
2;ENG;Buckinghamshire;Beaconsfield;;W0.62;N51.59;10;
2;ENG;Buckinghamshire;Beaconsfield;;W0.65;N51.60;10;
2;ENG;Buckinghamshire;Beamond End;;W0.68;N51.65;10;
2;ENG;Buckinghamshire;Bedgrove;;W0.78;N51.80;10;
2;ENG;Buckinghamshire;Bellingdon;;W0.64;N51.73;10;
2;ENG;Buckinghamshire;Belmont;;W0.32;N51.59;10;
2;ENG;Buckinghamshire;Bennett End;;W0.87;N51.65;10;
2;ENG;Buckinghamshire;Berghers Hill;;W0.68;N51.57;10;
2;ENG;Buckinghamshire;Biddlesden;;W01.08;N52.04;10;
2;ENG;Buckinghamshire;Bierton;;W0.79;N51.82;10;
2;ENG;Buckinghamshire;Bishopstone;;W0.84;N51.78;10;
2;ENG;Buckinghamshire;Bledlow;;W0.88;N51.71;10;
2;ENG;Buckinghamshire;Bledlow Ridge;;W0.85;N51.66;10;
2;ENG;Buckinghamshire;Boarstall;;W01.10;N51.82;10;
2;ENG;Buckinghamshire;Bockmer End;;W0.83;N51.56;10;
2;ENG;Buckinghamshire;Bolter End;;W0.86;N51.62;10;
2;ENG;Buckinghamshire;Booker;;W0.80;N51.61;10;
2;ENG;Buckinghamshire;Botley;;W0.58;N51.70;10;
2;ENG;Buckinghamshire;Botolph Claydon;;W0.94;N51.91;10;
2;ENG;Buckinghamshire;Bottrells Close;;W0.58;N51.62;10;
2;ENG;Buckinghamshire;Bourne End;;W0.71;N51.57;10;
2;ENG;Buckinghamshire;Bourton;;W0.98;N51.99;10;
2;ENG;Buckinghamshire;Bovingdon Green;;W0.80;N51.56;10;
2;ENG;Buckinghamshire;Bradenham;;W0.81;N51.66;10;
2;ENG;Buckinghamshire;Bragenham;;W0.69;N51.94;10;
2;ENG;Buckinghamshire;Brill;;W01.05;N51.81;10;
2;ENG;Buckinghamshire;Broughton;;W0.78;N51.80;10;
2;ENG;Buckinghamshire;Bryant's Bottom;;W0.77;N51.68;10;
2;ENG;Buckinghamshire;Buckingham;;W0.99;N51.99;10;
2;ENG;Buckinghamshire;Buckland;;W0.72;N51.79;10;
2;ENG;Buckinghamshire;Buckland Common;;W0.66;N51.74;10;
2;ENG;Buckinghamshire;Bucklandwharf;;W0.71;N51.79;10;
2;ENG;Buckinghamshire;Buckmoorend;;W0.78;N51.72;10;
2;ENG;Buckinghamshire;Buffler's Holt;;W01.03;N52.00;10;
2;ENG;Buckinghamshire;Burcott;;W0.78;N51.82;10;
2;ENG;Buckinghamshire;Burcott;;W0.73;N51.89;10;
2;ENG;Buckinghamshire;Burnham;;W0.67;N51.52;10;
2;ENG;Buckinghamshire;Burroughs Grove;;W0.77;N51.59;10;
2;ENG;Buckinghamshire;Butlers Cross;;W0.60;N51.61;10;
2;ENG;Buckinghamshire;Butler's Cross;;W0.78;N51.75;10;
2;ENG;Buckinghamshire;Bye Green;;W0.75;N51.79;10;
2;ENG;Buckinghamshire;Cadmore End;;W0.87;N51.62;10;
2;ENG;Buckinghamshire;Calvert;;W01.01;N51.91;10;
2;ENG;Buckinghamshire;Canons Park;;W0.29;N51.60;10;
2;ENG;Buckinghamshire;Chackmore;;W01.01;N52.00;10;
2;ENG;Buckinghamshire;Chalfont Common;;W0.55;N51.61;10;
2;ENG;Buckinghamshire;Chalfont Grove;;W0.58;N51.60;10;
2;ENG;Buckinghamshire;Chalfont St Giles;;W0.58;N51.62;10;
2;ENG;Buckinghamshire;Chalfont St Peter;;W0.55;N51.60;10;
2;ENG;Buckinghamshire;Chalkshire;;W0.78;N51.75;10;
2;ENG;Buckinghamshire;Charndon;;W01.02;N51.91;10;
2;ENG;Buckinghamshire;Chartridge;;W0.65;N51.71;10;
2;ENG;Buckinghamshire;Chearsley;;W0.97;N51.78;10;
2;ENG;Buckinghamshire;Cheddington;;W0.66;N51.84;10;
2;ENG;Buckinghamshire;Chenies;;W0.54;N51.67;10;
2;ENG;Buckinghamshire;Chesham;;W0.61;N51.69;10;
2;ENG;Buckinghamshire;Chesham Bois;;W0.61;N51.68;10;
2;ENG;Buckinghamshire;Chessmount;;W0.61;N51.69;10;
2;ENG;Buckinghamshire;Chetwode;;W01.06;N51.95;10;
2;ENG;Buckinghamshire;Chiltern Hills;;W0.69;N51.74;10;
2;ENG;Buckinghamshire;Chilton;;W01.01;N51.79;10;
2;ENG;Buckinghamshire;Chisbridge Cross;;W0.83;N51.59;10;
2;ENG;Buckinghamshire;Chivery;;W0.69;N51.75;10;
2;ENG;Buckinghamshire;Cholesbury;;W0.65;N51.75;10;
2;ENG;Buckinghamshire;Chorleywood West;;W0.54;N51.65;10;
2;ENG;Buckinghamshire;Church End;;W0.51;N51.67;10;
2;ENG;Buckinghamshire;Church End;;W0.92;N51.75;10;
2;ENG;Buckinghamshire;Church End;;W0.63;N51.82;10;
2;ENG;Buckinghamshire;Clanking;;W0.81;N51.75;10;
2;ENG;Buckinghamshire;Claydon Brook;;W0.95;N51.97;10;
2;ENG;Buckinghamshire;Codmore;;W0.59;N51.70;10;
2;ENG;Buckinghamshire;Coleshill;;W0.64;N51.64;10;
2;ENG;Buckinghamshire;Colne;;W0.49;N51.50;10;
2;ENG;Buckinghamshire;Colne;;W0.48;N51.57;10;
2;ENG;Buckinghamshire;Colne Brook;;W0.52;N51.48;10;
2;ENG;Buckinghamshire;Colstrope;;W0.87;N51.58;10;
2;ENG;Buckinghamshire;Coombe;;W0.78;N51.74;10;
2;ENG;Buckinghamshire;Cores End;;W0.70;N51.57;10;
2;ENG;Buckinghamshire;Crafton;;W0.72;N51.86;10;
2;ENG;Buckinghamshire;Creslow;;W0.82;N51.88;10;
2;ENG;Buckinghamshire;Cressex;;W0.78;N51.61;10;
2;ENG;Buckinghamshire;Crownfield;;W0.84;N51.68;10;
2;ENG;Buckinghamshire;Cryers Hill;;W0.74;N51.65;10;
2;ENG;Buckinghamshire;Cublington;;W0.79;N51.89;10;
2;ENG;Buckinghamshire;Cuddington;;W0.94;N51.79;10;
2;ENG;Buckinghamshire;Dadford;;W01.03;N52.03;10;
2;ENG;Buckinghamshire;Dagnall;;W0.56;N51.83;10;
2;ENG;Buckinghamshire;Danesfield;;W0.83;N51.54;10;
2;ENG;Buckinghamshire;Darvillshill;;W0.81;N51.68;10;
2;ENG;Buckinghamshire;Denham;;W0.50;N51.56;10;
2;ENG;Buckinghamshire;Denham;;W0.91;N51.87;10;
2;ENG;Buckinghamshire;Denham Green;;W0.51;N51.58;10;
2;ENG;Buckinghamshire;Dinton;;W0.89;N51.78;10;
2;ENG;Buckinghamshire;Ditchfield;;W0.84;N51.61;10;
2;ENG;Buckinghamshire;Dorney;;W0.66;N51.50;10;
2;ENG;Buckinghamshire;Dorton;;W01.01;N51.82;10;
2;ENG;Buckinghamshire;Downley;;W0.78;N51.64;10;
2;ENG;Buckinghamshire;Drayton Beauchamp;;W0.69;N51.79;10;
2;ENG;Buckinghamshire;Drayton Parslow;;W0.79;N51.94;10;
2;ENG;Buckinghamshire;Duck End;;W0.85;N51.93;10;
2;ENG;Buckinghamshire;Dunsmore;;W0.75;N51.73;10;
2;ENG;Buckinghamshire;Dunton;;W0.80;N51.90;10;
2;ENG;Buckinghamshire;Easington;;W01.01;N51.78;10;
2;ENG;Buckinghamshire;East Claydon;;W0.93;N51.91;10;
2;ENG;Buckinghamshire;East End;;W0.82;N51.85;10;
2;ENG;Buckinghamshire;Eaton Bray;;W0.59;N51.87;10;
2;ENG;Buckinghamshire;Edgcott;;W01.02;N51.89;10;
2;ENG;Buckinghamshire;Edlesborough;;W0.59;N51.86;10;
2;ENG;Buckinghamshire;Egypt;;W0.61;N51.55;10;
2;ENG;Buckinghamshire;Ellesborough;;W0.79;N51.74;10;
2;ENG;Buckinghamshire;Elmhurst;;W0.81;N51.82;10;
2;ENG;Buckinghamshire;Eton Wick;;W0.64;N51.49;10;
2;ENG;Buckinghamshire;Farnham Common;;W0.61;N51.55;10;
2;ENG;Buckinghamshire;Farnham Park;;W0.61;N51.53;10;
2;ENG;Buckinghamshire;Farnham Royal;;W0.61;N51.53;10;
2;ENG;Buckinghamshire;Fawley;;W0.91;N51.56;10;
2;ENG;Buckinghamshire;Fern;;W0.73;N51.58;10;
2;ENG;Buckinghamshire;Fingest;;W0.88;N51.61;10;
2;ENG;Buckinghamshire;Flackwell Heath;;W0.71;N51.59;10;
2;ENG;Buckinghamshire;Flowers Bottom;;W0.80;N51.68;10;
2;ENG;Buckinghamshire;Ford;;W0.88;N51.77;10;
2;ENG;Buckinghamshire;Forty Green;;W0.67;N51.61;10;
2;ENG;Buckinghamshire;Foscote;;W0.96;N52.00;10;
2;ENG;Buckinghamshire;Four Ashes;;W0.74;N51.64;10;
2;ENG;Buckinghamshire;Frieth;;W0.86;N51.60;10;
2;ENG;Buckinghamshire;Frith-hill;;W0.69;N51.70;10;
2;ENG;Buckinghamshire;Fulmer;;W0.57;N51.55;10;
2;ENG;Buckinghamshire;Gawcott;;W01.01;N51.97;10;
2;ENG;Buckinghamshire;George Green;;W0.55;N51.51;10;
2;ENG;Buckinghamshire;Gerrards Cross;;W0.57;N51.57;10;
2;ENG;Buckinghamshire;Gibraltar;;W0.91;N51.78;10;
2;ENG;Buckinghamshire;Goddards;;W0.87;N51.60;10;
2;ENG;Buckinghamshire;Granborough;;W0.89;N51.91;10;
2;ENG;Buckinghamshire;Grand Union Canal;;W0.67;N51.81;10;
2;ENG;Buckinghamshire;Gravel Hill;;W0.55;N51.60;10;
2;ENG;Buckinghamshire;Great Brickhill;;W0.69;N51.96;10;
2;ENG;Buckinghamshire;Great Hampden;;W0.78;N51.70;10;
2;ENG;Buckinghamshire;Great Hivings;;W0.62;N51.71;10;
2;ENG;Buckinghamshire;Great Horwood;;W0.88;N51.97;10;
2;ENG;Buckinghamshire;Great Kimble;;W0.81;N51.73;10;
2;ENG;Buckinghamshire;Great Kingshill;;W0.74;N51.67;10;
2;ENG;Buckinghamshire;Great Missenden;;W0.71;N51.70;10;
2;ENG;Buckinghamshire;Great Ouse;;W0.82;N52.06;10;
2;ENG;Buckinghamshire;Greatgap;;W0.63;N51.83;10;
2;ENG;Buckinghamshire;Greatmoor;;W0.98;N51.89;10;
2;ENG;Buckinghamshire;Green End;;W0.84;N51.64;10;
2;ENG;Buckinghamshire;Green End;;W0.69;N51.96;10;
2;ENG;Buckinghamshire;Green Hailey;;W0.81;N51.71;10;
2;ENG;Buckinghamshire;Greenhill;;W0.34;N51.57;10;
2;ENG;Buckinghamshire;Greenlands;;W0.89;N51.55;10;
2;ENG;Buckinghamshire;Grendon Underwood;;W01.01;N51.87;10;
2;ENG;Buckinghamshire;Grove;;W0.67;N51.88;10;
2;ENG;Buckinghamshire;Haddenham;;W0.92;N51.76;10;
2;ENG;Buckinghamshire;Halton;;W0.74;N51.78;10;
2;ENG;Buckinghamshire;Ham Green;;W0.99;N51.85;10;
2;ENG;Buckinghamshire;Hambleden;;W0.87;N51.56;10;
2;ENG;Buckinghamshire;Handy Cross;;W0.77;N51.60;10;
2;ENG;Buckinghamshire;Hardwick;;W0.83;N51.86;10;
2;ENG;Buckinghamshire;Harrow on the Hill;;W0.34;N51.56;10;
2;ENG;Buckinghamshire;Harrow Weald;;W0.34;N51.59;10;
2;ENG;Buckinghamshire;Hastoe;;W0.68;N51.77;10;
2;ENG;Buckinghamshire;Hatch End;;W0.38;N51.60;10;
2;ENG;Buckinghamshire;Hawks Hill;;W0.70;N51.56;10;
2;ENG;Buckinghamshire;Hazlemere;;W0.71;N51.64;10;
2;ENG;Buckinghamshire;Headstone;;W0.37;N51.58;10;
2;ENG;Buckinghamshire;Heath End;;W0.72;N51.67;10;
2;ENG;Buckinghamshire;Heath End;;W0.62;N51.74;10;
2;ENG;Buckinghamshire;Hedgerley;;W0.61;N51.57;10;
2;ENG;Buckinghamshire;Hedgerley Green;;W0.60;N51.57;10;
2;ENG;Buckinghamshire;Hedgerley Hill;;W0.60;N51.56;10;
2;ENG;Buckinghamshire;Hedsor;;W0.68;N51.57;10;
2;ENG;Buckinghamshire;High Wycombe;;W0.75;N51.62;10;
2;ENG;Buckinghamshire;Higher Denham;;W0.52;N51.57;10;
2;ENG;Buckinghamshire;Hillesden;;W01.01;N51.94;10;
2;ENG;Buckinghamshire;Hillesden Hamlet;;W01.02;N51.96;10;
2;ENG;Buckinghamshire;Hilltop;;W0.61;N51.70;10;
2;ENG;Buckinghamshire;Hoggeston;;W0.83;N51.91;10;
2;ENG;Buckinghamshire;Hollingdon;;W0.73;N51.93;10;
2;ENG;Buckinghamshire;Holly Green;;W0.88;N51.72;10;
2;ENG;Buckinghamshire;Hollybush Corner;;W0.61;N51.56;10;
2;ENG;Buckinghamshire;Hollybush Hill;;W0.58;N51.54;10;
2;ENG;Buckinghamshire;Holmer Green;;W0.69;N51.66;10;
2;ENG;Buckinghamshire;Holtspur;;W0.67;N51.60;10;
2;ENG;Buckinghamshire;Horsenden;;W0.85;N51.71;10;
2;ENG;Buckinghamshire;Horsleys Green;;W0.87;N51.64;10;
2;ENG;Buckinghamshire;Horton;;W0.66;N51.86;10;
2;ENG;Buckinghamshire;Horton Wharf;;W0.65;N51.86;10;
2;ENG;Buckinghamshire;Hotley Bottom;;W0.74;N51.70;10;
2;ENG;Buckinghamshire;Hughenden Valley;;W0.75;N51.65;10;
2;ENG;Buckinghamshire;Hulcott;;W0.76;N51.83;10;
2;ENG;Buckinghamshire;Hunt's Green;;W0.71;N51.71;10;
2;ENG;Buckinghamshire;Hunt's Hill;;W0.78;N51.65;10;
2;ENG;Buckinghamshire;Hyde Heath;;W0.65;N51.69;10;
2;ENG;Buckinghamshire;Ibstone;;W0.91;N51.63;10;
2;ENG;Buckinghamshire;Ilmer;;W0.90;N51.73;10;
2;ENG;Buckinghamshire;Iver;;W0.51;N51.51;10;
2;ENG;Buckinghamshire;Iver Heath;;W0.53;N51.53;10;
2;ENG;Buckinghamshire;Ivinghoe;;W0.63;N51.83;10;
2;ENG;Buckinghamshire;Ivinghoe Aston;;W0.62;N51.85;10;
2;ENG;Buckinghamshire;Jordans;;W0.60;N51.60;10;
2;ENG;Buckinghamshire;Kimble Wick;;W0.84;N51.75;10;
2;ENG;Buckinghamshire;Kingsash;;W0.72;N51.73;10;
2;ENG;Buckinghamshire;Kingsey;;W0.92;N51.74;10;
2;ENG;Buckinghamshire;Knotty Green;;W0.65;N51.61;10;
2;ENG;Buckinghamshire;Lacey Green;;W0.81;N51.69;10;
2;ENG;Buckinghamshire;Lake End;;W0.67;N51.50;10;
2;ENG;Buckinghamshire;Lane End;;W0.84;N51.62;10;
2;ENG;Buckinghamshire;Lanes End;;W0.69;N51.75;10;
2;ENG;Buckinghamshire;Langley Corner;;W0.54;N51.54;10;
2;ENG;Buckinghamshire;Latimer;;W0.55;N51.68;10;
2;ENG;Buckinghamshire;Layters Green;;W0.58;N51.60;10;
2;ENG;Buckinghamshire;Leckhampstead;;W0.95;N52.02;10;
2;ENG;Buckinghamshire;Ledburn;;W0.69;N51.88;10;
2;ENG;Buckinghamshire;Lee Clump;;W0.69;N51.72;10;
2;ENG;Buckinghamshire;Lee Common;;W0.69;N51.72;10;
2;ENG;Buckinghamshire;Lee Gate;;W0.71;N51.73;10;
2;ENG;Buckinghamshire;Lenborough;;W0.99;N51.97;10;
2;ENG;Buckinghamshire;Lent;;W0.67;N51.52;10;
2;ENG;Buckinghamshire;Lent Rise;;W0.67;N51.52;10;
2;ENG;Buckinghamshire;Ley Hill;;W0.58;N51.70;10;
2;ENG;Buckinghamshire;Lillingstone Dayrell;;W0.98;N52.04;10;
2;ENG;Buckinghamshire;Lillingstone Lovell;;W0.96;N52.05;10;
2;ENG;Buckinghamshire;Little Boys Heath;;W0.69;N51.67;10;
2;ENG;Buckinghamshire;Little Brickhill;;W0.69;N51.97;10;
2;ENG;Buckinghamshire;Little Chalfont;;W0.56;N51.66;10;
2;ENG;Buckinghamshire;Little Hampden;;W0.75;N51.71;10;
2;ENG;Buckinghamshire;Little Horwood;;W0.85;N51.96;10;
2;ENG;Buckinghamshire;Little Kimble;;W0.81;N51.75;10;
2;ENG;Buckinghamshire;Little Kingshill;;W0.71;N51.68;10;
2;ENG;Buckinghamshire;Little London;;W0.75;N51.73;10;
2;ENG;Buckinghamshire;Little London;;W01.07;N51.80;10;
2;ENG;Buckinghamshire;Little Marlow;;W0.74;N51.58;10;
2;ENG;Buckinghamshire;Little Marsh;;W01.05;N51.90;10;
2;ENG;Buckinghamshire;Little Missnden;;W0.67;N51.67;10;
2;ENG;Buckinghamshire;Little Stanmore;;W0.29;N51.59;10;
2;ENG;Buckinghamshire;Little Wood Corner;;W0.68;N51.70;10;
2;ENG;Buckinghamshire;Littlecote;;W0.79;N51.90;10;
2;ENG;Buckinghamshire;Littleworth Common;;W0.65;N51.56;10;
2;ENG;Buckinghamshire;Long Crendon;;W01.00;N51.76;10;
2;ENG;Buckinghamshire;Longwick;;W0.87;N51.73;10;
2;ENG;Buckinghamshire;Loosley Row;;W0.82;N51.69;10;
2;ENG;Buckinghamshire;Loudwater;;W0.70;N51.60;10;
2;ENG;Buckinghamshire;Love Green;;W0.51;N51.51;10;
2;ENG;Buckinghamshire;Lower Bois;;W0.61;N51.69;10;
2;ENG;Buckinghamshire;Lower Cadsden;;W0.81;N51.72;10;
2;ENG;Buckinghamshire;Lower End;;W01.01;N51.77;10;
2;ENG;Buckinghamshire;Lower End;;W0.93;N51.99;10;
2;ENG;Buckinghamshire;Lower Hartwell;;W0.85;N51.80;10;
2;ENG;Buckinghamshire;Lower North Dean;;W0.77;N51.67;10;
2;ENG;Buckinghamshire;Lower Pollicot;;W0.98;N51.80;10;
2;ENG;Buckinghamshire;Lower Weald;;W0.86;N52.03;10;
2;ENG;Buckinghamshire;Lower Winchendon;;W0.94;N51.80;10;
2;ENG;Buckinghamshire;Lower Woodend;;W0.83;N51.57;10;
2;ENG;Buckinghamshire;Ludgershall;;W01.04;N51.84;10;
2;ENG;Buckinghamshire;Lye Green;;W0.59;N51.71;10;
2;ENG;Buckinghamshire;Maids' Moreton;;W0.98;N52.00;10;
2;ENG;Buckinghamshire;Manor Park;;W0.81;N51.81;10;
2;ENG;Buckinghamshire;Mantles Green;;W0.62;N51.66;10;
2;ENG;Buckinghamshire;Marlow;;W0.77;N51.56;10;
2;ENG;Buckinghamshire;Marlow Bottom;;W0.78;N51.58;10;
2;ENG;Buckinghamshire;Marlow Common;;W0.81;N51.56;10;
2;ENG;Buckinghamshire;Marsh;;W0.82;N51.77;10;
2;ENG;Buckinghamshire;Marsh Gibbon;;W01.07;N51.90;10;
2;ENG;Buckinghamshire;Marsworth;;W0.66;N51.81;10;
2;ENG;Buckinghamshire;Meadle;;W0.84;N51.73;10;
2;ENG;Buckinghamshire;Medmenham;;W0.84;N51.54;10;
2;ENG;Buckinghamshire;Mentmore;;W0.69;N51.86;10;
2;ENG;Buckinghamshire;Micklefield;;W0.73;N51.62;10;
2;ENG;Buckinghamshire;Middle Claydon;;W0.95;N51.91;10;
2;ENG;Buckinghamshire;Middle Green;;W0.56;N51.51;10;
2;ENG;Buckinghamshire;Misbourne;;W0.64;N51.67;10;
2;ENG;Buckinghamshire;Mobwell;;W0.71;N51.70;10;
2;ENG;Buckinghamshire;Monks Risborough;;W0.84;N51.72;10;
2;ENG;Buckinghamshire;Moor Common;;W0.84;N51.60;10;
2;ENG;Buckinghamshire;Moor End;;W0.84;N51.60;10;
2;ENG;Buckinghamshire;Moor End;;W0.59;N51.87;10;
2;ENG;Buckinghamshire;Mount Pleasant;;W0.99;N51.99;10;
2;ENG;Buckinghamshire;Mursley;;W0.82;N51.94;10;
2;ENG;Buckinghamshire;Naphill;;W0.78;N51.66;10;
2;ENG;Buckinghamshire;Nash;;W0.86;N51.99;10;
2;ENG;Buckinghamshire;Nash Lee;;W0.78;N51.76;10;
2;ENG;Buckinghamshire;Nearton End;;W0.83;N51.92;10;
2;ENG;Buckinghamshire;Nether Winchendon;;W0.94;N51.80;10;
2;ENG;Buckinghamshire;New Denham;;W0.50;N51.54;10;
2;ENG;Buckinghamshire;Newton Longville;;W0.77;N51.97;10;
2;ENG;Buckinghamshire;Newtown;;W0.61;N51.70;10;
2;ENG;Buckinghamshire;North End;;W0.77;N51.93;10;
2;ENG;Buckinghamshire;North End;;W0.98;N51.93;10;
2;ENG;Buckinghamshire;North Harrow;;W0.37;N51.57;10;
2;ENG;Buckinghamshire;North Lee;;W0.79;N51.76;10;
2;ENG;Buckinghamshire;North Marston;;W0.88;N51.89;10;
2;ENG;Buckinghamshire;Northall;;W0.62;N51.87;10;
2;ENG;Buckinghamshire;Northend;;W0.94;N51.62;10;
2;ENG;Buckinghamshire;Nup End;;W0.75;N51.86;10;
2;ENG;Buckinghamshire;Oakley;;W01.08;N51.80;10;
2;ENG;Buckinghamshire;Orchard Leigh;;W0.58;N51.71;10;
2;ENG;Buckinghamshire;Ouzel;;W0.72;N52.08;10;
2;ENG;Buckinghamshire;Oving;;W0.86;N51.88;10;
2;ENG;Buckinghamshire;Owlswick;;W0.87;N51.74;10;
2;ENG;Buckinghamshire;Padbury;;W0.95;N51.96;10;
2;ENG;Buckinghamshire;Parmoor;;W0.86;N51.59;10;
2;ENG;Buckinghamshire;Parslow's Hillock;;W0.81;N51.70;10;
2;ENG;Buckinghamshire;Pednor Bottom;;W0.65;N51.71;10;
2;ENG;Buckinghamshire;Pednormead End;;W0.62;N51.69;10;
2;ENG;Buckinghamshire;Penn;;W0.68;N51.62;10;
2;ENG;Buckinghamshire;Penn Bottom;;W0.67;N51.63;10;
2;ENG;Buckinghamshire;Penn Street;;W0.67;N51.65;10;
2;ENG;Buckinghamshire;Pheasants;;W0.86;N51.58;10;
2;ENG;Buckinghamshire;Pheasant's Hill;;W0.87;N51.57;10;
2;ENG;Buckinghamshire;Piddington;;W0.84;N51.63;10;
2;ENG;Buckinghamshire;Pinner Green;;W0.39;N51.59;10;
2;ENG;Buckinghamshire;Pinnerwood Park;;W0.39;N51.59;10;
2;ENG;Buckinghamshire;Pitch Green;;W0.88;N51.72;10;
2;ENG;Buckinghamshire;Pitchcott;;W0.88;N51.87;10;
2;ENG;Buckinghamshire;Pitstone Green;;W0.63;N51.82;10;
2;ENG;Buckinghamshire;Pitstone Hill;;W0.62;N51.81;10;
2;ENG;Buckinghamshire;Pond Park;;W0.62;N51.70;10;
2;ENG;Buckinghamshire;Poundon;;W01.07;N51.92;10;
2;ENG;Buckinghamshire;Preston Bissett;;W01.05;N51.95;10;
2;ENG;Buckinghamshire;Prestwood;;W0.74;N51.69;10;
2;ENG;Buckinghamshire;Princes Risborough;;W0.84;N51.72;10;
2;ENG;Buckinghamshire;Puttenham;;W0.72;N51.81;10;
2;ENG;Buckinghamshire;Quainton;;W0.92;N51.87;10;
2;ENG;Buckinghamshire;Quarrendon;;W0.84;N51.82;10;
2;ENG;Buckinghamshire;Queensbury;;W0.29;N51.58;10;
2;ENG;Buckinghamshire;Radclive;;W01.02;N51.99;10;
2;ENG;Buckinghamshire;Radnage;;W0.87;N51.66;10;
2;ENG;Buckinghamshire;Ray;;W01.01;N51.87;10;
2;ENG;Buckinghamshire;Rayners Lane;;W0.38;N51.57;10;
2;ENG;Buckinghamshire;Redland End;;W0.79;N51.71;10;
2;ENG;Buckinghamshire;Richings Park;;W0.51;N51.50;10;
2;ENG;Buckinghamshire;Ridgemarsh;;W0.54;N51.63;10;
2;ENG;Buckinghamshire;Ringshall;;W0.57;N51.81;10;
2;ENG;Buckinghamshire;Rockwell End;;W0.86;N51.58;10;
2;ENG;Buckinghamshire;Rose Hill;;W0.67;N51.54;10;
2;ENG;Buckinghamshire;Rout's Green;;W0.87;N51.67;10;
2;ENG;Buckinghamshire;Rowsham;;W0.78;N51.85;10;
2;ENG;Buckinghamshire;Roxeth;;W0.35;N51.56;10;
2;ENG;Buckinghamshire;Salden;;W0.80;N51.95;10;
2;ENG;Buckinghamshire;Sandhill;;W0.93;N51.92;10;
2;ENG;Buckinghamshire;Sands;;W0.80;N51.62;10;
2;ENG;Buckinghamshire;Saunderton;;W0.85;N51.70;10;
2;ENG;Buckinghamshire;Saunderton Lee;;W0.84;N51.68;10;
2;ENG;Buckinghamshire;Sedrup;;W0.85;N51.79;10;
2;ENG;Buckinghamshire;Seer Green;;W0.61;N51.60;10;
2;ENG;Buckinghamshire;Shabbington;;W01.04;N51.75;10;
2;ENG;Buckinghamshire;Shalstone;;W01.06;N52.01;10;
2;ENG;Buckinghamshire;Sheepridge;;W0.73;N51.59;10;
2;ENG;Buckinghamshire;Shipton;;W0.88;N51.93;10;
2;ENG;Buckinghamshire;Shipton Lee;;W0.94;N51.88;10;
2;ENG;Buckinghamshire;Shreding Green;;W0.53;N51.51;10;
2;ENG;Buckinghamshire;Singleborough;;W0.89;N51.98;10;
2;ENG;Buckinghamshire;Skirmett;;W0.88;N51.60;10;
2;ENG;Buckinghamshire;Skittle Green;;W0.88;N51.71;10;
2;ENG;Buckinghamshire;Slapton;;W0.65;N51.87;10;
2;ENG;Buckinghamshire;Smoky Row;;W0.82;N51.74;10;
2;ENG;Buckinghamshire;Soulbury;;W0.72;N51.93;10;
2;ENG;Buckinghamshire;South End;;W0.76;N51.91;10;
2;ENG;Buckinghamshire;South Harrow;;W0.37;N51.56;10;
2;ENG;Buckinghamshire;South Heath;;W0.68;N51.70;10;
2;ENG;Buckinghamshire;Southcourt;;W0.82;N51.80;10;
2;ENG;Buckinghamshire;Southend;;W0.91;N51.59;10;
2;ENG;Buckinghamshire;Speen;;W0.78;N51.68;10;
2;ENG;Buckinghamshire;Spurlands End;;W0.71;N51.66;10;
2;ENG;Buckinghamshire;St Leonards;;W0.68;N51.75;10;
2;ENG;Buckinghamshire;Stanmore;;W0.32;N51.60;10;
2;ENG;Buckinghamshire;Startop's End;;W0.66;N51.81;10;
2;ENG;Buckinghamshire;Steeple Claydon;;W0.99;N51.92;10;
2;ENG;Buckinghamshire;Stewkley;;W0.76;N51.92;10;
2;ENG;Buckinghamshire;Stewkley Dean;;W0.79;N51.92;10;
2;ENG;Buckinghamshire;Stoke Green;;W0.58;N51.52;10;
2;ENG;Buckinghamshire;Stoke Hammond;;W0.72;N51.95;10;
2;ENG;Buckinghamshire;Stoke Mandeville;;W0.79;N51.78;10;
2;ENG;Buckinghamshire;Stoke Poges;;W0.58;N51.53;10;
2;ENG;Buckinghamshire;Stokenchurch;;W0.90;N51.65;10;
2;ENG;Buckinghamshire;Stone;;W0.87;N51.80;10;
2;ENG;Buckinghamshire;Stony Green;;W0.75;N51.68;10;
2;ENG;Buckinghamshire;Stratton Chase;;W0.58;N51.63;10;
2;ENG;Buckinghamshire;Studley Green;;W0.85;N51.64;10;
2;ENG;Buckinghamshire;Summer Heath;;W0.93;N51.60;10;
2;ENG;Buckinghamshire;Summerstown;;W01.05;N51.89;10;
2;ENG;Buckinghamshire;Swan Bottom;;W0.69;N51.73;10;
2;ENG;Buckinghamshire;Swanbourne;;W0.83;N51.93;10;
2;ENG;Buckinghamshire;Taplow;;W0.68;N51.52;10;
2;ENG;Buckinghamshire;Tatling End;;W0.54;N51.57;10;
2;ENG;Buckinghamshire;Terrick;;W0.79;N51.76;10;
2;ENG;Buckinghamshire;Terriers;;W0.74;N51.63;10;
2;ENG;Buckinghamshire;Tetchwick;;W01.02;N51.85;10;
2;ENG;Buckinghamshire;Thame;;W0.91;N51.80;10;
2;ENG;Buckinghamshire;Thames;;W0.75;N51.56;10;
2;ENG;Buckinghamshire;The City;;W0.87;N51.65;10;
2;ENG;Buckinghamshire;The Common;;W0.88;N51.97;10;
2;ENG;Buckinghamshire;The Lee;;W0.69;N51.72;10;
2;ENG;Buckinghamshire;Thornborough;;W0.92;N51.99;10;
2;ENG;Buckinghamshire;Thorney;;W0.50;N51.50;10;
2;ENG;Buckinghamshire;Thornton;;W0.90;N52.00;10;
2;ENG;Buckinghamshire;Tingewick;;W01.05;N51.98;10;
2;ENG;Buckinghamshire;Tinkers End;;W0.89;N51.93;10;
2;ENG;Buckinghamshire;Totteridge;;W0.72;N51.62;10;
2;ENG;Buckinghamshire;Towerage;;W0.81;N51.63;10;
2;ENG;Buckinghamshire;Town End;;W0.87;N51.66;10;
2;ENG;Buckinghamshire;Town's End;;W01.07;N51.89;10;
2;ENG;Buckinghamshire;Townsend;;W0.92;N51.77;10;
2;ENG;Buckinghamshire;Turville;;W0.90;N51.61;10;
2;ENG;Buckinghamshire;Turville Heath;;W0.93;N51.61;10;
2;ENG;Buckinghamshire;Turweston;;W01.12;N52.02;10;
2;ENG;Buckinghamshire;Twyford;;W01.04;N51.92;10;
2;ENG;Buckinghamshire;Tylers Green;;W0.70;N51.63;10;
2;ENG;Buckinghamshire;Tyler's Hill;;W0.58;N51.69;10;
2;ENG;Buckinghamshire;Upper North Dean;;W0.78;N51.67;10;
2;ENG;Buckinghamshire;Upper Pollicott;;W0.98;N51.81;10;
2;ENG;Buckinghamshire;Upper Winchendon;;W0.92;N51.81;10;
2;ENG;Buckinghamshire;Upton;;W0.88;N51.79;10;
2;ENG;Buckinghamshire;Victoria Park;;W0.79;N51.80;10;
2;ENG;Buckinghamshire;Waddesdon;;W0.92;N51.83;10;
2;ENG;Buckinghamshire;Walter's Ash;;W0.78;N51.67;10;
2;ENG;Buckinghamshire;Walton;;W0.81;N51.80;10;
2;ENG;Buckinghamshire;Walton Court;;W0.82;N51.80;10;
2;ENG;Buckinghamshire;Wardrobes;;W0.82;N51.70;10;
2;ENG;Buckinghamshire;Water Stratford;;W01.05;N52.00;10;
2;ENG;Buckinghamshire;Waterend;;W0.87;N51.65;10;
2;ENG;Buckinghamshire;Waterside;;W0.61;N51.69;10;
2;ENG;Buckinghamshire;Wealdstone;;W0.34;N51.58;10;
2;ENG;Buckinghamshire;Weedon;;W0.82;N51.85;10;
2;ENG;Buckinghamshire;Well End;;W0.73;N51.58;10;
2;ENG;Buckinghamshire;Wendover;;W0.75;N51.76;10;
2;ENG;Buckinghamshire;Wendover Dean;;W0.74;N51.72;10;
2;ENG;Buckinghamshire;West Harrow;;W0.35;N51.57;10;
2;ENG;Buckinghamshire;West Wycombe;;W0.81;N51.63;10;
2;ENG;Buckinghamshire;Westcott;;W0.97;N51.84;10;
2;ENG;Buckinghamshire;Westlington;;W0.89;N51.78;10;
2;ENG;Buckinghamshire;Weston Turvill;;W0.76;N51.78;10;
2;ENG;Buckinghamshire;Whaddon;;W0.83;N51.99;10;
2;ENG;Buckinghamshire;Wheeler End;;W0.84;N51.63;10;
2;ENG;Buckinghamshire;Whelpley Hill;;W0.56;N51.72;10;
2;ENG;Buckinghamshire;Whitchurch;;W0.83;N51.87;10;
2;ENG;Buckinghamshire;Whiteleaf;;W0.82;N51.72;10;
2;ENG;Buckinghamshire;Widmer End;;W0.72;N51.65;10;
2;ENG;Buckinghamshire;Widmoor;;W0.68;N51.56;10;
2;ENG;Buckinghamshire;Willowbank;;W0.48;N51.55;10;
2;ENG;Buckinghamshire;Wilstone Green;;W0.69;N51.80;10;
2;ENG;Buckinghamshire;Wilton Park;;W0.61;N51.60;10;
2;ENG;Buckinghamshire;Winchmore Hill;;W0.65;N51.64;10;
2;ENG;Buckinghamshire;Wing;;W0.72;N51.88;10;
2;ENG;Buckinghamshire;Wingrave;;W0.75;N51.85;10;
2;ENG;Buckinghamshire;Winslow;;W0.89;N51.93;10;
2;ENG;Buckinghamshire;Wooburn;;W0.70;N51.57;10;
2;ENG;Buckinghamshire;Wooburn Green;;W0.68;N51.58;10;
2;ENG;Buckinghamshire;Wood End;;W0.85;N51.96;10;
2;ENG;Buckinghamshire;Woodburn Common;;W0.67;N51.57;10;
2;ENG;Buckinghamshire;Woodburn Moor;;W0.68;N51.60;10;
2;ENG;Buckinghamshire;Woodham;;W0.98;N51.85;10;
2;ENG;Buckinghamshire;Woodrow;;W0.65;N51.65;10;
2;ENG;Buckinghamshire;World's End;;W0.76;N51.77;10;
2;ENG;Buckinghamshire;Worminghall;;W01.07;N51.76;10;
2;ENG;Buckinghamshire;Wotton Underwood;;W01.01;N51.82;10;
2;ENG;Buckinghamshire;Wrexham Street;;W0.57;N51.53;10;
2;ENG;Buckinghamshire;Wycombe;;W0.73;N51.61;10;
2;ENG;Buckinghamshire;Wye;;W0.75;N51.64;10;
