"Level";"Country";"County";"Place";"void";"Longitude";"Latitude";"ZoomLevel";"Icon"
2;ENG;Isle of Wight;Adgestone;;W1.16;N50.66;10;
2;ENG;Isle of Wight;Afton;;W1.52;N50.67;10;
2;ENG;Isle of Wight;Alverstone;;W1.19;N50.66;10;
2;ENG;Isle of Wight;Appley;;W1.15;N50.72;10;
2;ENG;Isle of Wight;Apse Heath;;W1.20;N50.64;10;
2;ENG;Isle of Wight;Arreton;;W1.23;N50.67;10;
2;ENG;Isle of Wight;Ashey;;W1.19;N50.69;10;
2;ENG;Isle of Wight;Atherfield Green;;W1.35;N50.60;10;
2;ENG;Isle of Wight;Barton;;W1.29;N50.69;10;
2;ENG;Isle of Wight;Bembridge;;W1.09;N50.67;10;
2;ENG;Isle of Wight;Bierley;;W1.28;N50.59;10;
2;ENG;Isle of Wight;Binstead;;W1.19;N50.72;10;
2;ENG;Isle of Wight;Blackgang;;W1.32;N50.58;10;
2;ENG;Isle of Wight;Blackwater;;W1.29;N50.67;10;
2;ENG;Isle of Wight;Bonchurch;;W1.19;N50.59;10;
2;ENG;Isle of Wight;Bouldnor;;W1.47;N50.69;10;
2;ENG;Isle of Wight;Bowcombe;;W1.35;N50.67;10;
2;ENG;Isle of Wight;Brading;;W1.15;N50.67;10;
2;ENG;Isle of Wight;Branstone;;W1.22;N50.64;10;
2;ENG;Isle of Wight;Brighstone;;W1.40;N50.63;10;
2;ENG;Isle of Wight;Brook;;W1.44;N50.64;10;
2;ENG;Isle of Wight;Brookgreen;;W1.46;N50.64;10;
2;ENG;Isle of Wight;Calbourne;;W1.40;N50.67;10;
2;ENG;Isle of Wight;Carisbrooke;;W1.32;N50.68;10;
2;ENG;Isle of Wight;Chale;;W1.32;N50.59;10;
2;ENG;Isle of Wight;Chale Green;;W1.32;N50.60;10;
2;ENG;Isle of Wight;Chillerton;;W1.32;N50.65;10;
2;ENG;Isle of Wight;Clatterford;;W1.32;N50.68;10;
2;ENG;Isle of Wight;Cowes;;W1.30;N50.75;10;
2;ENG;Isle of Wight;Cranmore;;W1.44;N50.70;10;
2;ENG;Isle of Wight;Cridmore;;W1.30;N50.63;10;
2;ENG;Isle of Wight;Dallimores;;W1.26;N50.73;10;
2;ENG;Isle of Wight;Downend;;W1.25;N50.68;10;
2;ENG;Isle of Wight;Dunnose;;W1.18;N50.59;10;
2;ENG;Isle of Wight;Dunnose;;W1.18;N50.59;10;
2;ENG;Isle of Wight;East Cowes;;W1.29;N50.75;10;
2;ENG;Isle of Wight;Easton;;W1.52;N50.67;10;
2;ENG;Isle of Wight;Elmfield;;W1.15;N50.71;10;
2;ENG;Isle of Wight;Fairlee;;W1.29;N50.70;10;
2;ENG;Isle of Wight;Fishbourne;;W1.22;N50.72;10;
2;ENG;Isle of Wight;Five Houses;;W1.40;N50.68;10;
2;ENG;Isle of Wight;Foreland;;W1.06;N50.68;10;
2;ENG;Isle of Wight;Foreland Fields;;W1.08;N50.67;10;
2;ENG;Isle of Wight;Forest Side;;W1.33;N50.69;10;
2;ENG;Isle of Wight;Freshwater;;W1.52;N50.67;10;
2;ENG;Isle of Wight;Freshwater Bay;;W1.52;N50.66;10;
2;ENG;Isle of Wight;Gatcombe;;W1.32;N50.66;10;
2;ENG;Isle of Wight;Godshill;;W1.26;N50.62;10;
2;ENG;Isle of Wight;Gunville;;W1.33;N50.69;10;
2;ENG;Isle of Wight;Gurnard;;W1.33;N50.75;10;
2;ENG;Isle of Wight;Hamstead;;W1.44;N50.72;10;
2;ENG;Isle of Wight;Havenstreet;;W1.20;N50.70;10;
2;ENG;Isle of Wight;Haylands;;W1.17;N50.71;10;
2;ENG;Isle of Wight;Hillis Corner;;W1.33;N50.73;10;
2;ENG;Isle of Wight;Hillway;;W1.10;N50.67;10;
2;ENG;Isle of Wight;Hulverstone;;W1.44;N50.65;10;
2;ENG;Isle of Wight;Hunny Hill;;W1.30;N50.69;10;
2;ENG;Isle of Wight;Isle of Wight;;W1.29;N50.67;10;
2;ENG;Isle of Wight;Kingates;;W1.28;N50.59;10;
2;ENG;Isle of Wight;Kingston;;W1.33;N50.62;10;
2;ENG;Isle of Wight;Kite Hill;;W1.22;N50.72;10;
2;ENG;Isle of Wight;Lake;;W1.18;N50.64;10;
2;ENG;Isle of Wight;Landguard Manor;;W1.19;N50.63;10;
2;ENG;Isle of Wight;Lane End;;W1.08;N50.67;10;
2;ENG;Isle of Wight;Limerstone;;W1.37;N50.63;10;
2;ENG;Isle of Wight;Little Atherfield;;W1.35;N50.61;10;
2;ENG;Isle of Wight;Little Whitehouse;;W1.36;N50.71;10;
2;ENG;Isle of Wight;Littletown;;W1.25;N50.70;10;
2;ENG;Isle of Wight;Locksgreen;;W1.37;N50.70;10;
2;ENG;Isle of Wight;Lowtherville;;W1.22;N50.59;10;
2;ENG;Isle of Wight;Luccombe Village;;W1.18;N50.60;10;
2;ENG;Isle of Wight;Mark's Corner;;W1.34;N50.72;10;
2;ENG;Isle of Wight;Medina;;W1.29;N50.62;10;
2;ENG;Isle of Wight;Merrie Gardens;;W1.18;N50.64;10;
2;ENG;Isle of Wight;Merstone;;W1.26;N50.66;10;
2;ENG;Isle of Wight;Middleton;;W1.53;N50.67;10;
2;ENG;Isle of Wight;Moortown;;W1.40;N50.64;10;
2;ENG;Isle of Wight;Morton;;W1.15;N50.67;10;
2;ENG;Isle of Wight;Mottistone;;W1.43;N50.64;10;
2;ENG;Isle of Wight;Nettlecombe;;W1.26;N50.59;10;
2;ENG;Isle of Wight;Nettlestone;;W1.12;N50.70;10;
2;ENG;Isle of Wight;Newbridge;;W1.42;N50.68;10;
2;ENG;Isle of Wight;Newchurch;;W1.22;N50.66;10;
2;ENG;Isle of Wight;Newport;;W1.30;N50.68;10;
2;ENG;Isle of Wight;Newtown;;W1.40;N50.70;10;
2;ENG;Isle of Wight;Ningwood;;W1.43;N50.69;10;
2;ENG;Isle of Wight;Ningwood Common;;W1.44;N50.69;10;
2;ENG;Isle of Wight;Niton;;W1.29;N50.58;10;
2;ENG;Isle of Wight;Northwood;;W1.32;N50.73;10;
2;ENG;Isle of Wight;Norton;;W1.51;N50.69;10;
2;ENG;Isle of Wight;Norton Green;;W1.51;N50.69;10;
2;ENG;Isle of Wight;Oakfield;;W1.16;N50.71;10;
2;ENG;Isle of Wight;Pan;;W1.29;N50.68;10;
2;ENG;Isle of Wight;Parkhurst;;W1.30;N50.70;10;
2;ENG;Isle of Wight;Pelhamfield;;W1.17;N50.72;10;
2;ENG;Isle of Wight;Pondwell;;W1.13;N50.71;10;
2;ENG;Isle of Wight;Porchfield;;W1.37;N50.71;10;
2;ENG;Isle of Wight;Pound Green;;W1.53;N50.67;10;
2;ENG;Isle of Wight;Pyle;;W1.33;N50.60;10;
2;ENG;Isle of Wight;Quarr Hill;;W1.20;N50.72;10;
2;ENG;Isle of Wight;Queen's Bower;;W1.19;N50.65;10;
2;ENG;Isle of Wight;Rew Street;;W1.33;N50.74;10;
2;ENG;Isle of Wight;Rookley;;W1.29;N50.64;10;
2;ENG;Isle of Wight;Rookley Green;;W1.29;N50.64;10;
2;ENG;Isle of Wight;Roud;;W1.28;N50.61;10;
2;ENG;Isle of Wight;Ryde;;W1.16;N50.72;10;
2;ENG;Isle of Wight;Sandford;;W1.23;N50.62;10;
2;ENG;Isle of Wight;Sandown;;W1.16;N50.65;10;
2;ENG;Isle of Wight;Sandy Way;;W1.36;N50.63;10;
2;ENG;Isle of Wight;School Green;;W1.53;N50.67;10;
2;ENG;Isle of Wight;Seaview;;W1.12;N50.71;10;
2;ENG;Isle of Wight;Shalcombe;;W1.44;N50.66;10;
2;ENG;Isle of Wight;Shalfleet;;W1.42;N50.69;10;
2;ENG;Isle of Wight;Shanklin;;W1.18;N50.62;10;
2;ENG;Isle of Wight;Shide;;W1.29;N50.68;10;
2;ENG;Isle of Wight;Shorwell;;W1.36;N50.63;10;
2;ENG;Isle of Wight;Southford;;W1.28;N50.59;10;
2;ENG;Isle of Wight;Springhill;;W1.29;N50.75;10;
2;ENG;Isle of Wight;St Catherine's Point;;W1.29;N50.57;10;
2;ENG;Isle of Wight;St Helens;;W1.12;N50.69;10;
2;ENG;Isle of Wight;St John's Park;;W1.15;N50.72;10;
2;ENG;Isle of Wight;St Lawrence;;W1.25;N50.58;10;
2;ENG;Isle of Wight;Staplers;;W1.27;N50.69;10;
2;ENG;Isle of Wight;Steephill;;W1.22;N50.59;10;
2;ENG;Isle of Wight;Steyne Cross;;W1.09;N50.67;10;
2;ENG;Isle of Wight;Swanmore;;W1.16;N50.71;10;
2;ENG;Isle of Wight;Thorley;;W1.47;N50.69;10;
2;ENG;Isle of Wight;Thorley Street;;W1.47;N50.69;10;
2;ENG;Isle of Wight;Thorncross;;W1.39;N50.62;10;
2;ENG;Isle of Wight;Totland;;W1.54;N50.67;10;
2;ENG;Isle of Wight;Upper Bonchurch;;W1.19;N50.59;10;
2;ENG;Isle of Wight;Upper Hyde;;W1.19;N50.62;10;
2;ENG;Isle of Wight;Upton;;W1.17;N50.70;10;
2;ENG;Isle of Wight;Ventnor;;W1.21;N50.59;10;
2;ENG;Isle of Wight;Warden Point;;W1.54;N50.68;10;
2;ENG;Isle of Wight;Weeks;;W1.16;N50.71;10;
2;ENG;Isle of Wight;Wellow;;W1.46;N50.69;10;
2;ENG;Isle of Wight;Weston Manor;;W1.54;N50.67;10;
2;ENG;Isle of Wight;Whippingham;;W1.27;N50.73;10;
2;ENG;Isle of Wight;Whiteley Bank;;W1.22;N50.62;10;
2;ENG;Isle of Wight;Whitwell;;W1.26;N50.59;10;
2;ENG;Isle of Wight;Winford;;W1.20;N50.65;10;
2;ENG;Isle of Wight;Woodside;;W1.23;N50.73;10;
2;ENG;Isle of Wight;Wootton;;W1.23;N50.72;10;
2;ENG;Isle of Wight;Wootton Bridge;;W1.23;N50.71;10;
2;ENG;Isle of Wight;Wootton Common;;W1.25;N50.71;10;
2;ENG;Isle of Wight;Wroxall;;W1.22;N50.60;10;
2;ENG;Isle of Wight;Yafford;;W1.37;N50.62;10;
2;ENG;Isle of Wight;Yar;;W1.26;N50.60;10;
2;ENG;Isle of Wight;Yarbridge;;W1.15;N50.67;10;
2;ENG;Isle of Wight;Yarmouth;;W1.50;N50.69;10;
2;ENG;Isle of Wight;Yaverland;;W1.13;N50.66;10;